Business Name,Contact Phone Number,Address,Address City,Address State,Address ZIP,Address Borough
QUIK PARK 775 GARAGE LLC,2128322066,775 COLUMBUS AVE,NEW YORK,NY,10025,Manhattan
"LAZ PARKING NEW YORK, NEW JERSEY LLC",2122652239,120 NASSAU ST,BROOKLYN,NY,11201,Brooklyn
LAZ PARKING NEW YORK / NEW JERSEY LLC,2122652239,504 MYRTLE AVE,BROOKLYN,NY,11205,Brooklyn
WILLSHIRE CAR PARK INC.,2122216111,18230 WEXFORD TER,JAMAICA,NY,11432,Queens
GR PARKING INC,3474459514,4007 73RD ST,WOODSIDE,NY,11377,Queens
QUIK PARK WATER STREET LLC,2128322066,95 WALL ST,NEW YORK,NY,10005,Manhattan
J P PARKING II CORP,2018000358,4501 BROADWAY,NEW YORK,NY,10040,Manhattan
30-40-60 GARAGE LLC,6469644323,30 E 9TH ST,NEW YORK,NY,10003,Manhattan
PUBLIC PARKING 200 E. 15TH STREET INC,7187297276,200 E 15TH ST,NEW YORK,NY,10003,Manhattan
LM DRIGGS PARKING LLC,212-714-3571,247 METROPOLITAN AVE,BROOKLYN,NY,11211,Brooklyn
ZANDER GARAGE LLC,646-964-4323,301 ELIZABETH ST,NEW YORK,NY,10012,Manhattan
LIAM GARAGE LLC,646-964-4323,77 W 15TH ST,NEW YORK,NY,10011,Manhattan
CHAMPION PARKING 76 ST LLC.,2123085959,205 W 76TH ST,NEW YORK,NY,10023,Manhattan
WEST 30TH GARAGE LLC,6409644323,363 W 30TH ST,NEW YORK,NY,10001,Manhattan
QUIK PARK 365 MANAGEMENT LLC,2128322066,365 BOND ST,BROOKLYN,NY,11231,Brooklyn
RIVERSIDE CENTER PARKING LLC,2126869800,1 W END AVE,NEW YORK,NY,10023,Manhattan
LAZ PARKING NEW YORK / NEW JERSEY LLC,2122652239,360 E 65TH ST,NEW YORK,NY,10065,Manhattan
LAZ PARKING NEW YORK / NEW JERSEY LLC,2122652239,779-789 RIVERSIDE DR,NEW YORK,NY,10032,Manhattan
LAZ PARKING NEW YORK / NEW JERSEY LLC,2122652239,15 WILLIAM ST,NEW YORK,NY,10005,Manhattan
LAZ PARKING NEW YORK / NEW JERSEY LLC,2122652239,3916 PRINCE ST,FLUSHING,NY,11354,Queens
LAZ PARKING NEW YORK / NEW JERSEY LLC,2122652239,525 E 72ND ST,NEW YORK,NY,10021,Manhattan
LAZ PARKING NEW YORK / NEW JERSEY LLC,2122652239,250 W 50TH ST,NEW YORK,NY,10019,Manhattan
LAZ PARKING NEW YORK / NEW JERSEY LLC,2122652239,555 W 59TH ST,NEW YORK,NY,10019,Manhattan
LAZ PARKING NEW YORK / NEW JERSEY LLC,2122652239,839 AVENUE OF THE AMERICAS,NEW YORK,NY,10001,Manhattan
LAZ PARKING NEW YORK / NEW JERSEY LLC,2122652239,15902 JAMAICA AVE,JAMAICA,NY,11432,Queens
"CHARLES PARKING, LLC",2126849704,200 E 27TH ST,NEW YORK,NY,10016,Manhattan
LAZ PARKING NEW YORK / NEW JERSEY LLC,2122652239,175 KENT AVE,BROOKLYN,NY,11249,Brooklyn
LAZ PARKING NEW YORK / NEW JERSEY LLC,2122652239,267 6TH AVE,BROOKLYN,NY,11215,Brooklyn
LAZ PARKING NEW YORK / NEW JERSEY LLC,2122652239,8914 PARSONS BLVD,JAMAICA,NY,11432,Queens
LAZ PARKING NEW YORK / NEW JERSEY LLC,2122652239,3804 NOSTRAND AVE,BROOKLYN,NY,11235,Brooklyn
LAZ PARKING NEW YORK / NEW JERSEY LLC,2122652239,13620 38TH AVE,FLUSHING,NY,11354,Queens
LAZ PARKING NEW YORK / NEW JERSEY LLC,2122652239,56-80 GREENWICH ST,NEW YORK,NY,10006,Manhattan
LAZ PARKING NEW YORK / NEW JERSEY LLC,2122652239,160 RIVERSIDE BLVD,NEW YORK,NY,10069,Manhattan
LAZ PARKING NEW YORK / NEW JERSEY LLC,2122652239,527 E 14TH ST,NEW YORK,NY,10009,Manhattan
LAZ PARKING NEW YORK / NEW JERSEY LLC,2122652239,325 AVENUE C,NEW YORK,NY,10009,Manhattan
LAZ PARKING NEW YORK / NEW JERSEY LLC,2122652239,300 SCHERMERHORN ST,BROOKLYN,NY,11217,Brooklyn
LAZ PARKING NEW YORK / NEW JERSEY LLC,2122652239,8020 COOPER AVE,GLENDALE,NY,11385,Queens
LAZ PARKING NEW YORK / NEW JERSEY LLC,2122652239,420 E 20TH ST,NEW YORK,NY,10009,Manhattan
LAZ PARKING NEW YORK / NEW JERSEY LLC,2122652239,501 E 87TH ST,NEW YORK,NY,10128,Manhattan
LAZ PARKING NEW YORK / NEW JERSEY LLC,2122652239,265 E 66TH ST,NEW YORK,NY,10065,Manhattan
LAZ PARKING NEW YORK / NEW JERSEY LLC,2122652239,200 CABRINI BLVD,NEW YORK,NY,10033,Manhattan
LAZ PARKING NEW YORK / NEW JERSEY LLC,2122652239,8914 PARSONS BLVD,JAMAICA,NY,11432,Queens
LAZ PARKING NEW YORK / NEW JERSEY LLC,2122652239,347-353 E 17TH ST,NEW YORK,NY,10003,Manhattan
LAZ PARKING NEW YORK / NEW JERSEY LLC,2122652239,388 BRIDGE ST,BROOKLYN,NY,11201,Brooklyn
LAZ PARKING NEW YORK / NEW JERSEY LLC,2122652239,312 BERGEN ST,BROOKLYN,NY,11217,Brooklyn
PARK KWIK LLC,2129745840,325 KENT AVE,BROOKLYN,NY,11249,Brooklyn
"ONE PARKING RC, INC.",480-272-2100,10 ROCKEFELLER PLZ,NEW YORK,NY,10020,Manhattan
QUIK PARK EAST 79 GARAGE LLC,212-832-2066,435 E 79TH ST,NEW YORK,NY,10075,Manhattan
"ONE PARKING 709, INC.",4802722100,2830 JACKSON AVE,LONG ISLAND CITY,NY,11101,Queens
MP 1775 LLC,2124903460,1775 GRAND CONCOURSE,BRONX,NY,10453,Bronx
POO PARKING CORP.,2124903460,1752 MORRIS AVE,BRONX,NY,10457,Bronx
MP COLUMBUS PARKING LLC,2124903460,10 COLUMBUS CIR,NEW YORK,NY,10019,Manhattan
PUBLIC PARKING 50 NORTH 5TH STREET INC,2124866888,50 N 5TH ST,BROOKLYN,NY,11249,Brooklyn
VANCITY PARKING INC,9173277488,70 E 162ND ST,BRONX,NY,10452,Bronx
GEM PARKING CORP.,,260 E 188TH ST,BRONX,NY,10458,Bronx
EASTSIDE 27 COMMERCIAL LLC,2123649704,200 E 27TH ST,NEW YORK,NY,10016,Manhattan
GEM PARKING CORP.,,260 E 188TH ST,BRONX,NY,10458,Bronx
"D&J UNION PLAZA PARKING, LLC",3474539548,3819 UNION ST,FLUSHING,NY,11354,Queens
QUIK PARK WEST 62ND ST. LLC,2128322066,140 W 65TH ST,NEW YORK,NY,10023,Manhattan
SP PLUS CORPORATION,212217621,20990 23RD AVE,BAYSIDE,NY,11360,Queens
WELCOME PARKING LLC,646-476-2959,131 E 55TH ST,NEW YORK,NY,10022,Manhattan
TYOS LLC,2126652160,1131 OGDEN AVE,BRONX,NY,10452,Bronx
KK ENTERPRISE GROUP INC.,9173277488,4745 PARK AVE,BRONX,NY,10458,Bronx
786 PARKING CORP,7186180029,250 E 144TH ST,BRONX,NY,10451,Bronx
CUSTOM PARKING LLC,2126869800,184 E 64TH ST,NEW YORK,NY,10065,Manhattan
CHAMPION PARKING 39 LLC,2128529033,102 W 39TH ST,NEW YORK,NY,10018,Manhattan
PARK PLACE GARAGE LLC,6465840409,99 CHURCH ST,NEW YORK,NY,10007,Manhattan
SYLVAN ASTORIA GARAGE LLC,7185759440,2325 31ST ST,ASTORIA,NY,11105,Queens
100 RIVERSIDE PARKING LLC,2126869800,120 RIVERSIDE BLVD,NEW YORK,NY,10069,Manhattan
100 RIVERSIDE PARKING LLC,2126869800,100 RIVERSIDE BLVD,NEW YORK,NY,10069,Manhattan
QUIK PARK CRESCENT LLC,2128322066,4308 CRESCENT ST,LONG ISLAND CITY,NY,11101,Queens
BROOKLYN METRO PARKING LLC,2126869800,100 WILLOUGHBY ST,BROOKLYN,NY,11201,Brooklyn
LAZ PARKING NEW YORK / NEW JERSEY LLC,2122652239,199 WATER ST,NEW YORK,NY,10038,Manhattan
1725 PARKING LLC,2126869800,1725 YORK AVE,NEW YORK,NY,10128,Manhattan
220 RIVERSIDE PARKING LLC,2126869800,220 RIVERSIDE BLVD,NEW YORK,NY,10069,Manhattan
QUIK PARK 801 GARAGE LLC,212-222-3289,801 AMSTERDAM AVE,NEW YORK,NY,10025,Manhattan
149 KENT AVENUE PARKING CORP,212-736-7171,149 KENT AVE,BROOKLYN,NY,11249,Brooklyn
LAZ PARKING NEW YORK / NEW JERSEY LLC,2122652239,9 W 57TH ST,NEW YORK,NY,10019,Manhattan
LM 29 PARK LLC,2129672848,221 W 29TH ST,NEW YORK,NY,10001,Manhattan
A & D 24 Hour Parking Inc,,2160 WEBSTER AVE,BRONX,NY,10457,Bronx
PARK ARMORYMANAGEMENT LLC,7182229427,171 CLERMONT AVE,BROOKLYN,NY,11205,Brooklyn
CHAMPION PARKING 113 LLC,212-308-5959,400 W 113TH ST,NEW YORK,NY,10025,Manhattan
"LAUREATE GARAGE, LLC",2127502056,2148 BROADWAY,NEW YORK,NY,10023,Manhattan
A & J PARKING LLC,914-314-3157,1035 ANDERSON AVE,BRONX,NY,10452,Bronx
LAZ PARKING NEW YORK / NEW JERSEY LLC,2122652239,1113 YORK AVE,NEW YORK,NY,10065,Manhattan
LAZ PARKING NEW YORK / NEW JERSEY LLC,2122652239,1 FORDHAM PLZ,BRONX,NY,10458,Bronx
MP PARK ASSOCIATES LLC,2124903460,810 RIVER AVE,BRONX,NY,10451,Bronx
FULTON LAWRENCE PARKING LLC,2126869800,111 LAWRENCE ST,BROOKLYN,NY,11201,Brooklyn
QUIK PARK ELY GARAGE LLC,2128322066,81 FLEET PL,BROOKLYN,NY,11201,Brooklyn
CLINTON 53 PARKING LLC,2126869800,515 W 52ND ST,NEW YORK,NY,10019,Manhattan
SUPER ELITE PARKING INC,9174705093,1973 38TH ST,ASTORIA,NY,11105,Queens
LAZ PARKING NEW YORK / NEW JERSEY LLC,2122652239,247 W 46TH ST,NEW YORK,NY,10036,Manhattan
MORRIS AVENUE PARKING LLC,6465027200,655 MORRIS AVE,BRONX,NY,10451,Bronx
CHAMPION PARKING 92 LLC,2123085959,114 W 92ND ST,NEW YORK,NY,10025,Manhattan
"PROPARK AMERICA NEW YORK, LLC",3479443939,920 PARK AVE,NEW YORK,NY,10028,Manhattan
"PROPARK AMERICA NEW YORK, LLC",3479443939,9015 QUEENS BLVD,ELMHURST,NY,11373,Queens
"PROPARK AMERICA NEW YORK, LLC",3479443939,11045 QUEENS BLVD,FOREST HILLS,NY,11375,Queens
ROCKWELL CAR PARK LLC,212-996-6363,29 FLATBUSH AVE,BROOKLYN,NY,11217,Brooklyn
7 WEST 21 PARKING LLC,212-888-7400,7 W 21ST ST,NEW YORK,NY,10010,Manhattan
507 WEST 28TH STREET PARKING CORP.,2127367171,507 W 28TH ST,NEW YORK,NY,10001,Manhattan
2 NORTH 6TH PARKING CORP,2127367171,2 N 6TH ST,BROOKLYN,NY,11249,Brooklyn
"PROPARK AMERICA NEW YORK, LLC",3479443939,11215 NORTHERN BLVD,CORONA,NY,11368,Queens
QUIK PARK 808 GARAGE LLC,2128322066,808 COLUMBUS AVE,NEW YORK,NY,10025,Manhattan
CHAMPION PARKING NORTH LLC,212-308-5959,2917 QUEENS PLZ N,LONG ISLAND CITY,NY,11101,Queens
LAZ PARKING NEW YORK / NEW JERSEY LLC,2122652239,751 CONCOURSE VLG W,BRONX,NY,10451,Bronx
SP PLUS CORPORATION,2123217621,9777 QUEENS BLVD,REGO PARK,NY,11374,Queens
58TH & 7TH PARKING LLC,2126869800,157 W 57TH ST,NEW YORK,NY,10019,Manhattan
99 PARK AVENUE CORP.,2128661000,99 PARK AVE,NEW YORK,NY,10016,Manhattan
JORIAN PARK LLC,7187794774,8213 37TH AVE,JACKSON HEIGHTS,NY,11372,Queens
THE CAR PARK OF NEW YORK LLC,208-336-6597,8036 COOPER AVE,GLENDALE,NY,11385,Queens
XTELL PARKING LLC,917-592-4762,17802 HILLSIDE AVE,JAMAICA,NY,11432,Queens
34 NORTH 7TH PARKING CORP.,2127367171,34 N 7TH ST,BROOKLYN,NY,11249,Brooklyn
"LAZ PARKING NEW YORK, NEW JERSEY LLC",2122652239,140 RIVERSIDE BLVD,NEW YORK,NY,10069,Manhattan
QUIK PARK HUDSON VI LLC,212-686-9800,40 RIVERSIDE BLVD,NEW YORK,NY,10069,Manhattan
560 W 43RD STREET PARKING CORP,9174727056,555 W 42ND ST,NEW YORK,NY,10036,Manhattan
"BATTERY 17 PARKING, LLC",646-773-4400,17 BATTERY PL,NEW YORK,NY,10004,Manhattan
THE CAR PARK OF NEW YORK LLC,208-336-6597,9015 QUEENS BLVD,ELMHURST,NY,11373,Queens
147-36 94TH AVENUE PARKING CORP.,2127367171,14736 94TH AVE,JAMAICA,NY,11435,Queens
PARK 115TH LLC,2129799815,2131 FREDERICK DOUGLASS BLVD,NEW YORK,NY,10026,Manhattan
ENTERPRISE 57 PARKING LLC,2125643199,606 W 57TH ST,NEW YORK,NY,10019,Manhattan
NORTH 12 PARKING LLC,9143209630,55 WYTHE AVE,BROOKLYN,NY,11249,Brooklyn
"YORK PARKING, LLC",646-773-4400,1418 YORK AVE,NEW YORK,NY,10021,Manhattan
43-25 HUNTER STREET PARKING CORP.,2127367171,4325 HUNTER ST,LONG ISLAND CITY,NY,11101,Queens
III IN LOT PARKING INC,646-964-4640,4388 BROADWAY,NEW YORK,NY,10040,Manhattan
535 CARLTON AVENUE PARKING CORP,212-736-7171,535 CARLTON AVE,BROOKLYN,NY,11238,Brooklyn
G & K PARKING GARAGE INC.,718-235-4975,1208 FRANKLIN AVE,BRONX,NY,10456,Bronx
1578 WILLIAMSBRIDGE ROAD LLC,7188639709,1578 WILLIAMSBRIDGE RD,BRONX,NY,10461,Bronx
LAZ PARKING NEW YORK / NEW JERSEY LLC,2122652239,130 FURMAN ST,BROOKLYN,NY,11201,Brooklyn
ACB GARAGE LLC,6465840409,626 1ST AVE,NEW YORK,NY,10016,Manhattan
455 CPW PARKING CORP,2127367171,455 CENTRAL PARK W,NEW YORK,NY,10025,Manhattan
255 SCHERMERHORN STREET PARKING CORP.,2127367171,33 BOND ST,BROOKLYN,NY,11201,Brooklyn
LAZ PARKING NEW YORK / NEW JERSEY LLC,2122652239,90 FURMAN ST,BROOKLYN,NY,11201,Brooklyn
TRUST UNDER WILL OF IRVING SERVANSKY,6175476500,210 INDIA ST,BROOKLYN,NY,11222,Brooklyn
PARK 24 LLC,2126757777,200 E 24TH ST,NEW YORK,NY,10010,Manhattan
"ABM INDUSTRY GROUPS, LLC",2127576500,450 E 29TH ST,NEW YORK,NY,10016,Manhattan
II IN LOT PARKING CORP,646-689-9769,2028 CRESTON AVE,BRONX,NY,10453,Bronx
LAZ Parking New York New Jersey LLC,2122652239,40 W 116TH ST,NEW YORK,NY,10026,Manhattan
"325 FIFTH CAR PARK, LLC",2129966363,325 5TH AVE,NEW YORK,NY,10016,Manhattan
99 PARK AVENUE PARKING CORP,2127367171,99 PARK AVE,NEW YORK,NY,10016,Manhattan
OTTO PARK LLC,2125755335,211 MCGUINNESS BLVD,BROOKLYN,NY,11222,Brooklyn
5 STARS PARKING INC,9172140583,120 UNION AVE,BROOKLYN,NY,11206,Brooklyn
240 RIVERSIDE PARKING LLC,2126869800,240 RIVERSIDE BLVD,NEW YORK,NY,10069,Manhattan
221 EAST 36TH STREET GARAGE LLC,6465840409,221 E 36TH ST,NEW YORK,NY,10016,Manhattan
QUIK PARK 150 CHARLES STREET GARAGE LLC,212-832-2066,150 CHARLES ST,NEW YORK,NY,10014,Manhattan
LM WOLVERINE PARKING LLC.,2127143571,282 S 5TH ST,BROOKLYN,NY,11211,Brooklyn
214 WEST 88TH STREET GARAGE LLC,6465840409,214 W 88TH ST,NEW YORK,NY,10024,Manhattan
LHL PARKING CO LLC,212-213-9600,242 W 53RD ST,NEW YORK,NY,10019,Manhattan
QB 71ST AVENUE PARKING LLC,7187865555,10820 71ST AVE,FOREST HILLS,NY,11375,Queens
VANCITY PARKING INC,9173277488,355 E 72ND ST,NEW YORK,NY,10021,Manhattan
PARK KWIK LLC,2129745840,286 ASHLAND PL,BROOKLYN,NY,11217,Brooklyn
PARK KWIK LLC,2129745840,60 WATER ST,BROOKLYN,NY,11201,Brooklyn
LAIGHT STREET PARKING  LLC,212-686-9800,416 WASHINGTON ST,NEW YORK,NY,10013,Manhattan
QUIK PARK GEM GARAGE LLC,212-832-2066,44 W 47TH ST,NEW YORK,NY,10036,Manhattan
59-61 WEST 36TH STREET PARKING CORP,212-736-7171,59 W 36TH ST,NEW YORK,NY,10018,Manhattan
LAZ PARKING NEW YORK / NEW JERSEY LLC,7104042575,555 WAVERLY AVE,BROOKLYN,NY,11238,Brooklyn
PEAK TIME PARKING INC.,9174705093,225 E 63RD ST,NEW YORK,NY,10065,Manhattan
"LIBERTY VIEW PARKING, LLC",2128422305,2 RIVER TER,NEW YORK,NY,10282,Manhattan
150 charles Street Garage LLC,6465840409,150 CHARLES ST,NEW YORK,NY,10014,Manhattan
38 SIXTH AVENUE PARKING CORP,212-736-7171,38 6TH AVE,BROOKLYN,NY,11217,Brooklyn
254 WEST 79TH STREET PARKING CORP,212-736-7171,252 W 79TH ST,NEW YORK,NY,10024,Manhattan
SP PLUS CORPORATION,2123217621,333 SCHERMERHORN ST,BROOKLYN,NY,11217,Brooklyn
MODA CAR PARK LLC,212-996-6363,8914 PARSONS BLVD,JAMAICA,NY,11432,Queens
390 MADISON PARKING CORP.,2127367171,390 MADISON AVE,NEW YORK,NY,10017,Manhattan
GGG PARKING GARAGE CORP.,9175573711,920 WESTCHESTER AVE,BRONX,NY,10459,Bronx
O & A PARKING GARAGE INC.,7184839458,1100 FRANKLIN AVE,BRONX,NY,10456,Bronx
LM ALDUS PARKING LLC,2127143571,951 HOE AVE,BRONX,NY,10459,Bronx
LM ALDUS PARKING LLC,2127143571,941 Hoe Avenue,Bronx,NY,10459,Bronx
PARKING VERNON LLC,2015678110,3085 VERNON BLVD,ASTORIA,NY,11102,Queens
BAJRAKTARI REALTY MANAGEMENT CORP,7183654310,617 East 188th Street,Bronx,NY,10458,Bronx
"CENTRAL PARKING SYSTEM OF NEW YORK,INC.",2126296602,169 CADMAN PLZ W,BROOKLYN,NY,11201,Brooklyn
BK PARKING GROUP INC,9173277488,27 W 170TH ST,BRONX,NY,10452,Bronx
"CENTRAL PARKING SYSTEM OF NEW YORK,INC.",2126296602,808 7TH AVE; # 820,NEW YORK,NY,10019,
"CENTRAL PARKING SYSTEM OF NEW YORK,INC.",2123052718,115 FORT WASHINGTON AVE,NEW YORK,NY,10032,Manhattan
AZ PARKING CORP,2125484370,35 W 33RD ST,NEW YORK,NY,10001,Manhattan
SUPERB PARKING LLC,2126869800,400 E 35TH ST,NEW YORK,NY,10016,Manhattan
MANHATTAN PARKING WEST 20 LLC,212-490-3460,516 W 20TH ST,NEW YORK,NY,10011,Manhattan
52 WEST 36TH ST. PARKING LLC,2126869800,59 W 36TH ST,NEW YORK,NY,10018,Manhattan
QUIK PARK SCH GARAGE LLC,2128322066,236 LIVINGSTON ST,BROOKLYN,NY,11201,Brooklyn
"FIFTH AVENUE CAR PARK, LLC",2129966363,1330 5TH AVE,NEW YORK,NY,10026,Manhattan
ALVA 47 PARKING LLC,2126869800,257 W 47TH ST,NEW YORK,NY,10036,Manhattan
375 HUD PARKING LLC,2126869800,375 HUDSON ST,NEW YORK,NY,10014,Manhattan
323 WEST 34TH STREET LLC,2124903460,323 W 34TH ST,NEW YORK,NY,10001,Manhattan
JKH BUSINESS CORP,,1579 UNDERCLIFF AVE,BRONX,NY,10453,Bronx
SKY PARKING CORP.,2126083060,121 READE ST,NEW YORK,NY,10013,Manhattan
JO DASH PARKING LLC,2126869800,488 3RD AVE,NEW YORK,NY,10016,Manhattan
167 EAST 77TH ST PARKING SERVICES LLC,6467734400,176 E 77TH ST,NEW YORK,NY,10075,Manhattan
"SALVATOR, JOSEPH",3475895454,284 NASSAU AVE,BROOKLYN,NY,11222,Brooklyn
"OCHRE CAR PARK, LLC",2129966363,625 ATLANTIC AVE,BROOKLYN,NY,11217,Brooklyn
CLINTON HILL GARAGE CORP.,3476023636,240 VANDERBILT AVE,BROOKLYN,NY,11205,Brooklyn
1065 GARAGE LLC,2128887400,1065 PARK AVE,NEW YORK,NY,10128,Manhattan
QUIK PARK EAST 94TH STREET LLC,2126869800,1829 1ST AVE,NEW YORK,NY,10128,Manhattan
"300 EAST 74TH STREET CAR PARK, LLC",2129966363,300 E 74TH ST,NEW YORK,NY,10021,Manhattan
SLATE PARKING CORP.,2126296602,329 E 21ST ST,NEW YORK,NY,10010,Manhattan
"CENTRAL PARKING SYSTEM OF NEW YORK,INC.",2125025490,215 S END AVE,NEW YORK,NY,10280,Manhattan
SUPER ELITE PARKING INC,9174705093,3815 PUTNAM AVE W,BRONX,NY,10463,Bronx
EAGLE PARKING GARAGE INC,3472207660,775 EAGLE AVE,BRONX,NY,10456,Bronx
"CENTRAL PARKING SYSTEM OF NEW YORK,INC.",2126296602,332 W 44TH ST,NEW YORK,NY,10036,Manhattan
"J & B PARKING GARAGE, INC.",2125433328,477 W 165TH ST,NEW YORK,NY,10032,Manhattan
"FORBES, DUDLEY",718-277-3866,447 EUCLID AVE,BROOKLYN,NY,11208,Brooklyn
"CENTRAL PARKING SYSTEM OF NEW YORK,INC.",2126296602,330 E 61ST ST,NEW YORK,NY,10065,Manhattan
115 WEST 25TH STREET PARKING CORP.,2122439808,112 W 25TH ST,NEW YORK,NY,10001,Manhattan
RIBAR PARKING LLC,2129293041,160 W 10TH ST,NEW YORK,NY,10014,Manhattan
NEW OGDEN PARKING INC.,7184662000,156 W 166TH ST,BRONX,NY,10452,Bronx
"KINNEY PARKING SYSTEM, LLC",2125025490,215 W 87TH ST,NEW YORK,NY,10024,Manhattan
YORK & 90TH PARKING LLC,2126869800,1731 YORK AVE,NEW YORK,NY,10128,Manhattan
SP PLUS CORPORATION,2125025490,910 9TH AVE,NEW YORK,NY,10019,Manhattan
LOWER EAST SIDE DISTRICT MANAGEMENT ASSOCIATION INC,212-276-9010,135 DELANCEY ST,NEW YORK,NY,10002,Manhattan
"CENTRAL PARKING SYSTEM OF NEW YORK,INC.",9999999999,100 W 57TH ST,NEW YORK,NY,10019,Manhattan
CANDACE PARKING CORP.,2124903460,120 W 97TH ST,NEW YORK,NY,10025,Manhattan
GMH PARK INC,9172140583,2330 HOFFMAN ST,BRONX,NY,10458,Bronx
337 PARKING LLC,2128799796,337 E 64TH ST,NEW YORK,NY,10065,Manhattan
SCR PARKING CORP.,2122493344,169 E 87TH ST,NEW YORK,NY,10128,Manhattan
FLATIRON 20 PARKING LLC,2122439384,21 W 20 ST,NEW YORK,NY,10011,Manhattan
"KINNEY PARKING SYSTEM, LLC",2124450172,2500 JOHNSON AVE,BRONX,NY,10463,Bronx
UPPER MANHATTAN PARKING LLC,2124211117,1845 PARK AVE,NEW YORK,NY,10035,Manhattan
NEW YORK PARKING 57TH ST. CORP.,2122493344,110 E 57TH ST,NEW YORK,NY,10022,Manhattan
CHATHAM PARKING SYSTEMS INC.,2125137143,180 PARK ROW,NEW YORK,NY,10038,Manhattan
"ACCESS 37 PARKING, LLC",2126869800,404 W 37TH ST,NEW YORK,NY,10018,Manhattan
"LAZ PARKING NEW YORK, NEW JERSEY LLC",2122652239,279 AVENUE C,NEW YORK,NY,10009,Manhattan
SHARP PARKING LLC,2126869800,825 2ND AVE,NEW YORK,NY,10017,Manhattan
NEW YORK PARKING 56TH ST. CORP,212-249-3349,65 W 56TH ST,NEW YORK,NY,10019,Manhattan
"IMPERIAL PARKING (U.S.), LLC",2129378660,450 E 79TH ST,NEW YORK,NY,10075,Manhattan
BRICIN PARKING CORP.,2127565451,155 E 55TH ST,NEW YORK,NY,10022,Manhattan
"ATLANTIC PARKING MGMT, LLC",2127957275,238 ATLANTIC AVE,BROOKLYN,NY,11201,Brooklyn
ROYAL 89 PARKING LLC,2126869800,200 E 89TH ST,NEW YORK,NY,10128,Manhattan
"IMPERIAL PARKING (U.S), LLC",2129378660,422-446 79TH STREET,NEW YORK,NY,,
65 WEST 55TH STREET PARKING CORP,2127367171,57 W 55TH ST,NEW YORK,NY,10019,Manhattan
ONE PARKING 40TH STREET INC,480-272-2100,225 E 39TH ST,NEW YORK,NY,10016,Manhattan
EAST 29 PARKING LLC,2122624771,39 E 29TH ST,NEW YORK,NY,10016,Manhattan
CP PARKING CORP.,9175785635,13331 39TH AVE,FLUSHING,NY,11354,Queens
REX PARKING CORP.,5166984240,532 W 53RD ST,NEW YORK,NY,10019,Manhattan
PIERCE PARKING LLC,2127143571,80 W END AVE,NEW YORK,NY,10023,Manhattan
"CENTRAL PARKING SYSTEM OF NEW YORK,INC.",2125025490,34 RIVER TER,NEW YORK,NY,10282,Manhattan
WALL PARK 45 LLC,2126869800,45 WALL ST,NEW YORK,NY,10005,Manhattan
ALLIANCE AMHERST PARKING LLC,2125810535,401 E 74TH ST,NEW YORK,NY,10021,Manhattan
CONTINENTAL TOWERS PARKING LLC,2126501936,301 E 79TH ST,NEW YORK,NY,10075,Manhattan
"IMPERIAL PARKING US, LLC",2129378660,40 PROSPECT ST,STATEN ISLAND,NY,10304,Staten Island
QUIK PARK WEST 41ST STREET LLC,212-686-9800,601 W 41ST ST,NEW YORK,NY,10036,Manhattan
WELCOME PARKING LIMITED LIABILITY COMPANY,2016807129,128 W 42ND ST,NEW YORK,NY,10036,Manhattan
COOPER & 9TH PARKING LLC,212-686-9800,70 E 10TH ST,NEW YORK,NY,10003,Manhattan
"BOGOPA LIC, INC.",7183466500,4202 NORTHERN BLVD,LONG IS CITY,NY,11101,Queens
BROTHERS CAR PARK LLC,2122216111,180 MONTAGUE ST,BROOKLYN,NY,11201,Brooklyn
162 PARKING MGMT LLC.,,528 W 162ND ST,NEW YORK,NY,10032,Manhattan
WEST FARMS PARKING LLC,,1512 BOONE AVE,BRONX,NY,10460,Bronx
LEMAR PARKING CORP.,718-681-7406,519 W 161ST ST,NEW YORK,NY,10032,Manhattan
NOBLE PARKING LLC,212-686-9800,310 E 40TH ST,NEW YORK,NY,10016,Manhattan
"BEST BUY AUTOMOTIVE, INC.",7188636816,1855 E TREMONT AVE,BRONX,NY,10460,Bronx
GRACIE PUBLIC PARKING CORP.,2127367171,401 E 89TH ST,NEW YORK,NY,10128,Manhattan
"CENTRAL PARKING SYSTEM OF NEW YORK,INC.",2125025490,800 AVENUE OF THE AMERICAS,NEW YORK,NY,10001,Manhattan
GM PARK GROUP INC,6466100315,110 BROADWAY,BROOKLYN,NY,11249,Brooklyn
"CENTRAL PARKING SYSTEM OF NEW YORK, INC",2126954568,4007 73RD ST,WOODSIDE,NY,11377,Queens
"CENTRAL PARKING SYSTEM OF NEW YORK,INC.",7185887800,20 E 161ST ST,BRONX,NY,10451,Bronx
"CENTRAL PARKING SYSTEM OF NEW YORK, INC",2125025490,75 PARK PLACE,NEW YORK,NY,10016,Manhattan
SECURE PARKING LLC,2126869800,363 W 30TH ST,NEW YORK,NY,10001,Manhattan
"KINNEY PARKING SYSTEM, LLC",2125025490,38 W 46TH ST,NEW YORK,NY,10036,Manhattan
ZR PARKING LLC,6314212686,3538 JUNCTION BLVD,CORONA,NY,11368,Queens
VICTOR GARAGE CORP.,7188559571,275 PARK AVE,BROOKLYN,NY,11205,Brooklyn
QUIK PARK BPC LLC,2128322066,70 LITTLE WEST ST,NEW YORK,NY,10004,Manhattan
189 PKG LLC,917-731-2034,4741 PARK AVE,BRONX,NY,10458,Bronx
TOWER 25 PARKING LLC,2126869800,305 E 24TH ST,NEW YORK,NY,10010,Manhattan
"ST. ANN'S PARKING GARAGE, LLC",7184080141,800 SAINT ANNS AVE,BRONX,NY,10456,Bronx
"DIAMOND 1 PARKING GARAGE, INC.",347-843-5023,284 DYCKMAN ST,NEW YORK,NY,10034,Manhattan
AMPCO SYSTEM PARKING,2127542678,750 LEXINGTON AVE,NEW YORK,NY,10022,Manhattan
"CENTRAL PARKING SYSTEM OF NEW YORK,INC.",2126296602,25 W 48TH ST,NEW YORK,NY,10020,Manhattan
SP PLUS CORPORATION,2125025490,226 BATTERY PARK CITY,NEW YORK,NY,10280,
130 ST. FELIX STREET PARKING CORP.,2127419009,130 SAINT FELIX ST,BROOKLYN,NY,11217,Brooklyn
QUIK PARK RIVERSIDE GARAGE LLC,2128322066,779 RIVERSIDE DR,NEW YORK,NY,10032,Manhattan
142 WEST 57TH STREET PARKING CORP.,2127367171,146 W 57TH ST,NEW YORK,NY,10019,Manhattan
"CONEY ISLAND COMMONS PARKING, CORP",7182850102,2960 W 29TH ST,BROOKLYN,NY,11224,Brooklyn
SOHO VILLAGE PARKING LLC,212-686-9800,610 BROADWAY,NEW YORK,NY,10012,Manhattan
PARK MERCER LLC,212-360-6300,139 CHARLES ST,NEW YORK,NY,10014,Manhattan
"CENTRAL PARKING SYSTEM OF NEW YORK,INC.",2126296602,120 W 21ST ST,NEW YORK,NY,10011,Manhattan
HILLSIDE AVE PARKING LOT CORP,7187396270,17535 HILLSIDE AVE,JAMAICA,NY,11432,Queens
"STATE STREET PARKING, LLC",973-643-7700,71 SMITH ST,BROOKLYN,NY,11201,Brooklyn
"SESSANTA PARKING CO., LLC",2128429308,229 W 60TH ST,NEW YORK,NY,10023,Manhattan
SAN MIGUEL PARK CORP,9172153295,1740-1746 ANDREWS AVE,BRONX,NY,10453,Bronx
REED PARKING CORP.,2124903460,10025 QUEENS BLVD,FOREST HILLS,NY,11375,Queens
"KINNEY PARKING SYSTEM, LLC",2125025490,56 N MOORE ST,NEW YORK,NY,10013,Manhattan
MPC PARKING LLC,2126869800,1104 2ND AVE,NEW YORK,NY,10022,Manhattan
86 ST. PARKING GARAGE CORP.,7186514273,8610 ROOSEVELT AVE,JACKSON HTS,NY,11372,Queens
J & A PARKING INC,7186180992,376 E 184TH ST,BRONX,NY,10458,Bronx
GEMAT PARKING CORP.,2124220423,233 E 69TH ST,NEW YORK,NY,10021,Manhattan
"IMPERIAL PARKING (U.S.), LLC",212-934-8660,353 4TH AVE,BROOKLYN,NY,11215,Brooklyn
73RD STREET PARKING CORP.,2127367171,1257 3RD AVE,NEW YORK,NY,10021,Manhattan
"KINNEY PARKING SYSTEM, LLC",2125025490,6575 SAUNDERS ST,REGO PARK,NY,11374,Queens
CREST CAR PARK LLC,718-499-1235,302 2ND ST,BROOKLYN,NY,11215,Brooklyn
"CENTRAL PARKING SYSTEM OF NEW YORK,INC.",2126296602,1900 ARCHER ST,BRONX,NY,10462,Bronx
RYER PARKING LLC,6463771900,2346 RYER AVE,BRONX,NY,10458,Bronx
EZ PARKING GARAGE INC,3472207660,870 JENNINGS ST,BRONX,NY,10459,Bronx
"KINNEY PARKING SYSTEM, LLC",2125025490,135 E 33RD ST,NEW YORK,NY,10016,Manhattan
"CENTRAL PARKING SYSTEM OF NEW YORK,INC.",2126296602,882 7TH AVE,NEW YORK,NY,10019,Manhattan
STATE PREMIER PROPERTY INC.,7188610321,1325 BOSTON RD,BRONX,NY,10456,Bronx
QUIK PARK EAST 73RD ST LLC,212-832-2066,524 E 73RD ST,NEW YORK,NY,10021,Manhattan
STANDARD PARKING CORPORATION,2129163491,200 W 79TH ST,NEW YORK,NY,10024,Manhattan
ENTERPRISE 30TH STREET GARAGE LLC,2127442277,343 10TH AVE,NEW YORK,NY,10001,Manhattan
MANHATTAN PARKING BORO CORP,2124903460,40 CLINTON ST,BROOKLYN,NY,11201,Brooklyn
EZY PARKING GO INC,7182944264,930 SHERIDAN AVE,BRONX,NY,10451,Bronx
189 park llc,917-731-2034,4741 PARK AVE,BRONX,NY,10458,Bronx
M H M PARKING LLC,2126869800,560 3RD AVE,NEW YORK,NY,10016,Manhattan
NR PARKING CORP,3478125297,615 JACKSON AVE,BRONX,NY,10455,Bronx
REGAL PARKING CORP.,2127367171,9810 64TH AVE,REGO PARK,NY,11374,Queens
"CHAMPION PARKING 16, LLC",2123085959,101 E 16TH ST,NEW YORK,NY,10003,Manhattan
PV PARKING V CORP,7186094200,4007 73RD ST,WOODSIDE,NY,11377,Queens
ENTERPRISE 36TH STREET PARKING LLC,212-564-3199,411 W 35TH ST,NEW YORK,NY,10001,Manhattan
EMPIRE PARKING CORP.,212-262-4771,303 W 96TH ST,NEW YORK,NY,10025,Manhattan
SP PLUS CORPORATION,2125025490,211 W 87TH ST,NEW YORK,NY,10024,Manhattan
PARK GATE PARKING INC.,2127367171,750 COLUMBUS AVE,NEW YORK,NY,10025,Manhattan
125 CHARLES PARKING LLC,2033212175,139 CHARLES ST,NEW YORK,NY,10014,Manhattan
STANDARD PARKING CORPORATION,2123137275,200 CENTRAL PARK W,NEW YORK,NY,10024,Manhattan
SP PLUS CORPORATION,2125025490,140 W 28TH ST,NEW YORK,NY,10001,Manhattan
ISABEL PARKING LLC,6465840409,20 E 161ST ST,BRONX,NY,10451,Bronx
776 SIXTH AVE PARKING CORP,2127367171,776 6TH AVE,NEW YORK,NY,10001,Manhattan
"MY NEW PARKING, INC.",3475388602,1380 DR MARTIN L KING JR BLVD,BRONX,NY,10452,Bronx
"C&S E-SUPERETTE, INC.",718-745-2888,9053 FORT HAMILTON PKWY,BROOKLYN,NY,11209,Brooklyn
"IMPERIAL PARKING (U.S.), LLC",2129378660,405 E 63RD ST,NEW YORK,NY,10065,Manhattan
E 74TH PARKING CORP.,8009441424,343 E 74TH ST,NEW YORK,NY,10021,Manhattan
TLC PARKING INC,3475388602,1600 SEDGWICK AVE,BRONX,NY,10453,Bronx
EZ2 PARK LLC,2127446300,240 E 82ND ST,NEW YORK,NY,10028,Manhattan
"CENTRAL PARKING SYSTEM OF NEW YORK,INC.",2125025490,117 KENT AVE,BROOKLYN,NY,11249,Brooklyn
"CENTRAL PARKING SYSTEM OF NEW YORK,INC.",2125025490,405 E 63RD ST,NEW YORK,NY,10065,Manhattan
ENTERPRISE 51 PARKING LLC,2125643199,680 12TH AVE,NEW YORK,NY,10019,Manhattan
"PARK 139TH, LLC",2122340855,29 W 138TH ST,NEW YORK,NY,10037,Manhattan
GREENWICH STREET GARAGE LLC,6465840409,641 WASHINGTON ST,NEW YORK,NY,10014,Manhattan
"WILSHIRE CAR PARK, INC.",2122216111,18230 WEXFORD TER,JAMAICA,NY,11432,Queens
786 PARKING CORP,7186180029,3710 CRESCENT ST,LONG ISLAND CITY,NY,11101,Queens
CFS 2907 JFK LLC,7183222221,13024 S CONDUIT AVE,JAMAICA,NY,11430,Queens
COMFORT PARK LLC,2126869800,301 ELIZABETH ST,NEW YORK,NY,10012,Manhattan
"IMPACT CAR PARK, LLC",2122216111,333 W 26TH ST,NEW YORK,NY,10001,Manhattan
"CENTRAL PARKING SYSTEM OF NEW YORK, INC",2125025490,158 W 20TH STREET,NEW YORK,NY,10011,Manhattan
CHAMPION PARKING 61 LLC,2123085959,1113 YORK AVE,NEW YORK,NY,10065,Manhattan
"THE GGG PARKING, INC.",7189015222,1565 JEROME AVE,BRONX,NY,10452,Bronx
BELLTEL CAR PARK LLC,212-996-6363 EXT14,101 WILLOUGHBY ST,BROOKLYN,NY,11201,Brooklyn
GREENLUX PARKING LLC,2126869800,200 N END AVE,NEW YORK,NY,10282,Manhattan
"I. R. PARKING, INC",5169381310,112 W 25TH ST,NEW YORK,NY,10001,Manhattan
EHTE PARKING CORP,2128381629,357 E 57TH ST,NEW YORK,NY,10022,Manhattan
"QUIK PARK BROOKLYN BRIDGE, LLC",212-832-2066,360 FURMAN ST,BROOKLYN,NY,11201,Brooklyn
V.M.C. PARKING INC.,2125312924,316 W 118TH ST,NEW YORK,NY,10026,Manhattan
"COVE CAR PARK, LLC",2122216111,3085 VERNON BLVD,ASTORIA,NY,11102,Queens
311 PARKING CORP.,2125869760,311 W 50TH ST,NEW YORK,NY,10019,Manhattan
9495 PARKING CORP.,2122893800,1832 2ND AVE,NEW YORK,NY,10128,Manhattan
200 SCHERMERHORN GARAGE CORP.,2127367171,200 SCHERMERHORN ST,BROOKLYN,NY,11201,Brooklyn
"IMPERIAL PARKING (U.S.), INC",2129378660,121 W 125TH ST,NEW YORK,NY,10027,Manhattan
"CENTRAL PARKING SYSTEM OF NEW YORK,INC.",2125025490,530 E 73RD ST,NEW YORK,NY,10021,Manhattan
"2000 PARKING GARAGE, INC.",3478435023,2000 WHITE PLAINS RD,BRONX,NY,10462,Bronx
"CENTRAL PARKING SYSTEM OF NEW YORK,INC.",2125649199,75 PARK PL,NEW YORK,NY,10007,Manhattan
COLUMBUS 95 PARKING LLC,2126869800,730 COLUMBUS AVE,NEW YORK,NY,10025,Manhattan
GEMAT PARKING CORP.,2125359302,233 E 69TH ST,NEW YORK,NY,10021,Manhattan
"CENTRAL PARKING SYSTEM OF NEW YORK,INC.",2125025490,147 W 83RD ST,NEW YORK,NY,10024,Manhattan
250 W. 50TH PARKING LLC,2126869800,250 W 50TH ST,NEW YORK,NY,10019,Manhattan
"LPARK 2, LLC",2127517033,457 W 150TH ST,NEW YORK,NY,10031,Manhattan
QUIK PARK NASSAU LLC,2128322066,150 NASSAU ST,NEW YORK,NY,10038,Manhattan
215 E 95TH PARKING LLC,2126869800,207 E 95TH ST,NEW YORK,NY,10128,Manhattan
ENTERPRISE TOREN PARKING LLC,2125643199,150 MYRTLE AVE,BROOKLYN,NY,11201,Brooklyn
CONVENIENT PARKING LLC,2126869800,215 W 95TH ST,NEW YORK,NY,10025,Manhattan
"CENTRAL PARKING SYSTEM OF NEW YORK,INC.",7186254215,351 JAY ST,BROOKLYN,NY,11201,Brooklyn
"CENTRAL PARKING SYSTEM OF NEW YORK,INC.",2126296602,403 E 60TH ST,NEW YORK,NY,10022,Manhattan
L.E. PARKING INC.,7187780796,65 NEW YORK AVE,BROOKLYN,NY,11216,Brooklyn
"CENTRAL PARKING SYSTEM OF NEW YORK,INC.",2125025490,800 AVENUE OF THE AMERICAS,NEW YORK,NY,10001,Manhattan
INDOOR PARKING CORP.,2129429804,164 DYCKMAN ST,NEW YORK,NY,10040,Manhattan
COSMO PARKING LLC,2129562280,360 W 43RD ST,NEW YORK,NY,10036,Manhattan
PARK KWIK LLC,2129745840,211 ATLANTIC AVE,BROOKLYN,NY,11201,Brooklyn
W. 28TH GARAGE PARKING LLC,2126869800,241 W 28TH ST,NEW YORK,NY,10001,Manhattan
282 SOUTH 5TH PARKING LLC,212-837-4590,282 S 5TH ST,BROOKLYN,NY,11211,Brooklyn
KIPS BAY 27 PARKING LLC,2126869800,236 E 27TH ST,NEW YORK,NY,10016,Manhattan
"350 WEST 43RD CAR PARK, LLC",212-996-6363,350 W 43RD ST,NEW YORK,NY,10036,Manhattan
QUIK PARK WEST 58TH LLC,2128322066,116 CENTRAL PARK S,NEW YORK,NY,10019,Manhattan
"252 PARKING, LLC",212-837-4509,252 SCHERMERHORN ST,BROOKLYN,NY,11217,Brooklyn
"STRAND PARKING MGMT, LLC",2127957275,500 W 43RD ST,NEW YORK,NY,10036,Manhattan
BENEFICIAL 21 PARKING LLC,2126869800,329 E 21ST ST,NEW YORK,NY,10010,Manhattan
PV PARKING CORP,718-609-1200,3411 STEINWAY ST,LONG IS CITY,NY,11101,Queens
"CENTRAL PARKING SYSTEM OF NEW YORK, INC",2125025490,115 E 87TH ST,NEW YORK,NY,10128,Manhattan
CA-LI AUTOMATIC TRANSMISSION CORP.,2128640137,103 W 108TH ST,NEW YORK,NY,10025,Manhattan
EZY PARKING GO INC,7182944264,1981 CEDAR AVE,BRONX,NY,10452,Bronx
"BROOK PARKING GARAGE, INC.",7185888328,418 E 167TH ST,BRONX,NY,10456,Bronx
UNION SQUARE CAR PARK LLC,2129966363,1 IRVING PL,NEW YORK,NY,10003,Manhattan
222 WEST 14TH STREET PARKING CORP.,2122485900,222 W 14TH ST,NEW YORK,NY,10011,Manhattan
301 PARK CORP.,2124730135,301 E 64TH ST,NEW YORK,NY,10065,Manhattan
QUIK PARK 801 GARAGE LLC,2128322066,801 AMSTERDAM AVE,NEW YORK,NY,10025,Manhattan
"CENTRAL PARKING SYSTEM OF NEW YORK, INC",2125025490,115 FORT WASHINGTON AVE,NEW YORK,NY,10032,Manhattan
1050 FIFTH AVENUE PARKING CORP,9172615152,1050 5TH AVE,NEW YORK,NY,10028,Manhattan
FEDERAL REALTY LIMITED PARTNERSHIP,7185754692,9777 QUEENS BLVD,REGO PARK,NY,11374,Queens
WORLD PARKING GARAGE LLC,2125643199,1 CENTRAL PARK W,NEW YORK,NY,10023,Manhattan
"CENTRAL PARKING SYSTEM OF NEW YORK,INC.",7183698185,500 5TH AVE,BROOKLYN,NY,11215,Brooklyn
"87-10 NORTHERN BLVD PARKING, LLC",9175924762,3306 88TH ST,JACKSON HEIGHTS,NY,11372,Queens
"OCEAN CAR PARK, LLC",2129966363,17 BATTERY PL,NEW YORK,NY,10004,Manhattan
MANHATTAN PARKING SYSTEM - WEST 58TH. ST. CORP.,212-308-5959,200 E 67TH ST,NEW YORK,NY,10065,Manhattan
"PARK IN AUTO SERVICES, INC.",2129661186,71 KENMARE ST,NEW YORK,NY,10012,Manhattan
METROPOLITAN PARKING GROUP LLC,2124903460,4172 BROADWAY,NEW YORK,NY,10033,Manhattan
"TIMES SQUARE GARAGE, LLC",2125025490,141 W 43RD ST,NEW YORK,NY,10036,Manhattan
SHERWOOD 21 GARAGE LLC,2129808000,500 W 21ST ST,NEW YORK,NY,10011,Manhattan
QUIK PARK COOPER LLC,2128322066,301 E 86TH ST,NEW YORK,NY,10028,Manhattan
WOOSTER PARKING CORP.,212-929-9404,349 CANAL ST,NEW YORK,NY,10013,Manhattan
STANDARD PARKING CORPORATION,7185887802,951 RIVER AVE,BRONX,NY,10452,Bronx
"CENTRAL PARKING SYSTEM OF NEW YORK,INC.",2125025490,5 E 102ND ST,NEW YORK,NY,10029,Manhattan
VINCENT 15 PARKING LLC,2126869800,553 AVENUE OF THE AMERICAS,NEW YORK,NY,10011,Manhattan
CROYDEN PARKING LLC,2129562280,12 E 86TH ST,NEW YORK,NY,10028,Manhattan
INTERTOWN PARKING CORP.,2127367171,55 E END AVE,NEW YORK,NY,10028,Manhattan
CHAMPION PARKING 77 LLC,2123085959,219 W 77TH ST,NEW YORK,NY,10024,Manhattan
IMPERIAL PARKING US LLC,2125573311,80 PARK AVE,NEW YORK,NY,10016,Manhattan
"CENTRAL PARKING SYSTEM OF NEW YORK,INC.",2126296602,4017 MAIN ST,FLUSHING,NY,11354,Queens
"CENTRAL PARKING SYSTEM OF NEW YORK,INC.",2126296602,27 W 52ND ST,NEW YORK,NY,10019,Manhattan
STANDARD PARKING CORPORATION,7188971220,10460 QUEENS BLVD,FOREST HILLS,NY,11375,Queens
444 MANHATTAN PARKING CORP.,,309 W 118TH ST,NEW YORK,NY,10026,Manhattan
"C21 PARKING MGMT, LLC",212-795-7275,416 87TH ST,BROOKLYN,NY,11209,Brooklyn
CLARIDGE 87 PARKING LLC,2126869800,201 E 87TH ST,NEW YORK,NY,10128,Manhattan
GM PARK GROUP INC,6466100315,116 NOSTRAND AVE,BROOKLYN,NY,11205,Brooklyn
k one parking inc,3478545507,2160 WEBSTER AVE,BRONX,NY,10457,Bronx
"KINNEY PARKING SYSTEM, LLC",2125025490,58 W 58TH ST,NEW YORK,NY,10019,Manhattan
QUIK PARK ELY GARAGE II LLC,2126869800,180 MYRTLE AVE,BROOKLYN,NY,11201,Brooklyn
BETH PARKING CORP.,2127533100,225 RECTOR PL,NEW YORK,NY,10280,Manhattan
KK ENTERPRISE GROUP INC.,9173277488,554 W 182ND ST,NEW YORK,NY,10033,Manhattan
MP WEST 57TH LLC,2124903460,9 W 57TH ST,NEW YORK,NY,10019,Manhattan
"MUSS, HYMAN - ET AL",7182633800,11835 QUEENS BLVD,FOREST HILLS,NY,11375,Queens
CHAMPION PARKING 230 LLC,2123085959,230 WEST   55 STREET,NEW YORK,NY,10019,
ENTERPRISE 40TH PARKING CORP.,2127367171,315 E 40TH ST,NEW YORK,NY,10016,Manhattan
ENTERPRISE WASHINGTON PARKING LLC,2126270012,545 WASHINGTON AVE,BROOKLYN,NY,11238,Brooklyn
"IMPERIAL PARKING (U.S.), LLC",2129378660,12601 ROOSEVELT AVE,FLUSHING,NY,11368,Queens
ENTERPRISE 230 PARKING LLC,2126863330,230 E 30TH ST,NEW YORK,NY,10016,Manhattan
68 PARKING INC,6469966479,13633 37TH AVE,FLUSHING,NY,11354,Queens
"CENTRAL PARKING SYSTEM OF NEW YORK,INC.",2127798311,350 E 30TH ST,NEW YORK,NY,10016,Manhattan
"IMPERIAL PARKING (U.S.), LLC",212-934-8660,500 4TH AVE,BROOKLYN,NY,11215,Brooklyn
"CARPARK 39TH STREET, LLC",2128661000,80 PARK AVE,NEW YORK,NY,10016,Manhattan
1350 SIXTH PARKING LLC,2126809800,1350 6TH AVE,NEW YORK,NY,10019,Manhattan
100 Varick Realty LLC,2125343939,403 E 60TH ST,NEW YORK,NY,10022,Manhattan
"CENTRAL PARKING SYSTEM OF NEW YORK,INC.",2126296602,135 E 47TH ST,NEW YORK,NY,10017,Manhattan
PARK RIGHT CORPORATION,2122624771,307 SAINT MARKS AVE,BROOKLYN,NY,11238,Brooklyn
99 JANE STREET PARKING LLC,212-686-9800,99 JANE ST,NEW YORK,NY,10014,Manhattan
GMH PARK INC,9172140583,5229 BROADWAY,BRONX,NY,10463,Bronx
"ONE PARKING 703, INC.",4802722100,21010 23RD AVE,BAYSIDE,NY,11360,Queens
MOTT PARK LLC,212-564-3199,284 MOTT ST,NEW YORK,NY,10012,Manhattan
LENOX 65 PARKING LLC,2126869800,1189 1ST AVE,NEW YORK,NY,10065,Manhattan
DYNAMIC PARKING LLC,2126869800,222 E 41ST ST,NEW YORK,NY,10017,Manhattan
"IMPERIAL PARKING (U.S.), LLC",2129378660,212 S OXFORD ST,BROOKLYN,NY,11217,Brooklyn
"YORKVILLE CAR PARK, LLC",,1635 3RD AVE,NEW YORK,NY,10128,Manhattan
EMERALD PARKING SOLUTIONS INC.,3476385589,1600 SEDGWICK AVE,BRONX,NY,10453,Bronx
CH RENTAL PARKING LLC,2123483268,414 HICKS ST,BROOKLYN,NY,11201,Brooklyn
WELCOME PARKING LIMITED LIABILITY COMPANY,2016807129,8806 VAN WYCK EXPY,JAMAICA,NY,11418,Queens
VIP CAPITAL PARKING CORPORATION,2129253331,298 MULBERRY ST,NEW YORK,NY,10012,Manhattan
K & R PARKING CORP.,6467376163,1872 E TREMONT AVE,BRONX,NY,10460,Bronx
IMPERIAL PARKING US LLC,2129378660,120-01 ROOSEVELT AVENUE,FLUSHING,NY,11368,
PF PARKING CORP.,5163781222,24 LEONARD ST,NEW YORK,NY,10013,Manhattan
"FLASH 31 MANAGEMENT, LLC",7187880066,124 W 31ST ST,NEW YORK,NY,10001,Manhattan
WEST SIDE PARKING CORP.,2122748513,432 WASHINGTON ST,NEW YORK,NY,10013,Manhattan
"QSB 267 PROPERTY CO, LLC",,271 W 87TH ST,NEW YORK,NY,10024,Manhattan
QUIK PARK CHESAPEAKE LLC,2128322066,400 E 81ST ST,NEW YORK,NY,10028,Manhattan
"ESP GROUP OF NEW YORK, INC.",7184697672,354 CLARKSON AVE,BROOKLYN,NY,11226,Brooklyn
GRAND CAR PARK LLC,2122216111,110 E 42ND ST,NEW YORK,NY,10017,Manhattan
SOUTH WILLIAM PARKING LLC,2126869800,16 S WILLIAM ST,NEW YORK,NY,10004,Manhattan
IMPARK NORTH END LLC,2129378660,211 N END AVE,NEW YORK,NY,10282,Manhattan
EZY PARKING INC.,7182944264,930 SHERIDAN AVE,BRONX,NY,10451,Bronx
EASTSIDE PARKING LLC,2123558890,45 SUTTON PL S,NEW YORK,NY,10022,Manhattan
SAB PARKING INC.,6468610883,200 E END AVE,NEW YORK,NY,10128,Manhattan
PARKING 56 LLC,6467734400,33 W 56TH ST,NEW YORK,NY,10019,Manhattan
REED PARKING CORP.,2124903460,10025 QUEENS BLVD,FLUSHING,NY,11375,Queens
MANHATTAN PARKING E 71 ST  CORP,2128619652,311 E 71ST ST,NEW YORK,NY,10021,Manhattan
WETHEROLE LLC,7188969896,6574 WETHEROLE ST,REGO PARK,NY,11374,Queens
200 EAST PARKING CORP.,2127500254,1081 3RD AVE,NEW YORK,NY,10065,Manhattan
"CODY CAR PARK, INC.",2122216111,555 11TH ST,BROOKLYN,NY,11215,Brooklyn
QUIK PARK MORTON LLC,,1 MORTON SQ,NEW YORK,NY,10014,Manhattan
"CENTRAL PARKING SYSTEM OF NEW YORK,INC.",2125025490,501 E 87TH ST,NEW YORK,NY,10128,Manhattan
IMPARK QB LLC,212-937-8660,9277 QUEENS BLVD,REGO PARK,NY,11374,Queens
DEAN STREET PARKING CORP.,7183983409,885 DEAN ST,BROOKLYN,NY,11238,Brooklyn
QUIK PARK EAST 88TH STREET LLC,2128323022,160 E 88TH ST,NEW YORK,NY,10128,Manhattan
"RISING WOLF PARKING GARAGE, LLC",2124755858,336 E 9TH ST,NEW YORK,NY,10003,Manhattan
"ABM INDUSTRY GROUPS, LLC",2127576500,1633 BROADWAY,NEW YORK,NY,10019,Manhattan
159 WEST 53RD PARKING CORP,2127367171,159 W 53RD ST,NEW YORK,NY,10019,Manhattan
LM SUSIE PARKING LLC,2127143571,214 W 95TH ST,NEW YORK,NY,10025,Manhattan
403 East 60th Street Parking LLC,,403 E 60TH ST,NEW YORK,NY,10022,Manhattan
8TH STREET PARKING LLC,2126869800,11 5TH AVE,NEW YORK,NY,10003,Manhattan
PARAMOUNT CAR PARK LLC,2122216111,353 4TH AVE,BROOKLYN,NY,11215,Brooklyn
ABLE PARKING LLC,2129299404,160 W 124TH ST,NEW YORK,NY,10027,Manhattan
APEX PARKING LLC,2126869800,440 W 57TH ST,NEW YORK,NY,10019,Manhattan
"ALLIANCE IMPALA PARKING, LLC",2125810535,404 E 76TH ST,NEW YORK,NY,10021,Manhattan
EDISON 9TH AVENUE PARKING CORPORATION,2016432080,440 W 33RD ST,NEW YORK,NY,10001,Manhattan
COMMAND PARKING LLC,212-686-9800,1700 BROADWAY,NEW YORK,NY,10019,Manhattan
"CENTRAL PARKING SYSTEM OF NEW YORK,INC.",2125025490,15001 89TH AVE,JAMAICA,NY,11432,Queens
ONE PARKING 200 PARK INC.,5618337222,200 PARK AVE,NEW YORK,NY,10166,Manhattan
201 PEARL PARKING CORP.,2127367171,201 PEARL ST,NEW YORK,NY,10038,Manhattan
UPTOWN PARKING GARAGE CORPORATION,6462593636,160 W 124TH ST,NEW YORK,NY,10027,Manhattan
TODAY PARKING CORP.,2125696249,284 DYCKMAN ST,NEW YORK,NY,10034,Manhattan
STOP-PARK GARAGE CORP.,2126296602,18 MORTON ST,NEW YORK,NY,10014,Manhattan
STANDARD PARKING CORPORATION,7182926515,71 E 153RD ST,BRONX,NY,10451,Bronx
QUIK PARK TRUFFLES LLC,2128322066,12 E 13TH ST,NEW YORK,NY,10003,Manhattan
82ND ST. PARKING GARAGE CORP.,7187794774,3555 82ND ST,JACKSON HEIGHTS,NY,11372,Queens
SUTTON 53 PARKING LLC,212-686-9800,410 E 54TH ST,NEW YORK,NY,10022,Manhattan
"DISCOUNT PARKING, INC",5166267412,180 ASHLAND PL,BROOKLYN,NY,11217,Brooklyn
"KINNEY PARKING SYSTEM, INC.",2125025490,200 E 88TH ST,NEW YORK,NY,10128,Manhattan
PPS NEPTUNE LLC,2123606300,360 NEPTUNE AVE,BROOKLYN,NY,11235,Brooklyn
"RENOIR CAR PARK, LLC",2129966363,225 E 63RD ST,NEW YORK,NY,10065,Manhattan
"CENTRAL PARKING SYSTEM OF NEW YORK,INC.",2125025490,568 UNION AVE,BROOKLYN,NY,11211,Brooklyn
"87-10 NORTHERN BLVD PARKING, LLC",9175924762,3306 88TH ST,JACKSON HEIGHTS,NY,11372,Queens
"KINNEY PARKING SYSTEM, INC.",212-502-5490,211 E 57TH ST,NEW YORK,NY,10022,Manhattan
LTG PARKING CORP.,2126869800,185 W END AVE,NEW YORK,NY,10023,Manhattan
207 GARAGE L.L.C.,8004090819,3875 9TH AVE,NEW YORK,NY,10034,Manhattan
"90 WASHINGTON CAR PARK, LLC",2129966363,90 WASHINGTON ST,NEW YORK,NY,10006,Manhattan
QUIK PARK EAGLE LLC,2128322066,240 E 41ST ST,NEW YORK,NY,10017,Manhattan
AMPCO SYSTEM PARKING,2127542678,13 E 54TH ST,NEW YORK,NY,10022,Manhattan
POO PARKING CORP.,2124903460,1650 SELWYN AVE,BRONX,NY,10457,Bronx
FANDA PARKING LLC,2125945050,340 E 74TH ST,NEW YORK,NY,10021,Manhattan
QUIK PARK WEST 50TH STREET LLC,,1633 BROADWAY,NEW YORK,NY,10019,Manhattan
GR PARKING INC,3474459514,4007 73RD ST,WOODSIDE,NY,11377,Queens
MAESTRO PARKING LLC,2126869800,882 7TH AVE,NEW YORK,NY,10019,Manhattan
"ABM INDUSTRY GROUPS, LLC",2127576500,866 UNITED NATIONS PLZ,NEW YORK,NY,10017,Manhattan
"ESP GROUP OF NEW YORK, INC.",7184697672,349 LENOX RD,BROOKLYN,NY,11226,Brooklyn
ARTHUR MANAGEMENT CORPORATION,7186188021,4400 3RD AVE,BRONX,NY,10457,Bronx
LONG ISLAND JEWISH MEDICAL CENTER,7184707764,27117 76TH AVE,NEW HYDE PARK,NY,11040,Queens
WEST 31ST GARAGE CORP.,2127367171,148 W 31ST ST,NEW YORK,NY,10001,Manhattan
"HOME HOSPITAL PARKING, LLC",2126279822,2621 AQUEDUCT AVE,BRONX,NY,10468,Bronx
QUIK PARK TRIBECA II LLC,2126869800,450 WASHINGTON ST,NEW YORK,NY,10013,Manhattan
QUIK PARK PCVST GARAGE LLC,2126145862,527 E 14TH ST,NEW YORK,NY,10009,Manhattan
ANITA HOLDING LLC,2125642111,9905 63RD DR,REGO PARK,NY,11374,Queens
NEPTUNE PARKING LLC,2126869800,486 NEPTUNE AVE,BROOKLYN,NY,11224,Brooklyn
GLOBAL PARKING LLC,2126869800,143 W 40TH ST,NEW YORK,NY,10018,Manhattan
LAFAYETTE PLACE PARKING LLC,2127771659,445 LAFAYETTE ST,NEW YORK,NY,10003,Manhattan
"ABM INDUSTRY GROUPS, LLC",2127576500,750 LEXINGTON AVE,NEW YORK,NY,10022,Manhattan
QUIK PARK 1133 GARAGE LLC,2126869800,1133 AVENUE OF THE AMERICAS,NEW YORK,NY,10036,Manhattan
"CENTRAL PARKING SYSTEM OF NEW YORK,INC.",2125025490,506 W 181ST ST,NEW YORK,NY,10033,Manhattan
3896 PARKING CORP.,2125696508,3896 10TH AVE,NEW YORK,NY,10034,Manhattan
9-11 LLC,212-686-9800,9 PARK AVE,NEW YORK,NY,10016,Manhattan
CHAMPION PARKING 68 LLC,2123085959,80 CENTRAL PARK W,NEW YORK,NY,10023,Manhattan
EAST VILLAGE PARKING LLC,2126869800,22 E 1ST ST,NEW YORK,NY,10003,Manhattan
"KINNEY PARKING SYSTEM, INC.",2125025490,14 CHARLTON ST,NEW YORK,NY,10014,Manhattan
"KINNEY PARKING SYSTEM, INC.",7186589619,16327 ARCHER AVE,JAMAICA,NY,11433,Queens
QUIK PARK 175 K LLC,2128322066,53 N 3RD ST,BROOKLYN,NY,11249,Brooklyn
ATLANTIC GARAGE MANAGEMENT LLC,646-964-4323,238 ATLANTIC AVE,BROOKLYN,NY,11201,Brooklyn
QUEENS WEST PARKING LLC,7186061760,476 47TH AVE,LONG ISLAND CITY,NY,11109,Queens
"CENTRAL PARKING SYSTEM OF NEW YORK,INC.",2125025490,7074 E 162ND ST,BRONX,NY,10452,
CENTURY PARKING CORP.,2127367171,2600 NETHERLAND AVE,BRONX,NY,10463,Bronx
"CENTRAL PARKING SYSTEM OF NEW YORK,INC.",2126296602,798 UNION ST,BROOKLYN,NY,11215,Brooklyn
"KINNEY PARKING SYSTEM, LLC",2125025490,1153 YORK AVE,NEW YORK,NY,10065,Manhattan
IMPERIAL HOUSE PARKING LLC,2127142442,150 E 69TH ST,NEW YORK,NY,10021,Manhattan
"LAN TIAN GARAGE, INC.",2123859600,89 HENRY ST,NEW YORK,NY,10002,Manhattan
OMEGA PARKING SYSTEMS LLC,2127251791,200 E 24TH ST,NEW YORK,NY,10010,Manhattan
132 EAST 35TH STREET GARAGE LLC,6465840409,132 E 35TH ST,NEW YORK,NY,10016,Manhattan
21ST GARAGE LLC,2126270012,436 W 36TH ST,NEW YORK,NY,10018,Manhattan
QUIK PARK 485 GARAGE LLC,2128322066,485 LEXINGTON AVE,NEW YORK,NY,10017,Manhattan
"ABM PARKING SERVICES, INC",2122131282,1633 BROADWAY,NEW YORK,NY,10019,Manhattan
"KINNEY PARKING SYSTEM, INC.",2125025490,477 LEXINGTON AVE,NEW YORK,NY,10017,Manhattan
CROTONA PARKWAY GARAGE INC.,7186206177,1981 HONEYWELL AVE,BRONX,NY,10460,Bronx
AD PARKING INC.,7189939003,331 E 132ND ST,BRONX,NY,10454,Bronx
QUIK PARK WARREN GARAGE LLC,2128322066,86 WARREN ST,NEW YORK,NY,10007,Manhattan
AUDUBON PARKING MGMT LLC.,,284 AUDUBON AVE,NEW YORK,NY,10033,Manhattan
425 EAST 79 CAR PARK LLC,2129966363,415 E 79TH ST,NEW YORK,NY,10075,Manhattan
815 TENTH PARKING LLC,212-686-9800,815 10TH AVE,NEW YORK,NY,10019,Manhattan
PARK RIGHT CORPORATION,2122624771,235 GOLD ST,BROOKLYN,NY,11201,Brooklyn
"ONE PARKING GOTHAM, INC.",2123706530,4209 28TH ST,LONG ISLAND CITY,NY,11101,Queens
QUIK PARK HUDSON 180 LLC,2128322066,180 RIVERSIDE BLVD,NEW YORK,NY,10069,Manhattan
"QUIK PARK EAST 67TH STREET, LLC",2128322066,400 E 67TH ST,NEW YORK,NY,10065,Manhattan
"CENTRAL PARKING SYSTEM OF NEW YORK,INC.",7185260156,15902 JAMAICA AVE,JAMAICA,NY,11432,Queens
BELUGA PARKING CORP,2125416050,1830 E TREMONT AVE,BRONX,NY,10460,Bronx
93RD STREET PARKING LLC,212-686-9800,100 W 93RD ST,NEW YORK,NY,10025,Manhattan
IMPERIAL PARKING US LLC,2129378660,450 EAST 79TH ST,NEW YORK,NY,10075,Manhattan
"LM CHASE PARKING, LLC.",2127143571,344 E 52ND ST,NEW YORK,NY,10022,Manhattan
"REGAL CAR PARK, LLC",1212216111,33 W 56TH ST,NEW YORK,NY,10019,Manhattan
F & M PARKING LOT CORP.,7188501030,363 E 138TH ST,BRONX,NY,10454,Bronx
5TH AVENUE PROPERTY & PARKING LLC,2124211117,1325 5TH AVE,NEW YORK,NY,10026,Manhattan
F&T MANAGEMENT & PARKING CORP.,7188881980,13331 39TH AVE,FLUSHING,NY,11354,Queens
"IMPERIAL PARKING (U.S.), INC",2129378660,251 AVENUE C,NEW YORK,NY,10009,Manhattan
"CENTRAL PARKING SYSTEM OF NEW YORK, INC",2125025490,375 PARK AVE,NEW YORK,NY,10152,Manhattan
CHAMPION BROADWAY PARKING CORP,2124739061,60 E 8TH ST,NEW YORK,NY,10003,Manhattan
QUIK PARK WEST 57 LLC,2128322066,9 W 57TH ST,NEW YORK,NY,10019,Manhattan
SBC PARKING LLC,2128318816,50 E 89TH ST,NEW YORK,NY,10128,Manhattan
"MAIDEN PARKING MGMT, LLC",2127957275,151 MAIDEN LN,NEW YORK,NY,10038,Manhattan
"ELEMENT PARKING MGMT, LLC",2127957275,555 W 59TH ST,NEW YORK,NY,10019,Manhattan
PROBE PARKING LLC,2126869800,300 E 46TH ST,NEW YORK,NY,10017,Manhattan
UNIVERSAL PARKING LLC,212-686-9800,55 W 14TH ST,NEW YORK,NY,10011,Manhattan
STANDARD PARKING CORP,2129163480,4028 COLLEGE POINT BLVD,FLUSHING,NY,11354,Queens
CITY PARKING LLC,2127078993,525 E 11TH ST,NEW YORK,NY,10009,Manhattan
"CENTRAL PARKING SYSTEM OF NEW YORK,INC.",2125025490,1470 MADISON AVE,NEW YORK,NY,10029,Manhattan
"KINNEY PARKING SYSTEM, INC.",2125025490,123 W 56TH ST,NEW YORK,NY,10019,Manhattan
"FIELD LAGUARDIA ASSOCIATES, INC.",7184576300,10404 DITMARS BLVD,EAST ELMHURST,NY,11369,Queens
"78 PARKING MANAGEMENT, LLC",7187880066,404 E 79TH ST,NEW YORK,NY,10075,Manhattan
STANDARD PARKING CORPORATION,7185384249,950 RIVER AVE,BRONX,NY,10452,Bronx
79TH STREET PARKING LLC,2126869800,900 PARK AVE,NEW YORK,NY,10075,Manhattan
231ST STREET PARKING LLC,718-708-5077,3217 IRWIN AVE,BRONX,NY,10463,Bronx
SAGE PARKING CORP.,7185387336,1295 JEROME AVE,BRONX,NY,10452,Bronx
420 EAST 51ST PARKING LLC,2128587565,420 E 51ST ST,NEW YORK,NY,10022,Manhattan
"KINNEY PARKING SYSTEM, INC.",2125025490,212 E 47TH ST,NEW YORK,NY,10017,Manhattan
WILLSHIRE CAR PARK INC.,2122216111,18230 WEXFORD TER,JAMAICA,NY,11432,Queens
LTG PARKING CORP.,2129999999,185 W END AVE,NEW YORK,NY,10023,Manhattan
C.V. PARKING LLC,2127959070,200 CABRINI BLVD,NEW YORK,NY,10033,Manhattan
ENTERPRISE ANN PARKING LLC,2127143571,57 ANN ST,NEW YORK,NY,10038,Manhattan
BLEECKER PARKING CORP.,2122748303,350 BLEECKER ST,NEW YORK,NY,10014,Manhattan
PF PARKING CORP.,7184307021,1975 EASTCHESTER RD,BRONX,NY,10461,Bronx
QUIK PARK HUDSON LLC,212-686-9800,160 RIVERSIDE BLVD,NEW YORK,NY,10069,Manhattan
"CENTRAL PARKING SYSTEM OF NEW YORK,INC.",7188555544,15 HOYT ST,BROOKLYN,NY,11201,Brooklyn
SJS 39 AVENUE PARKING LLC,718-886-4035,3907 PRINCE ST,FLUSHING,NY,11354,Queens
R & M PARKING CORP.,7186811406,600 E 156TH ST,BRONX,NY,10455,Bronx
"CHOY & C GROUP, INC.",,4235 MAIN ST,FLUSHING,NY,11355,Queens
"PARKING COMPANY OF AMERICA AIRPORTS, LLC",7183222221,14916 131ST ST,JAMAICA,NY,11430,Queens
21 EAST 12TH STREET PARKING LLC,2129293041,21 E 12TH ST,NEW YORK,NY,10003,Manhattan
MP 126 LLC,2124903460,163 E 125TH ST,NEW YORK,NY,10035,Manhattan
"SWEETS PARKING I, INC.",2127533100,437 MADISON AVE,NEW YORK,NY,10022,Manhattan
"CARNEGIE CAR PARK, INC.",2129966363,40 E 94TH ST,NEW YORK,NY,10128,Manhattan
HANOVER PARKING LLC,2126869800,7 HANOVER SQ,NEW YORK,NY,10004,Manhattan
"SMITH CAR PARK, LLC",2129966363,75 SMITH ST,BROOKLYN,NY,11201,Brooklyn
"ABM INDUSTRY GROUPS, LLC",2127576500,475 PARK AVE S,NEW YORK,NY,10016,Manhattan
20166 PARKING LLC,212-794-0111,202 E 67TH ST,NEW YORK,NY,10065,Manhattan
AMP VALET PARKING INC.,7182882213,5423 8TH AVE,BROOKLYN,NY,11220,Brooklyn
"LAZ PARKING NEW YORK, NEW JERSEY LLC",2122652239,251 AVENUE C,NEW YORK,NY,10009,Manhattan
TAURUS MANAGEMENT CORP.,7188661000,906 UNION ST,BROOKLYN,NY,11215,Brooklyn
LENOX PARKING GARAGE LLC,2032029746,380 LENOX AVE,NEW YORK,NY,10027,Manhattan
QUIK PARK 184 MANAGEMENT LLC,212-686-9800,184 KENT AVE,BROOKLYN,NY,11211,Brooklyn
S.T.A. PARKING CORP.,2127378850,433 E 76TH ST,NEW YORK,NY,10021,Manhattan
"CENTRAL PARKING SYSTEM OF NEW YORK, INC",2125025490,47 CHURCH STREET,NEW YORK,NY,10007,
ROX PARKING MANAGEMENT COMPANY LLC,2124868603,351 E 51ST ST,NEW YORK,NY,10022,Manhattan
EMBASSY PARKING LLC,2128887400,120 E 81ST ST,NEW YORK,NY,10028,Manhattan
WEST 108TH STREET PARKING GARAGE CORPORATION,2122228800,234 W 108TH ST,NEW YORK,NY,10025,Manhattan
"KINNEY PARKING SYSTEM, INC.",2125025490,29 E 50TH ST,NEW YORK,NY,10022,Manhattan
"CENTRAL PARKING SYSTEM OF NEW YORK,INC.",2125025490,9777 QUEENS BLVD,REGO PARK,NY,11374,Queens
"BAS PARKING, INC.",2126289447,530 E 72ND ST,NEW YORK,NY,10021,Manhattan
245 EAST 36TH STREET GARAGE CORP.,2126880700,237 E 36TH ST,NEW YORK,NY,10016,Manhattan
PEAK TIME PARKING INC.,7182204580,4469 BROADWAY,NEW YORK,NY,10040,Manhattan
"CENTRAL PARKING SYSTEM OF NEW YORK,INC.",2125025490,22 E 1ST ST,NEW YORK,NY,10003,Manhattan
FULTON LAWRENCE PARKING LLC,2126869800,111 LAWRENCE ST,BROOKLYN,NY,11201,Brooklyn
"CENTRAL PARKING SYSTEM OF NEW YORK,INC.",2125025490,519 W 161ST ST,NEW YORK,NY,10032,Manhattan
ENTERPRISE 87 CORP.,2125643199,1065 PARK AVE,NEW YORK,NY,10128,Manhattan
"KINNEY PARKING SYSTEM, INC.",2125025490,1257 3RD AVE,NEW YORK,NY,10021,Manhattan
CL PARKING LLC,212-686-9800,4809 CENTER BLVD,LONG ISLAND CITY,NY,11109,Queens
UNIVERSITY 10 PARKING LLC,2126869800,63 E 9TH ST,NEW YORK,NY,10003,Manhattan
TAINO TOWERS GARAGE CORP.,2125670234,221 E 122ND ST,NEW YORK,NY,10035,Manhattan
QUIK PARK WEST 23RD STREET GARAGE LLC,2128322066,425 W 23RD ST,NEW YORK,NY,10011,Manhattan
STELLMAR PARKING LLC,212-879-8798,30 E 65TH ST,NEW YORK,NY,10065,Manhattan
QUIK PARK EAST 72 LLC,2128322066,525 E 72ND ST,NEW YORK,NY,10021,Manhattan
ISABEL PARKING LLC,6465840409,950 RIVER AVE,BRONX,NY,10452,Bronx
MID TOWN PARKING CORP.,2127536116,575 LEXINGTON AVE,NEW YORK,NY,10022,Manhattan
CASTLE GARAGE LLC,2126869800,135 E 31ST ST,NEW YORK,NY,10016,Manhattan
SELECT PARKING LLC,2126869800,301 E 57TH ST,NEW YORK,NY,10022,Manhattan
"CARLYLE CAR PARK, LLC",2125702182,53 E 76TH ST,NEW YORK,NY,10021,Manhattan
24 LEONARD PARKING LLC,2126202621,24 LEONARD ST,NEW YORK,NY,10013,Manhattan
RELIANT PARKING LLC,2126869800,225 W 83RD ST,NEW YORK,NY,10024,Manhattan
21ST GARAGE LLC,2126270012,444 10TH AVE,NEW YORK,NY,10001,Manhattan
225 EAST 63RD PARKING CORP,2127367171,221 E 63RD ST,NEW YORK,NY,10065,Manhattan
QUIK PARK HUDSON LLC,2128322657,140 RIVERSIDE BLVD,NEW YORK,NY,10069,Manhattan
"CENTRAL PARKING SYSTEM OF NEW YORK,INC.",2126296602,1250 BROADWAY,NEW YORK,NY,10001,Manhattan
CHURCH STREET PARKING LLC,2126869800,110 CHURCH ST,NEW YORK,NY,10007,Manhattan
KIDS PARKING CORP.,2129644968,105 DUANE ST,NEW YORK,NY,10007,Manhattan
ULTRA-PARK LLC,2128749633,424 W END AVE,NEW YORK,NY,10024,Manhattan
STANDARD PARKING CORPORATION,2129163480,10420 QUEENS BLVD,FOREST HILLS,NY,11375,Queens
NEW RIVERDALE PARKING INC.,2128821911,3217 IRWIN AVE,BRONX,NY,10463,Bronx
"550 WEST 25TH CAR PARK, LLC",2129966363,550 W 25TH ST,NEW YORK,NY,10001,Manhattan
"IMPERIAL PARKING (U.S.), LLC",2129378660,9015 PARSONS BLVD,JAMAICA,NY,11432,Queens
751 CVW LLC,9175840383,173 E 156TH ST,BRONX,NY,10451,Bronx
QUIK PARK UNDERHILL LLC,2128322066,105 UNDERHILL AVE,BROOKLYN,NY,11238,Brooklyn
"SB PARK AVE PARKING, LLC",7187331820,225 E 149TH ST,BRONX,NY,10451,Bronx
SP PLUS CORPORATION,2125025490,375 PARK AVE,NEW YORK,NY,10152,Manhattan
"IMPERIAL PARKING (U.S.), LLC",212-934-8660,355 FRONT ST,STATEN ISLAND,NY,10304,Staten Island
"CENTRAL PARKING SYSTEM OF NEW YORK, INC",2125025490,885 6TH AVE,NEW YORK,NY,10001,Manhattan
POO PARKING CORP.,2124903460,1650 SELWYN AVE,BRONX,NY,10457,Bronx
"CENTRAL PARKING SYSTEM OF NEW YORK,INC.",2125025490,9 W 57TH ST,NEW YORK,NY,10019,Manhattan
QUIK PARK TRUFFLES LLC,2128322066,312 W 34TH ST,NEW YORK,NY,10001,Manhattan
WEST 46 ST GARAGE LLC,2128322066,305 W 46TH ST,NEW YORK,NY,10036,Manhattan
ELMHURST PARKING CORPORATION,9173251969,7911 41ST AVE,ELMHURST,NY,11373,Queens
"CENTRAL PARKING SYSTEM OF NEW YORK,INC.",7188527317,276 LIVINGSTON ST,BROOKLYN,NY,11217,Brooklyn
QUIK PARK WEST 55TH ST. LLC,2128322066,73 W 55TH ST,NEW YORK,NY,10019,Manhattan
THE CAR PARK OF NEW YORK LLC,208-336-6597,8020 COOPER AVE,GLENDALE,NY,11385,Queens
SECURE GARAGE DOOR LLC,7188489477,10126 98TH ST,OZONE PARK,NY,11416,Queens
"MUTUAL PARKING SYSTEM, INC.",2128887400,340 E 64TH ST,NEW YORK,NY,10065,Manhattan
EMPIRE 33 PARKING LLC,2126869800,38 W 33RD ST,NEW YORK,NY,10001,Manhattan
QUIK PARK NORTHROSE GARAGE LLC,2128322066,508 E 163RD ST,BRONX,NY,10451,Bronx
"LA MIRAGE CAR PARK, INC.",2122216111,17810 WEXFORD TER,JAMAICA,NY,11432,Queens
"CENTRAL PARKING SYSTEM OF NEW YORK,INC.",2125025490,2 PLATT ST,NEW YORK,NY,10038,Manhattan
MANHATTAN PARKING E. 71 ST. CORP.,2123536116,311 E 71ST ST,NEW YORK,NY,10021,Manhattan
"CHELSEA CAR PARK, LLC",2122216111,160 W 24TH ST,NEW YORK,NY,10011,Manhattan
WEST FARMS PARKING LLC,,1512 BOONE AVE,BRONX,NY,10460,Bronx
MINETTA LANE PARKING LLC,2127773530,122 W 3RD ST,NEW YORK,NY,10012,Manhattan
"KINNEY PARKING SYSTEM, LLC",2125025490,555 W 57TH ST,New York,NY,10019,Manhattan
21ST AND 11TH PARKING LLC,212-686-9800,551 W 21ST ST,NEW YORK,NY,10011,Manhattan
HAPPY FACE PARKING CORP.,718-583-3301,1560 JEROME AVE,BRONX,NY,10452,Bronx
"SEVEN ELEVEN CAR PARK, LLC",2129966363,711 3RD AVE,NEW YORK,NY,10017,Manhattan
NOSTRAND AVE PARKING CORP,718-934-0252,3804 NOSTRAND AVE,BROOKLYN,NY,11235,Brooklyn
CONCOURSE PARKING CORP.,2127367171,800 GRAND CONCOURSE,BRONX,NY,10451,Bronx
162 PARKING OPS LLC,212-568-7800,528 W 162ND ST,NEW YORK,NY,10032,Manhattan
FLATBUSH PARKING SYSTEMS INC.,7188568113,626 FLATBUSH AVE,BROOKLYN,NY,11225,Brooklyn
"GM PARKING GROUP, INC.",8604600523,116 NOSTRAND AVE,BROOKLYN,NY,11205,Brooklyn
174 PARKING MGMT LLC.,,554 W 174TH ST,NEW YORK,NY,10033,Manhattan
"KINNEY PARKING SYSTEM, INC.",2125025490,515 FASHION AVE,NEW YORK,NY,10018,Manhattan
STELLMAR PARKING LLC,212-879-8798,27 E 65TH ST,NEW YORK,NY,10065,Manhattan
WALL STREET GARAGE PARKING CORP.,2127373279,45 WALL ST,NEW YORK,NY,10005,Manhattan
328 WEST 39TH STREET PARKING LLC,2126869800,334 W 39TH ST,NEW YORK,NY,10018,Manhattan
182 STREET PARKING CORP.,3476728286,8822 182ND ST,HOLLIS,NY,11423,Queens
DILIGENT PARKING LLC,2126869800,150 W 68TH ST,NEW YORK,NY,10023,Manhattan
RIVER PARK TOWERS GARAGE LLC,6465840409,55 RICHMAN PLZ,BRONX,NY,10453,Bronx
"KINNEY PARKING SYSTEM, INC.",2126296602,153 W 48TH ST,NEW YORK,NY,10036,Manhattan
WELCOME PARKING LIMITED LIABILITY COMPANY,2016807129,601 AMBOY ST,BROOKLYN,NY,11212,Brooklyn
EAST RIVER PARKING CORP.,2127367171,345 E 94TH ST,NEW YORK,NY,10128,Manhattan
TWO FIFTH PARKING LLC,2125338312,2 5TH AVE,NEW YORK,NY,10011,Manhattan
PARKING SYSTEMS PLUS INC,8009441424,301 E 69TH ST,NEW YORK,NY,10021,Manhattan
"KINNEY PARKING SYSTEM, LLC",2125025490,33 W 28TH ST,NEW YORK,NY,10001,Manhattan
"ST. ANN'S PARKING GARAGE, LLC",7184010141,780 SAINT ANNS AVE,BRONX,NY,10456,Bronx
"CENTRAL PARKING SYSTEM OF NEW YORK,INC.",2125025490,528 W 162ND ST,NEW YORK,NY,10032,Manhattan
2211 3RD AVE PARKING LLC,347-589-4139,2211 3RD AVE,NEW YORK,NY,10035,Manhattan
34 NORTH 7TH PARKING CORP.,2127367171,27 N 6TH ST,BROOKLYN,NY,11249,Brooklyn
1955 FIRST PARKING CORP.,2129963074,1955 1ST AVE,NEW YORK,NY,10029,Manhattan
"CENTRAL PARKING SYSTEM OF NEW YORK,INC.",2125025490,839 AVENUE OF THE AMERICAS,NEW YORK,NY,10001,Manhattan
"RODRIQUEZ DISLA, LUZ D",347-513-6083,1961 JEROME AVE,BRONX,NY,10453,Bronx
CHAMPION PARKING 74 LLC.,2123085959,2109 BROADWAY,NEW YORK,NY,10023,Manhattan
SUPERIOR PARKING LLC,2126869800,515 E 79TH ST,NEW YORK,NY,10075,Manhattan
"LIVINGSTON CAR PARK, LLC",2129966363,141 LIVINGSTON ST,BROOKLYN,NY,11201,Brooklyn
PARK 127TH LLC,2129799815,311 W 127TH ST,NEW YORK,NY,10027,Manhattan
STATE-PEARL GARAGE INC.,2124072516,1 BATTERY PARK PLZ,NEW YORK,NY,10004,Manhattan
"KINNEY PARKING SYSTEM OF NEW YORK, INC.",2125025490,1189 1ST AVE,NEW YORK,NY,10065,Manhattan
EMPIRE PARKING CORP.,212-262-4771,416 WASHINGTON ST,NEW YORK,NY,10013,Manhattan
VINCENT 15 PARKING LLC,2126869800,553 AVENUE OF THE AMERICAS,NEW YORK,NY,10011,
SUPREME PARKING CORP.,7182033312,230 E 30TH ST,NEW YORK,NY,10016,Manhattan
"KINNEY PARKING SYSTEM, INC.",2126296602,838 11TH AVE,NEW YORK,NY,10019,
"PARK 127 MGMT, LLC",2127957275,311 W 127TH ST,NEW YORK,NY,10027,Manhattan
ZAFIRO PARKING INC.,2127490125,804 E 138TH ST,BRONX,NY,10454,Bronx
"PARK-SERV, INC.",2126869800,140-166 W 53RD ST,NEW YORK,NY,10019,
"KINNEY PARKING SYSTEM, LLC",2125025490,515 FASHION AVE,New York,NY,10018,Manhattan
300 E. 34 PARKING LLC,212-481-6016,300 E 34TH ST,NEW YORK,NY,10016,Manhattan
EZY PARKING INC.,7182944264,1981 SEDGWICK AVE,BRONX,NY,10453,Bronx
POWER PARKING S CORP.,2125696506,164 DYCKMAN ST,NEW YORK,NY,10040,Manhattan
"CLARITY 47 PARKING, LLC",2126869800,145 W 47TH ST,NEW YORK,NY,10036,Manhattan
M&N GROUP PARKING INC,917-470-5093,3158-60 JEROME AVE,BRONX,NY,10468,
"CENTRAL PARKING SYSTEM OF NEW YORK,INC.",2128676300,157 W 83RD ST,NEW YORK,NY,10024,Manhattan
B.Y.M COMMUNITY PARKING LOT CORP.,9172243769,530 BERGEN AVE,BRONX,NY,10455,Bronx
1740 PETROLEUM LLC,718-581-7841,1730 JEROME AVE,BRONX,NY,10453,Bronx
LA MARINA PARKING LLC,34784325023,284 DYCKMAN ST,NEW YORK,NY,10034,Manhattan
MANHATTAN PARKING-BORO CORP.,2124903460,40 CLINTON ST,BROOKLYN,NY,11201,Brooklyn
106 Mott Street Parking Corp,2127419009,106 MOTT ST,NEW YORK,NY,10013,Manhattan
GATEWAY PARKING CORP,2127511080,345 S END AVE,NEW YORK,NY,10280,Manhattan
"LAZ PARKING NEW YORK, NEW JERSEY LLC",2122652239,180 RIVERSIDE BLVD,NEW YORK,NY,10069,Manhattan
"IMPERIAL PARKING (U.S), LLC",2129378660,9102 168TH ST,JAMAICA,NY,11432,Queens
"BHC CAR PARK, LLC",2129966363,240 WILLOUGHBY ST,BROOKLYN,NY,11201,Brooklyn
"LASALLE PARKING, LLC",2127143571,220 E 9TH ST,NEW YORK,NY,10003,Manhattan
"280 BROADWAY CAR PARK, LLC",2129966363,280 BROADWAY,NEW YORK,NY,10007,Manhattan
"G&M PARKING GARAGE, CORP.",718-524-8328,1231 WEBSTER AVE,BRONX,NY,10456,Bronx
CLIFF PARKING LLC,2126869800,99 JOHN ST,NEW YORK,NY,10038,Manhattan
NICE PARK LLC,2129299404,310 E 11TH ST,NEW YORK,NY,10003,Manhattan
"CENTRAL PARKING SYSTEM OF NEW YORK,INC.",2122895040,115 E 87TH ST,NEW YORK,NY,10128,Manhattan
QUIK PARK TRIBECA LLC,2128322066,450 WASHINGTON ST,NEW YORK,NY,10013,Manhattan
UNIQUE PARKING LLC,2126869800,41 E 21ST ST,NEW YORK,NY,10010,Manhattan
G & M PARKING GARAGE CORP.,7184839458,1100 FRANKLIN AVE,BRONX,NY,10456,Bronx
"351 EAST 83 CAR PARK, LLC",2129966363,351 E 83RD ST,NEW YORK,NY,10028,Manhattan
"CRESCENT PARKING MGMT, LLC",2127957275,4123 CRESCENT ST,LONG IS CITY,NY,11101,Queens
GROSVENOR PARKING LLC,2125810535,11624 GROSVENOR LN,RICHMOND HILL,NY,11418,Queens
"ONE PARKING 703, INC.",4802722100,209-90 23RD AVE,Bayside,NY,11360,Queens
8930 PARKING LLC,212-837-4509,8936 SUTPHIN BLVD,JAMAICA,NY,11435,Queens
"CENTRAL PARKING SYSTEM OF NEW YORK, INC",2125025490,441 9TH AVE,NEW YORK,NY,10001,Manhattan
SYLVAN MIDWAY PARKING LLC,718-575-9440,10818 QUEENS BLVD,FOREST HILLS,NY,11375,Queens
"CENTRAL PARKING SYSTEM OF NEW YORK,INC.",2125025490,304 W 49TH ST,NEW YORK,NY,10019,Manhattan
STANDARD PARKING CORPORATION,7188974833,6135 JUNCTION BLVD,REGO PARK,NY,11374,Queens
FLUSHING EZ PARKING INC.,9178152555,13203 SANFORD AVE,FLUSHING,NY,11355,Queens
STANDARD PARKING CORPORATION,7188943580,8020 COOPER AVE,GLENDALE,NY,11385,Queens
GM&M PARK INC.,6466100315,110 BROADWAY,BROOKLYN,NY,11211,Brooklyn
301 EAST 79 PARKING LLC,2128887400,301 E 79TH ST,NEW YORK,NY,10075,Manhattan
PARK ON 44TH CORP.,2127373279,230 E 44TH ST,NEW YORK,NY,10017,Manhattan
BEAVER STREET PARKING LLC,212-785-9733,15 WILLIAM ST,NEW YORK,NY,10004,Manhattan
CONNAUGHT TOWER CAR PARK INC,2129966363,300 E 54TH ST,NEW YORK,NY,10022,Manhattan
QUIK PARK BROADWAY GARAGE LLC,2128322066,225 W 56TH ST,NEW YORK,NY,10019,Manhattan
54TH & 2ND PARKING LLC,2126869800,300 E 55TH ST,NEW YORK,NY,10022,Manhattan
"IMPERIAL PARKING (U.S.), LLC",212-937-8660,150 NASSAU ST,NEW YORK,NY,10038,Manhattan
QUIK PARK LIBBY 2 LLC,,300 E 48TH ST,NEW YORK,NY,10017,Manhattan
IMPERIAL PARKING US LLC,2129378660,92-30 165 STREET,JAMAICA,NY,11433,
"KINNEY PARKING SYSTEM, LLC",2125025490,23 W 55TH ST,NEW YORK,NY,10019,Manhattan
"KINNEY PARKING SYSTEM, LLC",2125025490,29 E 50TH ST,NEW YORK,NY,10022,Manhattan
Prince Tower Parking Corp.,,3636 PRINCE ST,FLUSHING,NY,11354,Queens
"CENTRAL PARKING SYSTEM OF NEW YORK,INC.",2129163480,404 E 79TH ST,NEW YORK,NY,10075,Manhattan
"PARK 117TH, LLC",2122220242,279 W 117TH ST,NEW YORK,NY,10026,Manhattan
21ST AND 11TH PARKING LLC,212-686-9800,551 W 21ST ST,NEW YORK,NY,10011,Manhattan
MANHATTAN PARKING EAST 48TH STREET CORP.,2124903460,141 E 48TH ST,NEW YORK,NY,10017,Manhattan
W. 79TH STREET PARKING CORP.,2122435900,200 W 79TH ST,NEW YORK,NY,10024,Manhattan
REALPRO PARKING LLC,2126869800,330 E 39TH ST,NEW YORK,NY,10016,Manhattan
400 EAST 70TH STREET PARKING LLC,2127949173,400 E 70TH ST,NEW YORK,NY,10021,Manhattan
PLAZA 48 PARKING LLC,2126869800,329 E 48TH ST,NEW YORK,NY,10017,Manhattan
"PRO PARK AMERICA NEW YORK, LLC",9174152749,204 W 101ST ST,NEW YORK,NY,10025,Manhattan
"SHARP CAR PARK, LLC",2122216111,357 E 57TH ST,NEW YORK,NY,10022,Manhattan
"RUPPERT CAR PARK, LLC",2129966363,1601 3RD AVE,NEW YORK,NY,10128,Manhattan
QUIK PARK PCVST GARAGE LLC,2126145862,528 E 20TH ST,NEW YORK,NY,10009,Manhattan
315 EAST 65TH PARKING LLC,212-570-1732,322 E 66TH ST,NEW YORK,NY,10065,Manhattan
"SZYMANSKI, THOMAS STANLEY",7186419788,13220 81ST ST,OZONE PARK,NY,11417,Queens
"FANNWOOD ESTATES, LLC",5163747000,9958 66TH AVE,REGO PARK,NY,11374,Queens
PERFORMANCE PARKING LLC,212-686-9800,127 AMSTERDAM AVE,NEW YORK,NY,10023,Manhattan
MANHATTAN PARKING GOLD CORP,2127536116,220 E 54TH ST,NEW YORK,NY,10022,Manhattan
WELLESLEY PARKING LLC,2122495514,203 E 71ST ST,NEW YORK,NY,10021,Manhattan
QUIK PARK KESTREL PARKING LLC,212-686-9800,29 CATON PL,BROOKLYN,NY,11218,Brooklyn
BRAIRWOOD CAR PARK INC,2122216111,8515 MAIN ST,JAMAICA,NY,11435,Queens
"BATTERY PLACE CAR PARK, LLC",2129966363,50 BATTERY PL,NEW YORK,NY,10280,Manhattan
WORTHY PARKING LLC,2124903460,841 10TH AVE,NEW YORK,NY,10019,Manhattan
165 EAST PARKING CORP.,2127367171,165 E 72ND ST,NEW YORK,NY,10021,Manhattan
420 EAST 51ST PARKING PARTNERS LLC,2128387565,420 E 51ST ST,NEW YORK,NY,10022,Manhattan
MBA PARKING CORP,718-864-2992,2702 QUEENS PLZ S,LONG ISLAND CITY,NY,11101,Queens
37 EAST LLC,2125643199,415 E 37TH ST,NEW YORK,NY,10016,Manhattan
JDS PARKING LLC,2126869800,561 10TH AVE,NEW YORK,NY,10036,Manhattan
RAPID 83 STREET PARKING CORP.,2127443591,351 E 83RD ST,NEW YORK,NY,10028,Manhattan
"CENTRAL PARKING SYSTEM OF NEW YORK,INC.",2125025490,535 E 75TH ST,NEW YORK,NY,10021,Manhattan
"LAZ PARKING NEW YORK, NEW JERSEY LLC",2122652239,507 E 70TH ST,NEW YORK,NY,10021,Manhattan
KEY PARKING LLC,2125810535,115 E 9TH ST,NEW YORK,NY,10003,Manhattan
KELLY ST PARKING LLC,7183436262,950 WESTCHESTER AVE,BRONX,NY,10459,Bronx
CHAMPION 221 LLC,2123085959,216 CENTRAL PARK S,NEW YORK,NY,10019,Manhattan
"CENTRAL PARKING SYSTEM OF NEW YORK,INC.",2125025490,135 E 31ST ST,NEW YORK,NY,10016,Manhattan
"CENTRAL PARKING SYSTEM OF NEW YORK,INC.",2126296602,90 OCEANA DR W,BROOKLYN,NY,11235,Brooklyn
"IMPERIAL PARKING (U.S), LLC",2129378660,31 NAGLE AVENUE,NEW YORK,NY,10040,
60 SUTTON PLACE PARKING LLC,2128887400,60 SUTTON PL S,NEW YORK,NY,10022,Manhattan
"CENTRAL PARKING SYSTEM OF NEW YORK,INC.",2125025490,282 11TH AVE,NEW YORK,NY,10001,Manhattan
UPPER MANHATTAN PARKING LLC,2124211117,1845 PARK AVE,NEW YORK,NY,10035,Manhattan
PACIFIC PARKING LLC,2033212129,700 PACIFIC ST,BROOKLYN,NY,11217,Brooklyn
"KINNEY PARKING SYSTEM, INC.",7187974864,85 LIVINGSTON ST,BROOKLYN,NY,11201,Brooklyn
PARK 70 LLC,2123272626,400 E 70TH ST,NEW YORK,NY,10021,Manhattan
QUIK PARK YORK AVENUE LLC,2126869800,400 E 71ST ST,NEW YORK,NY,10021,Manhattan
"KINNEY PARKING SYSTEM, LLC",2125025490,870 8TH AVE,NEW YORK,NY,10019,Manhattan
NATIONS 47 PARKING LLC,2126869800,885 2ND AVE,NEW YORK,NY,10017,Manhattan
MAGIC PARKING LLC,2122893800,225 SAINT NICHOLAS AVE,NEW YORK,NY,10027,Manhattan
WHITNEY 90 PARKING LLC,212-686-9800,200 E 90TH ST,NEW YORK,NY,10128,Manhattan
M&N Group Parking Inc,9174705093,2990 JEROME AVE,BRONX,NY,10468,Bronx
"IMPERIAL PARKING (U.S.), LLC.",2129378660,212 S OXFORD ST,BROOKLYN,NY,11217,Brooklyn
605 PARKING CORP.,2127367171,605 PARK AVE,NEW YORK,NY,10065,Manhattan
MURRAY 38 PARKING LLC,2126869800,155 E 38TH ST,NEW YORK,NY,10016,Manhattan
"CENTRAL PARKING SYSTEM OF NEW YORK, INC",2125025490,1250 BROADWAY,NEW YORK,NY,10001,Manhattan
"IMPERIAL PARKING (U.S.), LLC",212-934-8660,1199 PARK AVE,NEW YORK,NY,10128,Manhattan
ROX PARKING LLC,2123272626,931 1ST AVE,NEW YORK,NY,10022,Manhattan
EAST 79TH STREET PARKING LLC,2124903460,505 E 79TH ST,NEW YORK,NY,10075,Manhattan
UPTOWN PARKING LLC,212-686-9800,201 E 63RD ST,NEW YORK,NY,10065,Manhattan
330 THIRD PARKING CORP.,2127367171,330 3RD AVE,NEW YORK,NY,10010,Manhattan
GRAMERCY 24 PARKING LLC,2126869800,401 2ND AVE,NEW YORK,NY,10010,Manhattan
"ALBERT AUTO SALES & PARKING, INC.",7182942319,1540 JEROME AVE,BRONX,NY,10452,Bronx
QUIK PARK W. 14TH STREET LLC,212-686-9800,222 W 14TH ST,NEW YORK,NY,10011,Manhattan
FLORAL 26 PARKING LLC,2126869800,55 W 25TH ST,NEW YORK,NY,10010,Manhattan
333 EAST 46TH ST. PARKING CORP.,2126869800,333 E 46TH ST,NEW YORK,NY,10017,Manhattan
W. 79TH STREET PARKING CORP.,2122435900,200 W 79TH ST,NEW YORK,NY,10024,Manhattan
"IMPERIAL PARKING (U.S.), LLC",2129378660,724-732 AVENUE OF THE AMERICAS,NEW YORK,NY,10010,
150 EAST 18TH STREET PARKING CORP,2127367171,196-202 THIRD AVE,NEW YORK,NY,10003,Manhattan
ALLIANCE PARKING WEST 43 ST LLC,2125810535,500 W 43RD ST,NEW YORK,NY,10036,Manhattan
"SCHERMERHORN PARKING MGMT, LLC",2127957275,200 SCHERMERHORN ST,BROOKLYN,NY,11201,Brooklyn
JONATHAN & GABRIELLE PARKING INC.,7187310931,1521 INWOOD AVE,BRONX,NY,10452,Bronx
"ENTERPRISE PARKING COMPANY, LLC",2125329682,2500 FDR DR,NEW YORK,NY,10016,Manhattan
PUTNAM GARDENS PARKING CORP.,7184327226,3815 PUTNAM AVE W,BRONX,NY,10463,Bronx
ML GJUSHI PROPERTIES LLC,,453 E 184TH ST,BRONX,NY,10458,Bronx
NYC PARKING GROUP I LLC,7182850102,333 E 75TH ST,NEW YORK,NY,10021,Manhattan
"KINNEY PARKING SYSTEM, INC.",2125025490,301 E 66TH ST,NEW YORK,NY,10065,Manhattan
TAINO PARKING CORPORATION,2124109174,211 E 122ND ST,NEW YORK,NY,10035,Manhattan
"CENTRAL PARKING SYSTEM OF NEW YORK,INC.",2125025490,530 E 76TH ST,NEW YORK,NY,10021,Manhattan
PARK RIGHT CORPORATION,2124599003,564 SAINT JOHNS PL,BROOKLYN,NY,11238,Brooklyn
QUIK PARK LIBBY LLC,2128322066,301 E 48TH ST,NEW YORK,NY,10017,Manhattan
WATERFRONT PARKING LLC,2126869800,95 WALL ST,NEW YORK,NY,10005,Manhattan
PARK KWIK LLC,2129745840,770 11TH AVE,NEW YORK,NY,10019,Manhattan
HESTER PARKING CORP.,9736228888,106 MOTT ST,NEW YORK,NY,10013,Manhattan
AMPCO SYSTEM PARKING,6464391610,450 E 29TH ST,NEW YORK,NY,10016,Manhattan
AIR PARK OF JFK INC.,7182767000,15344 S CONDUIT AVE,JAMAICA,NY,11434,Queens
QUIK PARK PCVST GARAGE LLC,2126145862,279 AVENUE C,NEW YORK,NY,10009,Manhattan
"IMPERIAL PARKING (U.S.), LLC",2129378660,35 E 38TH ST,NEW YORK,NY,10016,Manhattan
"MUTUAL PARKING, INC.",2128887400,605 E 82ND ST,NEW YORK,NY,10028,Manhattan
F & A PARKING CORP,7183992640,14238 37TH AVE,FLUSHING,NY,11354,Queens
ALLIANCE DAG PARKING LLC,212-795-7275,240 E 47TH ST,NEW YORK,NY,10017,Manhattan
"UNISPHERE MANAGEMENT, LLC",7188882367,13618 41ST AVE,FLUSHING,NY,11355,Queens
PARK KWIK LLC,2129745840,85 ADAMS ST,BROOKLYN,NY,11201,Brooklyn
ATLANTIC GROUP PARKING INC,7186384977,1171 ATLANTIC AVE,BROOKLYN,NY,11216,Brooklyn
JO-MEG GARAGE CORP.,2129562280,80 CENTRAL PARK W,NEW YORK,NY,10023,Manhattan
"WORLD TOWER PARKING GARAGE, LLC",2125643199,310 W 144TH ST,NEW YORK,NY,10030,Manhattan
"CAPABLE CAR PARK, LLC",2122216111,210 CENTRAL PARK S,NEW YORK,NY,10019,Manhattan
"CENTRAL PARKING SYSTEM OF NEW YORK,INC.",2125025490,250 E 67TH ST,NEW YORK,NY,10065,Manhattan
STANDARD PARKING GARAGE,,9015 QUEENS BLVD,ELMHURST,NY,11373,Queens
PRONTO PARKING CORP,2124903460,169 E 65TH ST,NEW YORK,NY,10065,Manhattan
"CENTRAL PARKING SYSTEM OF NEW YORK,INC.",2126296602,5100 KINGS PLZ,BROOKLYN,NY,11234,Brooklyn
K & R PARKING CORP.,6468374721,1855 E TREMONT AVE,BRONX,NY,10460,Bronx
"KINNEY PARKING SYSTEM, LLC",2125025490,3739 W 12TH ST,NEW YORK,NY,10011,
IMPERIAL PARKING US LLC,2129378660,155 W 70TH ST,NEW YORK,NY,10023,Manhattan
PV PARKING II CORP,646-302-4330,3128 QUEENS BLVD,LONG ISLAND CITY,NY,11101,Queens
"C & S PARKING GARAGE, INC.",6465336409,1208 FRANKLIN AVE,BRONX,NY,10456,Bronx
24 PARKING GARAGE INC,7182934872,1231 WEBSTER AVE,BRONX,NY,10456,Bronx
QUIK PARK 390 GARAGE LLC,2128322066,390 PARK AVE,NEW YORK,NY,10022,Manhattan
"CENTRAL PARKING SYSTEM OF NEW YORK, INC",2125025490,109-27 E 58TH ST/ 110 E 59TH STREET,NEW YORK,NY,10022,Manhattan
ADD PARK INC,7189939003,3213 3RD AVE,BRONX,NY,10451,Bronx
AERO PARKING CORP.,2128661000,10 E 30TH ST,NEW YORK,NY,10016,Manhattan
"IMPERIAL PARKING (U.S.), LLC",2129378660,35 EAST   38 STREET,NEW YORK,NY,10016,
SP PLUS CORPORATION,2123217621,75 PARK PL,NEW YORK,NY,10007,Manhattan
SHERMAN PARKING MANAGEMENT LLC,765-276-7275,11 BROADWAY,BROOKLYN,NY,11249,Brooklyn
400 EAST 56 PARKING LLC,2127522884,400 E 56TH ST,NEW YORK,NY,10022,Manhattan
"ABM INDUSTRY GROUPS, LLC",2127576500,17 E 54TH ST,NEW YORK,NY,10022,Manhattan
QUIK PARK CPS LLC,2128322066,116 CENTRAL PARK W,NEW YORK,NY,10019,Manhattan
SLOPE CAR PARK INC.,2122216111,429 12TH ST,BROOKLYN,NY,11215,Brooklyn
CHAMPION PARKING 80 LLC,2125358002,445 E 80TH ST,NEW YORK,NY,10075,Manhattan
"IMPERIAL PARKING (U.S.), INC",2129378660,325 AVENUE C,NEW YORK,NY,10009,Manhattan
"CENTRAL PARKING SYSTEM OF NEW YORK,INC.",2125025490,100 MORTON ST,NEW YORK,NY,10014,Manhattan
QUEENS BLVD PETROLEUM LLC,914-699-9500,3105 QUEENS BLVD,LONG ISLAND CITY,NY,11101,Queens
"KINNEY PARKING SYSTEM, INC.",7184325834,2500 JOHNSON AVE,BRONX,NY,10463,Bronx
ENTERPRISE 24TH PARKING LLC,2125643199,214 E 24TH ST,NEW YORK,NY,10010,Manhattan
PLAZA 48 PARKING LLC,2126869800,326 E 49TH ST,NEW YORK,NY,10017,Manhattan
QUIK PARK WEST 12TH ST. LLC,212-686-9800,175 W 12TH ST,NEW YORK,NY,10011,Manhattan
116TH-117TH STREET PARKING CORP.,2127367171,23 W 116TH ST,NEW YORK,NY,10026,Manhattan
305 EAST 80TH PARKING LLC,2126283121,305 E 80TH ST,NEW YORK,NY,10075,Manhattan
"GUILLEN BUSINESS CENTER, INC.",9175591203,700 GRAND CONCOURSE,BRONX,NY,10451,Bronx
"G&M PARKING GARAGE, CORP.",7184839458,1208 FRANKLIN AVE,BRONX,NY,10456,Bronx
22ND AND SIXTH PARKING LLC,2126869800,60 W 23RD ST,NEW YORK,NY,10010,Manhattan
FULL HOUSE PARKING LLC,3477320219,13511 40TH RD,FLUSHING,NY,11354,Queens
SWIFT PARKING LLC,2126869800,160 E 88TH ST,NEW YORK,NY,10128,Manhattan
ACTIVE PARKING LLC,2126869800,2373 BROADWAY,NEW YORK,NY,10024,Manhattan
"CENTRAL PARKING SYSTEM OF NEW YORK,INC.",2126296602,109 E 58TH ST,NEW YORK,NY,10022,Manhattan
62 MULBERRY PARKING CORP,212-736-7171,62 MULBERRY ST,NEW YORK,NY,10013,Manhattan
"CRYSTAL CAR PARK, LLC",2129966363,200 E 24TH ST,NEW YORK,NY,10010,Manhattan
BROOK PARK PARKING CORP.,9174705093,1820 E TREMONT AVE,BRONX,NY,10460,Bronx
JEROME PARKING CORP.,7187167170,1961 JEROME AVE,BRONX,NY,10453,Bronx
"CENTRAL PARKING SYSTEM OF NEW YORK,INC.",2126296602,138 E 50TH ST,NEW YORK,NY,10022,Manhattan
ASTORIA CENTRAL PARKING LLC,7544447275,3157 31ST ST,ASTORIA,NY,11106,Queens
CHAMPION PARKING 53 LLC,2123085959,821-827 7 AVE,NEW YORK,NY,10019,
900 8TH AVENUE GARAGE LLC,6465840409,900 8TH AVE,NEW YORK,NY,10019,Manhattan
GREENWICH STREET PARKING LLC,2126869800,551 GREENWICH ST,NEW YORK,NY,10014,Manhattan
PARK AVENUE 39 PARKING LLC,212-686-9800,90 PARK AVE,NEW YORK,NY,10016,Manhattan
QUIK PARK 86TH ST. LLC,2126509677,444 E 86TH ST,NEW YORK,NY,10028,Manhattan
1114 SIXTH PARKING LLC,212-686-9800,1114 AVENUE OF THE AMERICAS,NEW YORK,NY,10036,Manhattan
FDD ENTERPRISES INC.,6463997098,3000 PARK AVE,BRONX,NY,10451,Bronx
"60 SUTTON PLACE PARKING ASSOCIATES, LLC",2125352890,60 SUTTON PL S,NEW YORK,NY,10022,Manhattan
"CHAMPION PARKING 46, LLC",2123085959,247 W 46TH ST,NEW YORK,NY,10036,Manhattan
QUIK PARK 48TH ST. GARAGE CORP.,2128322066,300 E 48TH ST,NEW YORK,NY,10017,Manhattan
BRUCKNER PARKING LLC,212-929-9404,25 BRUCKNER BLVD,BRONX,NY,10454,Bronx
157-57TH INC,2122232838,153 E 57TH ST,NEW YORK,NY,10022,Manhattan
ALERT GARAGE CORP.,7187860643,3017 40TH AVE,LONG IS CITY,NY,11101,Queens
DISCOVER 97 PARKING LLC,2126869800,750 COLUMBUS AVE,NEW YORK,NY,10025,Manhattan
250 WEST PARKING CORP.,2127367171,250 W 19TH ST,NEW YORK,NY,10011,Manhattan
"V.J. MEGA PARKING SYSTEMS, INC.",2126501339,343 E 74TH ST,NEW YORK,NY,10021,Manhattan
QUIK PARK 3RD AVE LLC,2128322066,1142 3RD AVE,NEW YORK,NY,10065,Manhattan
BRISTOL 65 PARKING LLC,2126869800,200 E 65TH ST,NEW YORK,NY,10065,Manhattan
QUIK PARK PCVST GARAGE LLC,2126145862,325 AVENUE C,NEW YORK,NY,10009,Manhattan
EAST 105TH STREET PARKING LLC,2125347019,156 E 105TH ST,NEW YORK,NY,10029,Manhattan
BK PARKING GROUP INC.,917-327-7488,4566 BROADWAY,NEW YORK,NY,10040,Manhattan
T & K PARKING INC.,9176569896,61 CHRYSTIE ST,NEW YORK,NY,10002,Manhattan
ROPETMAR GARAGE INC.,2127511080,299 PEARL ST,NEW YORK,NY,10038,Manhattan
BELLTEL 365 PARKING LLC,82-1130031,365 BRIDGE ST,BROOKLYN,NY,11201,Brooklyn
STATUE PARKING LLC,2125710538,20 RIVER TER,NEW YORK,NY,10282,Manhattan
"CENTRAL PARKING SYSTEM OF NEW YORK,INC.",2125025490,554 W 174TH ST,NEW YORK,NY,10033,Manhattan
ZAFIRO PARKING INC.,2127490125,1380 MLK JR BLVD,BRONX,NY,10452,Bronx
PRIOR PARKING LLC,2126869800,40-50 W 61ST ST,NEW YORK,NY,10023,
NYULMC E GARAGE CORP.,2127367171,333 E 38TH ST,NEW YORK,NY,10016,Manhattan
REX PARKING CORP.,5166984240,10 E 153RD ST,BRONX,NY,10451,Bronx
COSMOPOLITAN PARKING CORP.,2122493344,34 E 21ST ST,NEW YORK,NY,10010,Manhattan
157-53 PARKING CORP,6464639403,157 E 57TH ST,NEW YORK,NY,10022,Manhattan
IMPERIAL PARKING (US) LLC,2129378660,222 W 14TH ST,NEW YORK,NY,10011,Manhattan
QUIK PARK 89TH ST. LLC,2128322066,207 W 88TH ST,NEW YORK,NY,10024,Manhattan
158TH NY CORP,7189938026,85 E 158TH ST,BRONX,NY,10451,Bronx
LIVINGSTON STREET PARKING LLC,212-686-9800,111 LIVINGSTON ST,BROOKLYN,NY,11201,Brooklyn
STANDARD PARKING CORPORATION,7188971220,10440 QUEENS BLVD,FOREST HILLS,NY,11375,Queens
ENC PARKING CORPORATION,9173251969,69 5TH AVE,NEW YORK,NY,10003,Manhattan
TOREN PARKING LLC,9177493600,255 FLATBUSH AVENUE EXT,BROOKLYN,NY,11201,
WEST VILLAGE GARAGE CORP,212-262-4771,125 PERRY ST,NEW YORK,NY,10014,Manhattan
59 AND 5TH PARKING LLC,2126869800,767 5TH AVE,NEW YORK,NY,10153,Manhattan
101 WEST END PARKING LLC,2126869800,101 W END AVE,NEW YORK,NY,10023,Manhattan
IMPARK210CPS LLC,212-937-8660,210 CENTRAL PARK S,NEW YORK,NY,10019,Manhattan
PEAK TIME PARKING INC.,7182204580,1231 EDWARD L GRANT HWY,BRONX,NY,10452,Bronx
KC ONE PARK CORP.,7182850102,330 3RD AVE,NEW YORK,NY,10010,Manhattan
FASHION 35 PARKING LLC,2126869800,1328 BROADWAY,NEW YORK,NY,10001,Manhattan
HJ PARKING LLC,2126869800,301-309 W 51ST ST,NEW YORK,NY,10019,
"IMPERIAL PARKING (U.S.), LLC",2129378660,89-35 162 STREET,JAMAICA,NY,11432,
REYER PARKING CORP.,2125416050,257 E 187TH ST,BRONX,NY,10458,Bronx
1745 BROADWAY PARKING MANAGEMENT CORP.,2127367171,1745 BROADWAY,NEW YORK,NY,10019,Manhattan
DIRECT PARKING LLC,2126869800,51 W 56TH ST,NEW YORK,NY,10019,Manhattan
"IMPERIAL PARKING (U.S.), LLC",2129378660,9330 HORACE HARDING EXPRESSWAY,QUEENS,NY,11374,Queens
ENTERPRISE 30TH STREET GARAGE LLC,2126270012,529 W 29TH ST,NEW YORK,NY,10001,Manhattan
STANDARD PARKING CORPORATION,7188943580,8036 COOPER AVE,GLENDALE,NY,11385,Queens
786 PARKING CORP,7186180029,313 SAINT MARKS AVE,BROOKLYN,NY,11238,Brooklyn
MP HUB PARKING LLC,2124903460,3000 3RD AVE,BRONX,NY,10455,Bronx
ONE PARKING 89TH STREET LLC,4802722100,205 W 89TH ST,NEW YORK,NY,10024,Manhattan
CHELSEA 29 PARKING LLC,2126869800,525 W 28TH ST,NEW YORK,NY,10001,Manhattan
A&P PARKING CORP.,2123601711,339 GREENE AVE,BROOKLYN,NY,11238,Brooklyn
155 EAST 55TH STREET PARKING CORP,2127367171,155 E 55TH ST,NEW YORK,NY,10022,Manhattan
MAJESTIC CAR PARK LLC,2122216111,1199 PARK AVE,NEW YORK,NY,10128,Manhattan
KC THIRD AVENUE PARKING LLC,7187880066,330 3RD AVE,NEW YORK,NY,10010,Manhattan
"SAM PARKING, L.L.C.",2129666774,360 W BROADWAY,NEW YORK,NY,10013,Manhattan
Z AND G PARKING LLC,2129799815,2355 WEBSTER AVE,BRONX,NY,10458,Bronx
345 Sheffield Parking LLC,,345 SHEFFIELD AVE,BROOKLYN,NY,11207,Brooklyn
36-36 PRINCE PARKING LLC,7183580001,3636 PRINCE ST,FLUSHING,NY,11354,Queens
"LA MIRAGE CAR PARK, INC.",2122216111,17810 WEXFORD TER,JAMAICA,NY,11432,Queens
SAMO PARKING LLC,2127143571,401 E 74TH ST,NEW YORK,NY,10021,Manhattan
304 WEST 49TH PARKING CORP.,2122475607,304 W 49TH ST,NEW YORK,NY,10019,Manhattan
"ONE PARKING GOTHAM, INC.",2123706530,4209 28TH ST,LONG IS CITY,NY,11101,Queens
PARK 108 LLC,2129299404,234 W 108TH ST,NEW YORK,NY,10025,Manhattan
249 PARKING CORP.,2126457548,249 10TH AVE,NEW YORK,NY,10001,Manhattan
SAWYER PARKING LLC,2122428310,150 W 20TH ST,NEW YORK,NY,10011,Manhattan
RESOURCE PARKING LLC,2126869800,1540 BROADWAY,NEW YORK,NY,10036,Manhattan
IMPERIAL PARKING US LLC,2125573311,90-15 PARSONS BOULEVARD,JAMAICA,NY,11432,
NYC PARKING GROUP I LLC,7182850102,340 E 74TH ST,NEW YORK,NY,10021,Manhattan
DEB PARKING LLC,2127143571,300 W 135TH ST,NEW YORK,NY,10030,Manhattan
VS PARKING GARAGE CORP.,7189094449,275 PARK AVE,BROOKLYN,NY,11205,Brooklyn
NEW YORK PARKING 51ST STREET CORP.,212-308-5959,251 E 51ST ST,NEW YORK,NY,10022,Manhattan
SP PLUS CORPORATION,2125025490,380 LENOX AVE,NEW YORK,NY,10027,Manhattan
SAM DAR ENTERPRISES INC,6463997098,3000 PARK AVE,BRONX,NY,10451,Bronx
"CENTRAL PARKING SYSTEM OF NEW YORK, INC",2125025490,115 E 57TH ST,NEW YORK,NY,10022,Manhattan
JENUWEN CAR PARK INC.,2122216111,580 FLATBUSH AVE,BROOKLYN,NY,11225,Brooklyn
"CENTRAL PARKING SYSTEM OF NEW YORK, INC",2125025490,100 MORTON ST,NEW YORK,NY,10014,Manhattan
LOREN'S PARKING GARAGE CORPORATON,212-244-2332,4035 PARK AVE,BRONX,NY,10457,Bronx
PLATT PARKING LLC,2126869800,90 JOHN ST,NEW YORK,NY,10038,Manhattan
ABILITY PARKING CORP.,2122493344,200 E END AVE,NEW YORK,NY,10128,Manhattan
GM&M PARK INC.,6466100315,116 NOSTRAND AVE,BROOKLYN,NY,11205,Brooklyn
"CENTRAL PARKING SYSTEM OF NEW YORK,INC.",7182239722,95 OCEANA DR E,BROOKLYN,NY,11235,Brooklyn
"PARIS, ZACARIAS P",7182933679,1300 GERARD AVE,BRONX,NY,10452,Bronx
F & A PARKING CORP,7183992640,785 DEKALB AVE,BROOKLYN,NY,11221,Brooklyn
"LEONARD STREET PARKING, LLC",9736437700,88 LEONARD ST,NEW YORK,NY,10013,Manhattan
"IMPERIAL PARKING (U.S.), LLC",2129378660,9605 QUEENS BLVD,REGO PARK,NY,11374,Queens
64TH WEST END PARKING LLC,2126869800,110 W END AVE,NEW YORK,NY,10023,Manhattan
PARKING SYSTEMS PLUS INC,8009441424,260 BAYCHESTER AVE,BRONX,NY,10475,Bronx
200 WEA PARKING CORP.,7187880066,200 W END AVE,NEW YORK,NY,10023,Manhattan
CLAREMONT PARKING CORP,2128661000,480 RIVERSIDE DR,NEW YORK,NY,10027,Manhattan
"CENTRAL PARKING SYSTEM OF NEW YORK,INC.",2125025490,525 E 72ND ST,NEW YORK,NY,10021,Manhattan
300 PARKING INC.,2127367171,300 W 55TH ST,NEW YORK,NY,10019,Manhattan
"LAZ PARKING NEW YORK, NEW JERSEY LLC",2122652239,1283 YORK AVE,NEW YORK,NY,10065,Manhattan
39TH AND EIGHTH PARKING LLC,212-686-9800,310 W 39TH ST,NEW YORK,NY,10018,Manhattan
QUIK PARK MARLO LLC,2128322066,56 FULTON ST,NEW YORK,NY,10038,Manhattan
VALET PARKING CORP.,2122493344,10 W 15TH ST,NEW YORK,NY,10011,Manhattan
PRIMARY PARKING LLC,2126869800,721 10TH AVE,NEW YORK,NY,10019,Manhattan
QUIK PARK LITTLE WEST LLC,,70 LITTLE WEST ST,NEW YORK,NY,10004,Manhattan
"CENTRAL PARKING SYSTEM OF NEW YORK,INC.",2125649199,47 CHURCH ST,NEW YORK,NY,10007,Manhattan
RKKS GROUP INC.,9172852934,13203 SANFORD AVE,FLUSHING,NY,11355,Queens
TRITO PARKING   PARKING CORP,2129355922,225 E 63RD ST,NEW YORK,NY,10065,Manhattan
"KINNEY PARKING SYSTEM, LLC",2125025490,159 W 48TH ST,NEW YORK,NY,10036,Manhattan
K One Parking Inc,,2160 WEBSTER AVE,BRONX,NY,10457,Bronx
ENTERPRISE 24 PARKING LLC,2126270012,160 W 24TH ST,NEW YORK,NY,10011,Manhattan
"CENTRAL PARKING SYSTEM OF NEW YORK,INC.",2125025490,1292 PARK AVE,NEW YORK,NY,10029,Manhattan
"KINNEY PARKING SYSTEM, INC.",2125025490,58 W 58TH ST,NEW YORK,NY,10019,Manhattan
"KINNEY PARKING SYSTEM, INC.",2125025490,12 W 13TH ST,NEW YORK,NY,10011,Manhattan
CARTER AVE PARKING CORP.,3475979366,1841 CARTER AVE,BRONX,NY,10457,Bronx
216-10 NY PARKING CORP,(212) 304-0315,4055 10TH AVE,NEW YORK,NY,10034,Manhattan
EFFECTIVE PARKING LLC,2126869800,435 W 57TH ST,NEW YORK,NY,10019,Manhattan
MANHATTAN PARKING SYSTEM-PARK AVE. CORP.,2127536116,277 PARK AVE,NEW YORK,NY,10172,Manhattan
"KINNEY PARKING SYSTEM, INC.",2125025490,224 MULBERRY ST,NEW YORK,NY,10012,Manhattan
920 PARKING CORP.,2128661000,920 PARK AVE,NEW YORK,NY,10028,Manhattan
F & R PARKING LOT CORP.,7183295670,65 NEW YORK AVE,BROOKLYN,NY,11216,Brooklyn
169 LUDLOW PARKING LLC,212-262-4771,180 ORCHARD ST,NEW YORK,NY,10002,Manhattan
"KINNEY PARKING SYSTEM, INC.",2125025490,50 W 93RD ST,NEW YORK,NY,10025,Manhattan
57 & 11 PARKING CORP.,2128887400,622 W 57TH ST,NEW YORK,NY,10019,Manhattan
QUIK PARK BLEECKER STREET GARAGE LLC,212-686-9800,350 BLEECKER ST,NEW YORK,NY,10014,Manhattan
316 BERGEN PARKING CORP,2127367171,312 BERGEN ST,BROOKLYN,NY,11217,Brooklyn
"IMPERIAL PARKING (U.S.), LLC",2129378660,8935 162ND ST,JAMAICA,NY,11432,Queens
QUIK PARK GARMENT LLC,2128322066,155 E 34TH ST,NEW YORK,NY,10016,Manhattan
ADVANCE PARKING LLC,2122218902,249 W 43RD ST,NEW YORK,NY,10036,Manhattan
P.J.'S PARKING SERVICE CORP.,7189492507,8835 164TH ST,JAMAICA,NY,11432,Queens
CHAPLAND PARKING LLC,2122889645,111 E 82ND ST,NEW YORK,NY,10028,Manhattan
"CENTRAL PARKING SYSTEM OF NEW YORK,INC.",2125025490,200 CHAMBERS ST,NEW YORK,NY,10007,Manhattan
1020 PARKING LLC,212-490-3460,1020 GRAND CONCOURSE,BRONX,NY,10451,Bronx
"OLYMPIC PARKING SYSTEMS, LLC",2126270667,587 AVENUE OF THE AMERICAS,NEW YORK,NY,10011,Manhattan
STANDARD PARKING CORPORATION,2122410795,1292 PARK AVE,NEW YORK,NY,10029,Manhattan
HERALD SQUARE PARKING LLC,2126869800,839 6TH AVE,NEW YORK,NY,10001,Manhattan
"PARKING SERVICES PLUS, INC.",5168254661,7710 41ST AVE,ELMHURST,NY,11373,Queens
QUIK PARK SOUTHERN LLC,2128322066,1 NEW YORK PLZ,NEW YORK,NY,10004,Manhattan
ENTERPRISE 62ND PARKING LLC,212-564-3199,301 E 62ND ST,NEW YORK,NY,10065,Manhattan
ONE PARKING 1411 LLC,2123706530,136 W 40TH ST,NEW YORK,NY,10018,Manhattan
GMH PARK INC,9172140583,1326 SPOFFORD AVE,BRONX,NY,10474,Bronx
"CORINTHIAN PARKING MANAGEMENT, LLC",2127957275,330 E 38TH ST,NEW YORK,NY,10016,Manhattan
247 NORTH 7TH STREET PARKING CORP,2127367171,248 N 8TH ST,BROOKLYN,NY,11211,Brooklyn
QSB 267 PROPERTY CO LLC,2127246833,267 W 87TH ST,NEW YORK,NY,10024,Manhattan
SP PLUS CORPORATION,2125025490,353 WEST ST,NEW YORK,NY,10014,Manhattan
"G & R PARKING SERVICES, INC.",7184309038,1550 BLONDELL AVE,BRONX,NY,10461,Bronx
"CONNAUGHT CAR PARK, LLC",2129966363,300 E 54TH ST,NEW YORK,NY,10022,Manhattan
1939 W FARMS RD PARKING CORP,7183008790,1939 W FARMS RD,BRONX,NY,10460,Bronx
10 WEST 66TH STREET CAR PARK LLC,2129966363,10 W 66TH ST,NEW YORK,NY,10023,Manhattan
ROX PARKING LLC,2123272626,931 1ST AVE,NEW YORK,NY,10022,Manhattan
45TH STREET PARKING CORP,2127367171,825 2ND AVE,NEW YORK,NY,10017,Manhattan
"3223 JOHNSON SERVICES, INC.",718-543-5219,3223 JOHNSON AVE,BRONX,NY,10463,Bronx
PRIME CAR PARK LLC,2122216111,941 HOE AVE,BRONX,NY,10459,Bronx
205 THIRD PARKING LLC,2126869800,205 3RD AVE,NEW YORK,NY,10003,Manhattan
"KINNEY PARKING SYSTEM, INC.",2125025490,211 W 87TH ST,NEW YORK,NY,10024,Manhattan
"STABLE CAR PARKING, INC.",212-979-9815,9201 4TH AVE,BROOKLYN,NY,11209,Brooklyn
REGAL PARKING CORP.,2127367171,9822 63RD DR,REGO PARK,NY,11374,Queens
SEWARD PARK GARAGE LLC,6465840409,413 GRAND ST,NEW YORK,NY,10002,Manhattan
GEMA PARKING CORP.,2124774043,333 E 14TH ST,NEW YORK,NY,10003,Manhattan
1010 PARKING CORP.,2127367171,530 E 72ND ST,NEW YORK,NY,10021,Manhattan
"IMPERIAL PARKING (U.S.), INC",2129378660,420 E 20TH ST,NEW YORK,NY,10009,Manhattan
2910 ATLANTIC PARKING CORP.,7183648350,188 W 230TH ST,BRONX,NY,10463,Bronx
ON 2'S PARKING & STORAGE INC.,6313341802,650 BERRIMAN ST,BROOKLYN,NY,11208,Brooklyn
IMPERIAL PARKING US LLC,2125573311,302 2ND ST,BROOKLYN,NY,11215,Brooklyn
CLINTON GRAND PARKING LLC,212-686-9800,240 E BROADWAY,NEW YORK,NY,10002,Manhattan
333 EAST 75TH STREET PARKING CORP.,2127367171,333 E 75TH ST,NEW YORK,NY,10021,Manhattan
"KINNEY PARKING SYSTEM, INC.",2125025490,23 W 55TH ST,NEW YORK,NY,10019,Manhattan
LTG PARKING CORP.,2129999999,205 W END AVE,NEW YORK,NY,10023,Manhattan
SP PLUS CORPORATION,2125025490,1500 UNIONPORT RD,BRONX,NY,10462,Bronx
"CENTRAL PARKING SYSTEM OF NEW YORK,INC.",2125025490,56 GREENWICH ST,NEW YORK,NY,10006,Manhattan
SEAPORT PARKING LLC,2126869800,80 BEEKMAN ST,NEW YORK,NY,10038,Manhattan
"EDISON NY PARKING, LLC",3477285044,270 DYCKMAN ST,NEW YORK,NY,10034,Manhattan
MURRAY PARK GARAGE CO. LLC,2122139600,120 E 34TH ST,NEW YORK,NY,10016,Manhattan
METROPOLITAN 51 PARKING LLC,2123088474,569-573 LEXINGTON AVE,NEW YORK,NY,10022,Manhattan
BOULEVARD LEASING LIMITED PARTNERSHIP,7188309084,9745 QUEENS BLVD,REGO PARK,NY,11374,Queens
247 NORTH 7TH STREET PARKING CORP.,929-337-8633,248 N 8TH ST,BROOKLYN,NY,11211,Brooklyn
WEST 43 PARKING LLC,2122624771,635 W 42ND ST,NEW YORK,NY,10036,Manhattan
"CLEAN AIR CAR SERVICE & PARKING BRANCH TWO, LLC",718-395-8288,3720 PRINCE ST,FLUSHING,NY,11354,Queens
"BRICIN PARKING, CORP.",2126500141,511 E 80TH ST,NEW YORK,NY,10075,Manhattan
"IMPERIAL PARKING (U.S.), INC",2129378660,527 E 14TH ST,NEW YORK,NY,10009,Manhattan
ENTERPRISE PARKING SYSTEMS 11 LLC,2125643199,145 E 16TH ST,NEW YORK,NY,10003,Manhattan
245 EAST 19 STREET PARKING LLC,2126869800,245 E 19TH ST,NEW YORK,NY,10003,Manhattan
"SHELTER PARKING BREVARD, LLC",5168813535,245 E 54TH ST,NEW YORK,NY,10022,Manhattan
82-11 LLC,9172160426,8213 37TH AVE,JACKSON HEIGHTS,NY,11372,Queens
69 ENTERPRISE PARKING LLC,2126270012,219 E 69TH ST,NEW YORK,NY,10021,Manhattan
"SMITH CAR PARK, LLC",2129966363,75 SMITH ST,BROOKLYN,NY,11201,Brooklyn
PURE ROYALTY ENTERPRISE LLC,7182942419,1843 CROTONA AVE,BRONX,NY,10457,Bronx
EAGLE PARKING GARAGE INC,3472207660,759 EAGLE AVE,BRONX,NY,10456,Bronx
"ALLIANCE 185TH PARKING, LLC",2125810535,4320 BROADWAY,NEW YORK,NY,10033,Manhattan
METRO PARKING CORP.,2122493344,301 E 63RD ST,NEW YORK,NY,10065,Manhattan
BREVOORT PARKING LLC,2126869800,20 E 9TH ST,NEW YORK,NY,10003,Manhattan
IMPARK 1199 PA LLC,212-937-8660,1199 PARK AVE,NEW YORK,NY,10128,Manhattan
24 LEONARD PARKING LLC,2126202621,24 LEONARD ST,NEW YORK,NY,10013,Manhattan
"SURF AVENUE LOGISTICS, LLC",9175840383,173 E 156TH ST,BRONX,NY,10451,Bronx
3480 THIRD AVENUE PARKING INC.,3472844141,3480 3RD AVE,BRONX,NY,10456,Bronx
"CENTRAL PARKING SYSTEM OF NEW YORK,INC.",2125025490,214 W 80TH ST,NEW YORK,NY,10024,Manhattan
PRINCESS CAR PARK INC.,2127367171,800 GRAND CONCOURSE,BRONX,NY,10451,Bronx
"CENTRAL PARKING SYSTEM OF NEW YORK,INC.",2125025490,340 E 80TH ST,NEW YORK,NY,10075,Manhattan
STANDARD PARKING CORPORATION,212163480,9230 165TH ST,JAMAICA,NY,11433,Queens
MANHATTAN PARKING E. 35 ST. CORP.,2127536116,246 E 35TH ST,NEW YORK,NY,10016,Manhattan
30-40-60 GARAGE LLC,6469644323,40 E 9TH ST,NEW YORK,NY,10003,Manhattan
"CMJ PARKING, CORP",3478987780,6336 99TH ST,REGO PARK,NY,11374,Queens
ISABEL PARKING LLC,6465840409,30 E 161ST ST,BRONX,NY,10451,Bronx
111 EIGHTH AVENUE PARKING LLC,2126869800,111 8TH AVE,NEW YORK,NY,10011,Manhattan
BASIC PARKING CORP.,2129802006,225 E 46TH ST,NEW YORK,NY,10017,Manhattan
BUZZ PARKING II LLC,2122268567,14 KENMARE ST,NEW YORK,NY,10012,Manhattan
CHAMPION PARKING 82 LLC,212-308-5959,60 E END AVE,NEW YORK,NY,10028,Manhattan
F. A. J. PARKING CORP.,2122817491,3795 10TH AVE,NEW YORK,NY,10034,Manhattan
NAGLE PARKING INC,9292478827,3050 CORLEAR AVE,BRONX,NY,10463,Bronx
9851 CORP.,7184596110,6536 99TH ST,REGO PARK,NY,11374,Queens
WEST 89TH STREET PARKING LLC,2123749867,205-209 W 89TH ST,NEW YORK,NY,10024,
"CENTRAL PARKING SYSTEM OF NEW YORK,INC.",7185025490,7710 41ST AVE,ELMHURST,NY,11373,Queens
QUIK PARK MIA GARAGE LLC,2123492299,38 BOWERY,NEW YORK,NY,10013,Manhattan
LTG PARKING CORP.,2126869800,205 W END AVE,NEW YORK,NY,10023,Manhattan
PREMIER PARKING LLC,2126869800,203 E 61ST ST,NEW YORK,NY,10065,Manhattan
"IMPERIAL PARKING (U.S.), INC",2129378660,750 AVENUE OF THE AMERICAS,NEW YORK,NY,10010,Manhattan
QUIK PARK PCVST GARAGE LLC,2126145862,420 E 20TH ST,NEW YORK,NY,10009,Manhattan
QUIK PARK PCVST GARAGE LLC,2126145862,251 AVENUE C,NEW YORK,NY,10009,Manhattan
222 WEST 14TH STREET PARKING CORP.,2122485900,222 W 14TH ST,NEW YORK,NY,10011,Manhattan
CHAMPION PARKING 9 LLC,2123035959,220 E 9TH ST,NEW YORK,NY,10003,Manhattan
THEATER 50 PARKING LLC,2126869800,305 W 50TH ST,NEW YORK,NY,10019,Manhattan
PLYMOUTH PARKING LLC,2128798388,1781 1ST AVE,NEW YORK,NY,10128,Manhattan
"CENTRAL PARKING SYSTEM OF NEW YORK,INC.",2126296602,910 9TH AVE,NEW YORK,NY,10019,Manhattan
"CENTRAL PARKING SYSTEM OF NEW YORK,INC.",2125025490,100 W 57TH ST,NEW YORK,NY,10019,Manhattan
MANHATTAN PARKING GRAMERCY CORP.,2124903460,32 GRAMERCY PARK S,NEW YORK,NY,10003,Manhattan
CENTURY PARKING LLC,2126869800,330 E 75TH ST,NEW YORK,NY,10021,Manhattan
IMPERIAL PARKING US LLC,2129378660,210 CENTRAL PARK S,NEW YORK,NY,10019,Manhattan
CHAMPION PARKING 245 LLC,2123085959,1441 2ND AVE,NEW YORK,NY,10021,Manhattan
"ALLAN GARAGE, LLC",2125025490,152 E 87TH ST,NEW YORK,NY,10128,Manhattan
ENTERPRISE WORLD PARKING LLC,212-564-3199,845 UNITED NATIONS PLZ,NEW YORK,NY,10017,Manhattan
"DAG PARKING MGMT, LLC",2127957275,240 E 47TH ST,NEW YORK,NY,10017,Manhattan
"CENTRAL PARKING SYSTEM OF NEW YORK,INC.",2126296602,180 W 20TH ST,NEW YORK,NY,10011,Manhattan
SP PLUS CORPORATION,2125025490,9844 57TH AVE,CORONA,NY,11368,Queens
STANDARD PARKING CORPORATION,9999999999,PIER 40 WEST ST,NEW YORK,NY,10014,
BRILLIANT PARKING CORP.,2125696249,284 DYCKMAN ST,NEW YORK,NY,10034,Manhattan
401 EAST 86TH STREET PARKING LLC,2128767669,401 E 86TH ST,NEW YORK,NY,10028,Manhattan
QUIK PARK HUDSON RIVER 5 LLC,2128322066,60 RIVERSIDE BLVD,NEW YORK,NY,10069,Manhattan
ATRIUM PARK LLC,212-686-9800,155 W 36TH ST,NEW YORK,NY,10018,Manhattan
RIVER PARKING SYSTEMS CORP.,7189939026,85 E 158TH ST,BRONX,NY,10451,Bronx
PARK FDB LLC,2122228487,2280 FREDERICK DOUGLASS BLVD,NEW YORK,NY,10027,Manhattan
OASIS AUTO REPAIR & GARAGE CORP.,212-544-2833,431 W 202ND ST,NEW YORK,NY,10034,Manhattan
CARNEGIE BROADWAY PARKING LLC,2126869800,211-221 W 56TH ST,NEW YORK,NY,10019,Manhattan
LM BONNEVILLE PARKING LLC,2127143571,329-333 E 22ND ST,NEW YORK,NY,10010,Manhattan
PACE PARKING LLC,2126869800,990 AVENUE OF THE AMERICAS,NEW YORK,NY,10018,Manhattan
"CENTRAL PARKING SYSTEM OF NEW YORK, INC",2125025490,350 E 30TH ST,NEW YORK,NY,10016,Manhattan
LINC GARAGE LLC,646-584-0409,20 N 5TH ST,BROOKLYN,NY,11249,Brooklyn
"KINNEY PARKING SYSTEM, INC.",2126296602,33 W 28TH ST,NEW YORK,NY,10001,Manhattan
WALL STREET GARAGE PARKING CORP.,2127373279,1420 YORK AVE,NEW YORK,NY,10021,Manhattan
"KINNEY PARKING SYSTEM, INC.",2125025490,73-79 W 92ND ST,NEW YORK,NY,10025,
53RD PARKING CORP.,2127367171,301 W 53RD ST,NEW YORK,NY,10019,Manhattan
"250 PARKING SERVICES, LLC",2122652239,250 E 39TH ST,NEW YORK,NY,10016,Manhattan
520 WEST PARKING CORP.,2127367171,520 W 43RD ST,NEW YORK,NY,10036,Manhattan
MANHATTAN PARKING E 35 ST CORP,2124903460,246 E 35TH ST,NEW YORK,NY,10016,Manhattan
"KINNEY PARKING SYSTEM, INC.",212-502-5490,699 W END AVE,NEW YORK,NY,10025,Manhattan
82ND PARKING GARAGE LLC,7187794774,3555 82ND ST,JACKSON HEIGHTS,NY,11372,Queens
QUIK PARK HUDSON LLC,212-686-9800,140 RIVERSIDE BLVD,NEW YORK,NY,10069,Manhattan
"KINNEY PARKING SYSTEM, INC.",2125025490,213 E 43RD ST,NEW YORK,NY,10017,Manhattan
GMS AUTO STATION INC,9176559590,2173 GRAND CONCOURSE,BRONX,NY,10453,Bronx
"CENTRAL PARKING SYSTEM OF NEW YORK,INC.",2126296602,1745 BROADWAY,NEW YORK,NY,10019,Manhattan
416 EAST 61ST STREET GARAGE LLC,6465840409,416 E 61ST ST,NEW YORK,NY,10065,Manhattan
"CENTRAL PARKING SYSTEM OF NEW YORK,INC.",2125025490,150 W 83RD ST,NEW YORK,NY,10024,Manhattan
365 MANAGEMENT CORP.,7188882367,4125 KISSENA BLVD,FLUSHING,NY,11355,Queens
PENN PARKING LLC,2126869800,1 PENN PLAZA,NEW YORK,NY,10001,
"DIAMOND 1 PARKING GARAGE, INC.",3478435023,284 DYCKMAN ST,NEW YORK,NY,10034,Manhattan
"IMPERIAL PARKING (U.S.), INC",2129378660,60 E 12TH ST,NEW YORK,NY,10003,Manhattan
PARK 'N GO USA LLC,3476975154,340 PENNSYLVANIA AVE,BROOKLYN,NY,11207,Brooklyn
"IMPARK WEST 56, LLC.",212-937-8660,33 W 56TH ST,NEW YORK,NY,10019,Manhattan
8936 PARKING LLC,917-592-4762,8936 SUTPHIN BLVD,JAMAICA,NY,11435,Queens
"ABC PARKING, CORP.",7188025611,2070 WHITE PLAINS RD,BRONX,NY,10462,Bronx
ONE PARKING 34TH STREET LLC,2123706530,509 W 34TH ST,NEW YORK,NY,10001,Manhattan
"CENTRAL PARKING SYSTEM OF NEW YORK,INC.",2125025490,284 AUDUBON AVE,NEW YORK,NY,10033,Manhattan
118 PARKING CORP.,2127367171,1682 PARK AVE,NEW YORK,NY,10035,Manhattan
ANN PARK LLC,2127143521,57 ANN ST,NEW YORK,NY,10038,Manhattan
PARK AMERICA CORP,2124866888,50 N 5TH ST,BROOKLYN,NY,11249,Brooklyn
QUIK PARK NORTHROSE GARAGE LLC,2128322066,505 E 161ST ST,BRONX,NY,10451,Bronx
"KINNEY PARKING SYSTEM, LLC",2125025490,109 W 56TH ST,NEW YORK,NY,10019,Manhattan
245 EAST 40TH ST. PARKING LLC,2126869800,747 2ND AVE,NEW YORK,NY,10017,Manhattan
GMH PARK INC,9172140583,4701 QUEENS BLVD,SUNNYSIDE,NY,11104,Queens
CAPITAL CAR PARK LLC,2122216111,1420 YORK AVE,NEW YORK,NY,10021,Manhattan
MANHATTAN PARKING W 45TH STREET CORP.,2127536116,120 W 45TH ST,NEW YORK,NY,10036,Manhattan
F & A PARKING CORP,7183992640,4123 CRESCENT ST,LONG ISLAND CITY,NY,11101,Queens
PAAL PARKING CORP.,7188929379,2010 WESTCHESTER AVE,BRONX,NY,10462,Bronx
70TH PARK OPS LLC,2129299404,400 E 70TH ST,NEW YORK,NY,10021,Manhattan
"FIESTA CAR PARK, LLC",2122216111,466 11TH AVE,NEW YORK,NY,10018,Manhattan
"CENTRAL PARKING SYSTEM OF NEW YORK, INC",2125025490,196-200 CADMAN PLAZA W,BROOKLYN,NY,11201,Brooklyn
LONG ISLAND JEWISH MEDICAL CENTER,718-470-7202,27117 76TH AVE,NEW HYDE PARK,NY,11040,Queens
POO PARKING CORP.,2124903460,1752 MORRIS AVE,BRONX,NY,10457,Bronx
MERIT PARKING LLC,2126869800,12 E 107TH ST,NEW YORK,NY,10029,Manhattan
CP PARKING CORP.,9175785635,3907 PRINCE ST,FLUSHING,NY,11354,Queens
LOVE PARKING LLC,2126869800,9 COLLEGE PL,BROOKLYN,NY,11201,Brooklyn
215 E 95TH PARKING LLC,2126869800,201 E 95TH ST,NEW YORK,NY,10128,Manhattan
QUIK PARK EAST 66 LLC,2128322066,250 E 67TH ST,NEW YORK,NY,10065,Manhattan
PARK RIGHT CORPORATION,2122624771,39 E 29TH ST,NEW YORK,NY,10016,Manhattan
53RD STERLING PARKING LLC,2126869800,304 E 53RD ST,NEW YORK,NY,10022,Manhattan
STANDARD PARKING CORPORATION,2126667246,455 CENTRAL PARK W,NEW YORK,NY,10025,Manhattan
BPG 149TH M LLC,7185856850,225 E 149TH ST,BRONX,NY,10451,Bronx
"SOVEREIGN CAR PARK, INC.",2129966363,425 E 58TH ST,NEW YORK,NY,10022,Manhattan
GREENLUX PARKING LLC,2126869800,300 N END AVE,NEW YORK,NY,10282,Manhattan
"CHELSEA MTP OPERATING, LLC",2125755335,511 W 18TH ST,NEW YORK,NY,10011,Manhattan
"IMPERIAL PARKING (U.S.), LLC",212-937-8660,6135 JUNCTION BOULEVARD,QUEENS,NY,11374,
"KINNEY PARKING SYSTEM, INC.",2125025490,416 W 36TH ST,NEW YORK,NY,10018,Manhattan
CENTURY CAR PARK LLC,2122216111,3310 AVENUE H,BROOKLYN,NY,11210,Brooklyn
"WOC 80 DEKALB GARAGE, LLC",516-565-5600,80 DEKALB AVE,BROOKLYN,NY,11201,Brooklyn
"CENTRAL PARKING SYSTEM OF NEW YORK,INC.",2125025490,371 7TH AVE,NEW YORK,NY,10001,Manhattan
231ST STREET PARKING LLC,718-708-5077,3050 CORLEAR AVE,BRONX,NY,10463,Bronx
"CENTRAL PARKING SYSTEM OF NEW YORK, INC",2125025490,27-49 W 52ND ST,NEW YORK,NY,10019,Manhattan
ELMHURST PARKING CORPORATION,9173251969,8015 41ST AVE,ELMHURST,NY,11373,Queens
"GARDEN GARAGE, LLC",212-686-9800,253 W 29TH ST,NEW YORK,NY,10001,Manhattan
LTG PARKING CORP.,212-686-9800,165 W END AVE,NEW YORK,NY,10023,Manhattan
IMPERIAL PARKING (US) LLC,2129378660,97 CHARLES ST,NEW YORK,NY,10014,Manhattan
HARL PARKING CORP.,2129299404,1481 5TH AVE,NEW YORK,NY,10035,Manhattan
375 HUD PARKING LLC,2126869800,375 HUDSON ST,NEW YORK,NY,10014,Manhattan
PARK 15 WEST LLC,2125643199,422 W 15TH ST,NEW YORK,NY,10011,Manhattan
PARK KWIK LLC,2129745840,20 JAY ST,BROOKLYN,NY,11201,Brooklyn
"COLUMBUS CIRCLE PARKING, LLC",2126869800,330 W 58TH ST,NEW YORK,NY,10019,Manhattan
EVER-READY PARKING INC.,2127367171,330 E 46TH ST,NEW YORK,NY,10017,Manhattan
RAPID PARK HOLDING CORP,212-866-1000,1305 YORK AVE,NEW YORK,NY,10021,Manhattan
FIVE STAR PARKING INC.,9737928420,450 E 29TH ST,NEW YORK,NY,10016,Manhattan
ACCESS PARKING CORP.,2126757985,159 W 21ST ST,NEW YORK,NY,10011,Manhattan
RELIABLE PARKING CORP.,2124903460,1193 FRANKLIN AVE,BRONX,NY,10456,Bronx
ONE EASY PARK INC,9174008562,1802 PETRACCA PL,WHITESTONE,NY,11357,Queens
EMPIRE PARKING CORP.,212-262-4771,853 LONGWOOD AVE,BRONX,NY,10459,Bronx
QUIK PARK 866 GARAGE LLC,212-832-2066,866 UN PLZ,NEW YORK,NY,10017,Manhattan
"ABM PARKING SERVICES, INC",2122131282,866 UNITED NATIONS PLZ,NEW YORK,NY,10017,Manhattan
ENMANUEL PARKING GARAGE CORP.,7183291320,2346 RYER AVE,BRONX,NY,10458,Bronx
BLEECKER PARKING CORP.,2127373279,380 LENOX AVE,NEW YORK,NY,10027,Manhattan
QUIK PARK LIC LLC,2128322066,4545 CENTER BLVD,LONG ISLAND CITY,NY,11109,Queens
2721 NEIGHBORHOOD PARKING LOT CORP.,347-427-7606,2721 BRONXWOOD AVE,BRONX,NY,10469,Bronx
210 CENTRAL PARK SOUTH PARKING CORP.,2127367171,210 CENTRAL PARK S,NEW YORK,NY,10019,Manhattan
DIAMOND PARKING CORP.,9736228888,67 LAIGHT ST,NEW YORK,NY,10013,Manhattan
QUIK PARK 311 WB LLC,2128322066,311 W BROADWAY,NEW YORK,NY,10013,Manhattan
BRIDGE PARKING LLC,2123085959,338 E 59TH ST,NEW YORK,NY,10022,Manhattan
"CENTRAL PARKING SYSTEM OF NEW YORK, INC.",2129676800,525 W 28TH ST,NEW YORK,NY,10001,Manhattan
SMITH & LIVINGSTON PARKING LLC,212-686-9800,141 LIVINGSTON ST,BROOKLYN,NY,11201,Brooklyn
PANTOJA USED CAR INC.,7186178548,1962 CROTONA PKWY,BRONX,NY,10460,Bronx
DANAE MARRERO,9175674884,424 E 147TH ST,BRONX,NY,10455,Bronx
PATRIOT PARKING LLC,2126869800,308 GREENWICH ST,NEW YORK,NY,10013,Manhattan
QUIK PARK CHARLES STREET LLC,2126869800,97 CHARLES ST,NEW YORK,NY,10014,Manhattan
QUIK PARK STANDARD LLC,2128322066,101 PARK AVE,NEW YORK,NY,10178,Manhattan
8930 parking llc,,8936 SUTPHIN BLVD,JAMAICA,NY,11435,Queens
ASTRO PARKING LLC,2126869800,155 W 70TH ST,NEW YORK,NY,10023,Manhattan
FOR THE COMMUNITY PARKING GARAGE INC.,3473645413,1900 JEROME AVE,BRONX,NY,10453,Bronx
100 PARK TERRACE WEST OWNERS CORP.,2123320777,100 PARK TER W,NEW YORK,NY,10034,Manhattan
"211 WEST 56TH ST CAR PARK, LLC",2129966363,211 W 56TH ST,NEW YORK,NY,10019,Manhattan
QUIK PARK SWIFT LLC,2128322066,140 E 56TH ST,NEW YORK,NY,10022,Manhattan
259-267 PARKING CORP.,7188585055,259 PACIFIC ST,BROOKLYN,NY,11201,Brooklyn
"CENTRAL PARKING SYSTEM OF NEW YORK, INC",2125025490,800 UNION ST,BROOKLYN,NY,11215,Brooklyn
PV PARKING III CORP,7186091200,124 E 124TH ST,NEW YORK,NY,10035,Manhattan
QUIK PARK REAL LLC,2128322066,35 PARK AVE,NEW YORK,NY,10016,Manhattan
EFFICIENT PARKING LLC,212-686-9800,170 W 23RD ST,NEW YORK,NY,10011,Manhattan
"KINNEY PARKING SYSTEM, LLC",2125025490,10736 QUEENS BLVD,FOREST HILLS,NY,11375,Queens
420 EAST 53RD PARKING LLC,2127595290,420 E 53RD ST,NEW YORK,NY,10022,Manhattan
STANDARD PARKING CORPORATION,7185384611,951 RIVER AVE,BRONX,NY,10452,Bronx
"GM PARKING GROUP, INC.",7189332044,2990 JEROME AVE,BRONX,NY,10468,Bronx
TOWNHOUSE PARKING LLC,2122881798,177 E 73RD ST,NEW YORK,NY,10021,Manhattan
DISTINCTIVE PARKING LLC,212-686-9800,35 E 61ST ST,NEW YORK,NY,10065,Manhattan
"EDISON NY PARKING, LLC",2129979096,1120 AVENUE OF THE AMERICAS,NEW YORK,NY,10036,Manhattan
"ST. ANN'S PARKING GARAGE, LLC",7184010141,601 E 156TH ST,BRONX,NY,10455,Bronx
E&Y PARKING CORP.,7186844084,615 JACKSON AVE,BRONX,NY,10455,Bronx
SKY PARKING CORP.,2126083060,121 READE ST,NEW YORK,NY,10013,Manhattan
C & C PARKING LOT CORP,,3560 WEBSTER AVE,BRONX,NY,10467,Bronx
MP BETH PARKING LLC,2124903476,225 RECTOR PL,NEW YORK,NY,10280,Manhattan
"CENTRAL PARKING SYSTEM OF NEW YORK,INC.",2126296602,101 WORTH ST,NEW YORK,NY,10013,Manhattan
QUIK PARK WEST 56 ST. LLC,212-832-2066,328 W 56TH ST,NEW YORK,NY,10019,Manhattan
"CENTRAL PARKING SYSTEM OF NEW YORK,INC.",2124527815,1621-23 YORK AVE,NEW YORK,NY,10028,
WILLBE PARKING LLC,2122604305,318 E 15TH ST,NEW YORK,NY,10003,Manhattan
OXFORD PARKING CORP.,212-308-5959,333 E 49TH ST,NEW YORK,NY,10017,Manhattan
"MIDWAY CAR PARK, LLC",2129966363,10802 QUEENS BLVD,FOREST HILLS,NY,11375,Queens
"FIRST AVENUE PARKING, LLC",2127367171,630 1ST AVE,NEW YORK,NY,10016,Manhattan
HOPE PARKING INC.,2124903460,400 E 84TH ST,NEW YORK,NY,10028,Manhattan
58W58 PARKING LLC,2126869800,58 W 58TH ST,NEW YORK,NY,10019,Manhattan
SP PLUS CORPORATION,2125025490,200 PARK AVE,NEW YORK,NY,10166,Manhattan
"GRAND ARMY CAR PARK, LLC",7183982518,1 EASTERN PKWY,BROOKLYN,NY,11238,Brooklyn
MP BETH PARKING LLC,2124903476,400 E 84TH ST,NEW YORK,NY,10028,Manhattan
724 MANAGEMENT CORP.,7188882367,4125 KISSENA BLVD,FLUSHING,NY,11355,Queens
1056 5TH AVE. PARKING LLC,2126869800,1056 5TH AVE,NEW YORK,NY,10028,Manhattan
35 PARK AVENUE GARAGE LLC,6465840409,35 PARK AVE,NEW YORK,NY,10016,Manhattan
DELTA PARK INC,929-340-4785,240 E 82ND ST,NEW YORK,NY,10028,Manhattan
SHARP 22 PARKING LLC,2126869800,329 E 22ND ST,NEW YORK,NY,10010,Manhattan
CHAMPION PARK 85 LLC,2123085959,234 E 85TH ST,NEW YORK,NY,10028,Manhattan
ALLIANCE ETON PARKING LLC,2125810535,345 E 81ST ST,NEW YORK,NY,10028,Manhattan
SP PLUS CORPORATION,2125025490,200 CENTRAL PARK W,NEW YORK,NY,10024,Manhattan
JORDAN I PARKING LLC,2127511080,7031 108TH ST,FOREST HILLS,NY,11375,Queens
PROUD PARKING LLC,2126869800,5 E 22ND ST,NEW YORK,NY,10010,Manhattan
DIVINE PARKING GARAGE CORP,2125442833,3775 10TH AVE,NEW YORK,NY,10034,Manhattan
METROPOLITAN PARKING GROUP LLC,2126275805,69 5TH AVE,NEW YORK,NY,10003,Manhattan
"BRONX PARKING CO., LLC",7187331820,2355 WEBSTER AVE,BRONX,NY,10458,Bronx
702 CONCOURSE CORP.,7187880066,780 CONCOURSE VLG W,BRONX,NY,10451,Bronx
"CENTRAL PARKING SYSTEM OF NEW YORK,INC.",2126296602,115 E 57TH ST,NEW YORK,NY,10022,Manhattan
18TH AND THIRD PARKING LLC,2126869800,201 E 17TH ST,NEW YORK,NY,10003,Manhattan
"CENTRAL PARKING SYSTEM OF NEW YORK,INC.",2126296602,200 E 80TH ST,NEW YORK,NY,10075,Manhattan
"337 GARAGE, L.L.C.",2128887400,337 E 64TH ST,NEW YORK,NY,10065,Manhattan
165 STREET PARKING INC,646 599-4839,8835 165TH ST,JAMAICA,NY,11432,Queens
RAMCELL PARKING CORPORATION,646-764-0185,1484 JEROME AVE,BRONX,NY,10452,Bronx
BRONX CAR PARK SYSTEMS INC.,212-221-6111,2425 SEDGWICK AVE,BRONX,NY,10468,Bronx
MANSION 88 PARKING LLC,2126869800,170 E END AVE,NEW YORK,NY,10128,Manhattan
"COVE CLUB CAR PARK, LLC",2129966363,2 S END AVE,NEW YORK,NY,10280,Manhattan
"IN LOT PARKING, INC.",3477713329,1963 GRAND CONCOURSE,BRONX,NY,10453,Bronx
STANDARD PARKING CORPORATION,2129163480,3611 HENRY HUDSON PKWY,BRONX,NY,10463,Bronx
T.P.E.C LLC,7187070335,4110 CRESCENT ST,ASTORIA,NY,11101,Queens
M AND B PARKING LLC,2123482174,315 E 102ND ST,NEW YORK,NY,10029,Manhattan
"KINNEY PARKING SYSTEM, LLC",2125025490,252 W 40TH ST,NEW YORK,NY,10018,Manhattan
ADONIS PARKING LLC,2124903460,201 E 56TH ST,NEW YORK,NY,10022,Manhattan
AUDUBON PARKING OPS LLC,212-568-6400,284 AUDUBON AVE,NEW YORK,NY,10033,Manhattan
MP 425 EAST LLC,2124903460,425 E 79TH ST,NEW YORK,NY,10075,Manhattan
CLINTON GRAND PARKING LLC,212-686-9800,413 GRAND ST,NEW YORK,NY,10002,Manhattan
SHERMAN PARKING INC.,2125447275,210 SHERMAN AVE,NEW YORK,NY,10034,Manhattan
"ONE PARKING STRATHMORE, LLC",480-272-2100,400 E 84TH ST,NEW YORK,NY,10028,Manhattan
TRIBECA PARKING CORP.,2122749225,454 GREENWICH ST,NEW YORK,NY,10013,Manhattan
OMNI PARKING LLC,2126869800,143 W 68TH ST,NEW YORK,NY,10023,Manhattan
A&M PARKING LOT INC.,7189935575,600 EAST  156 STREET,BRONX,NY,10455,
"KINNEY PARKING SYSTEM, LLC",2125025490,213 E 43RD ST,NEW YORK,NY,10017,Manhattan
SUPER ELITE PARKING INC,9174705093,331 E 132ND ST,BRONX,NY,10454,Bronx
"KINNEY PARKING SYSTEM, INC.",2126296602,38 W 46TH ST,NEW YORK,NY,10036,Manhattan
PORT PARKING LLC,2126869800,235 W 48TH ST,NEW YORK,NY,10036,Manhattan
181 PARK CORP.,2129299404,506 W 181ST ST,NEW YORK,NY,10033,Manhattan
38TH & THIRD PARKING LLC,2126869800,205 E 38TH ST,NEW YORK,NY,10016,Manhattan
A & P PARKING CORP.,9174996255,525 CLINTON AVE,BROOKLYN,NY,11238,Brooklyn
REX PARKING CORP.,5166984240,10 E 153RD ST,BRONX,NY,10451,Bronx
WORTHY PARKING LLC,2124903460,841 10TH AVE,NEW YORK,NY,10019,Manhattan
WEST 46 ST GARAGE LLC,2128322066,305 W 46TH ST,NEW YORK,NY,10036,Manhattan
ULTIMATE 54 PARKING LLC,2126869800,390 PARK AVE,NEW YORK,NY,10022,Manhattan
STANDARD PARKING CORPORATION,2125990184,200 PARK AVE,NEW YORK,NY,10166,Manhattan
"CENTRAL PARKING SYSTEM OF NEW YORK,INC.",2125025490,250 BRADHURST AVE,NEW YORK,NY,10039,Manhattan
"ALMAR GARAGE, INC.",2127444750,700 PARK AVE,NEW YORK,NY,10021,Manhattan
30-40-60 GARAGE LLC,6469644323,60 E 9TH ST,NEW YORK,NY,10003,Manhattan
ICE HOUSE PARKING CORP.,2129299404,27 N MOORE ST,NEW YORK,NY,10013,Manhattan
PEAK TIME PARKING INC.,2129424295,1730 JEROME AVE,BRONX,NY,10453,Bronx
WEST 161ST PARKING CORP,6469283465,519 W 161ST ST,NEW YORK,NY,10032,Manhattan
"IMPERIAL PARKING (U.S.), INC",2129378660,528 E 20TH ST,NEW YORK,NY,10009,Manhattan
"CENTRAL PARKING SYSTEM OF NEW YORK,INC.",2125025490,9 W 31ST ST,NEW YORK,NY,10001,Manhattan
"PRUDENTI, THERESA",7183877000,552 50 AVENUE,LONG ISLND CITY,NY,11101,
"CENTRAL PARKING SYSTEM OF NEW YORK, INC",2125025490,201-205 E 79TH ST,NEW YORK,NY,10075,Manhattan
FLATBRIDGE PARKING CORP.,2122216111,36 FLATBUSH AVENUE EXT,BROOKLYN,NY,11201,Brooklyn
WESTSIDE 42 PARKING LLC,212-686-9800,350 W 42ND ST,NEW YORK,NY,10036,Manhattan
QUIK PARK WEST 22ND ST. MANAGEMENT LLC,2128322066,133 W 22ND ST,NEW YORK,NY,10011,Manhattan
D'ALMONTE ENTERPRISES PARKING GARAGE INC.,3478620100,2080 JEROME AVE,BRONX,NY,10453,Bronx
CORINTHIAN PARKING MANAGEMENT LLC,2127957275,330 E 38TH ST,NEW YORK,NY,10016,Manhattan
"KINNEY PARKING SYSTEM, INC.",2125025490,870 8TH AVE,NEW YORK,NY,10019,Manhattan
MERCER PARKING GARAGE CORP.,2122265578,165 MERCER ST,NEW YORK,NY,10012,Manhattan
QUIK PARK 61ST STREET LLC,212-832-2066,510 E 62ND ST,NEW YORK,NY,10065,Manhattan
QUIK PARK 61ST STREET LLC,212-832-2066,425 E 61ST ST,NEW YORK,NY,10065,Manhattan
QUIK PARK REGENT LLC,2128322066,38 BOWERY,NEW YORK,NY,10013,Manhattan
157-57TH  INC,9178435910,157 E 57TH ST,NEW YORK,NY,10022,Manhattan
"125 VERTICAL PARKING GROUP, LLC",2129562280,123 BAXTER ST,NEW YORK,NY,10013,Manhattan
CLASSIC PARKING LLC,2126869800,866 UNITED NATIONS PLZ,NEW YORK,NY,10017,Manhattan
"EASTGATE PARKING LEASEHOLD, LLC",2127957275,224 E 39TH ST,NEW YORK,NY,10016,Manhattan
"CENTRAL PARKING SYSTEM OF NEW YORK,INC.",7182221032,350 JAY ST,BROOKLYN,NY,11201,Brooklyn
ADD PARK INC,9174705093,3000 PARK AVE,BRONX,NY,10451,Bronx
475 PARKING LLC,2126869800,475 PARK AVE S,NEW YORK,NY,10016,Manhattan
MR PARKING CORP,9172730268,1872 E TREMONT AVE,BRONX,NY,10460,Bronx
"IMPERIAL PARKING (U.S.), LLC",212-934-8660,33 W 56TH ST,NEW YORK,NY,10019,Manhattan
"CENTRAL PARKING SYSTEM OF NEW YORK,INC.",2125025490,1000 5TH AVE,NEW YORK,NY,10028,Manhattan
QUEENS LIC PARKING LLC,212-686-9800,3002 39TH AVE,LONG ISLAND CITY,NY,11101,Queens
"CENTRAL PARKING SYSTEM OF NEW YORK,INC.",2125025490,7 HANOVER SQ,NEW YORK,NY,10004,Manhattan
LTG PARKING CORP.,212-686-9800,150 W END AVE,NEW YORK,NY,10023,Manhattan
165 WEST 66TH STREET PARKING LLC,212-686-9800,165 W 66TH ST,NEW YORK,NY,10023,Manhattan
CLICK PARKING CORP.,212-308-5959,225 CENTRAL PARK W,NEW YORK,NY,10024,Manhattan
"IMPERIAL PARKING (U.S.), LLC",2129378660,31 NAGLE AVE,NEW YORK,NY,10040,Manhattan
QUIK PARK BLOOM LLC,212-686-9800,169 E 60TH ST,NEW YORK,NY,10022,Manhattan
"CENTRAL PARKING SYSTEM OF NEW YORK,INC.",2126048538,553 AVENUE OF THE AMERICAS,NEW YORK,NY,10011,Manhattan
1330 SIXTH PARKING LLC,2126869800,57 W 53RD ST,NEW YORK,NY,10019,Manhattan
EXCELLENT PARKING LLC,2126869800,153 E 29TH ST,NEW YORK,NY,10016,Manhattan
"CENTRAL PARKING SYSTEM OF NEW YORK, INC",2125025490,135 W 50TH ST,NEW YORK,NY,10019,Manhattan
136 W. 40TH PARKING LLC,2126869800,1411 BROADWAY,NEW YORK,NY,10018,Manhattan
QUIK PARK HUDSON LLC,2128322066,160 RIVERSIDE BLVD,NEW YORK,NY,10069,Manhattan
JENUWEN CAR PARK INC.,2122216111,590 FLATBUSH AVE,BROOKLYN,NY,11225,Brooklyn
"CONEY CAR PARK, LLC",2122216111,346 CONEY ISLAND AVE,BROOKLYN,NY,11218,Brooklyn
2010 PARKING INC.,7188929379,2010 WESTCHESTER AVE,BRONX,NY,10462,Bronx
PARK RIGHT CORPORATION,2122624771,125 PERRY ST,NEW YORK,NY,10014,Manhattan
"MUTUAL PARKING, INC.",2128887400,61 E END AVE,NEW YORK,NY,10028,Manhattan
"IMPERIAL PARKING (U.S.), LLC",2129378660,9230 165TH ST,JAMAICA,NY,11433,Queens
NEPTUNE PARKING LLC,2126869800,626 SHEEPSHEAD BAY RD,BROOKLYN,NY,11224,Brooklyn
LEXINGTON 58 PARKING LLC,2126869800,150 E 58TH ST,NEW YORK,NY,10155,Manhattan
MALLI PARKING INC.,7189935575,600 E 156TH ST,BRONX,NY,10455,Bronx
TUNNEL 34 PARKING LLC,2126869800,222 E 34TH ST,NEW YORK,NY,10016,Manhattan
"SPECIALTY PARKING, LLC",321-228-6908,13530 140TH ST,JAMAICA,NY,11436,Queens
KAPPA PARKING INC,6468385122,144 E 17TH ST,NEW YORK,NY,10003,Manhattan
"CENTRAL PARKING SYSTEM OF NEW YORK,INC.",2125025490,375 PARK AVE,NEW YORK,NY,10152,Manhattan
WELCOME PARKING LIMITED LIABILITY COMPANY,2016807129,511 W 18TH ST,NEW YORK,NY,10011,Manhattan
B. E. W. PARKING CORP.,2128661000,254 W 79TH ST,NEW YORK,NY,10024,Manhattan
REGAL PARKING LLC,2126869800,250 MADISON AVE,NEW YORK,NY,10016,Manhattan
"WATERVIEW PARKING, INC.",2126509320,180 E END AVE,NEW YORK,NY,10128,Manhattan
INSTANT PARKING LLC,2126869800,434 E 80TH ST,NEW YORK,NY,10075,Manhattan
EZ EXPRESS PARKING CORP.,9177437661,1560 JEROME AVE,BRONX,NY,10452,Bronx
QUIK PARK 1633 GARAGE LLC,2128322066,1633 BROADWAY,NEW YORK,NY,10019,Manhattan
HAPPY MEN PARKING INC.,7185796823,1556 JEROME AVE,BRONX,NY,10452,Bronx
MANHATTAN PARKING WEST 45 STREET CORP,212-490-3460,120 W 45TH ST,NEW YORK,NY,10036,Manhattan
F & A PARKING CORP,718-399-2640,333 GREENE AVE,BROOKLYN,NY,11238,Brooklyn
ALERT PARKING LLC,2122495290,30 E 85TH ST,NEW YORK,NY,10028,Manhattan
PEAK TIME PARKING INC.,9174705093,4469 BROADWAY,NEW YORK,NY,10040,Manhattan
UPTOWN PARKING CORP.,2124903460,6 W 137TH ST,NEW YORK,NY,10037,Manhattan
ENTERPRISE 37 EAST PARKING LLC,212-679-8414,415 E 37TH ST,NEW YORK,NY,10016,Manhattan
BELUGA PARKING CORP,2125416050,1820 E TREMONT AVE,BRONX,NY,10460,Bronx
"IMPERIAL PARKING (U.S.), LLC",212-934-8660,187 PACIFIC STREET,BROOKLYN,NY,11201,
170 PARK ROW PARKING CORP,2127367171,170 PARK ROW,NEW YORK,NY,10038,Manhattan
SEWARD PARK GARAGE LLC,6465840409,240 E BROADWAY,NEW YORK,NY,10002,Manhattan
R A D VALET PARKING INC,6462518052,5423 8TH AVE,BROOKLYN,NY,11220,Brooklyn
STANDARD PARKING CORPORATION,2127864245,250 VESEY ST,NEW YORK,NY,10282,Manhattan
BRYK CORP.,7184596110,6536 99TH ST,REGO PARK,NY,11374,Queens
"50 EAST 79TH STREET CAR PARK, LLC",2128790670,50 E 79TH ST,NEW YORK,NY,10075,Manhattan
KCF PARKING CORP.,718-933-3200,2481 CROTONA AVE,BRONX,NY,10458,Bronx
MP 97 LLC,212-490-3460,217 E 96TH ST,NEW YORK,NY,10128,Manhattan
CONSOLIDATED PARKING LLC,2126869800,146 3RD AVE,NEW YORK,NY,10003,Manhattan
"CENTRAL PARKING SYSTEM OF NEW YORK,INC.",2126296602,10 COLUMBUS CIR,NEW YORK,NY,10019,Manhattan
JO-DASH PARKING CORP.,2126869800,488 3RD AVE,NEW YORK,NY,10016,Manhattan
HOYT & SCHERMERHORN PARKING LLC.,2126869800,45 HOYT ST,BROOKLYN,NY,11201,Brooklyn
HEIGHTS 183 PARKING LLC,2126869800,2479 AMSTERDAM AVE,NEW YORK,NY,10033,Manhattan
"ONE PARKING GOTHAM, INC.",2123706530,4201 28TH ST,LONG ISLAND CIT,NY,11101,Queens
"IMPERIAL PARKING (U.S.), LLC",212-937-8660,9525 QUEENS BLVD,REGO PARK,NY,11374,Queens
"CENTRAL PARKING SYSTEM OF NEW YORK,INC.",2126296602,441 9TH AVE,NEW YORK,NY,10001,Manhattan
NINTH AVENUE PARKING LLC,2125643199,404 W 37TH ST,NEW YORK,NY,10018,Manhattan
"DMP PARKING GARAGE, INC.",9176455203,1231 WEBSTER AVE,BRONX,NY,10456,Bronx
LUCKY CAR PARK LLC,2122216111,380 MALCOLM X BLVD,NEW YORK,NY,10027,Manhattan
SCARLET 53 PARKING LLC,2126869800,211 E 53RD ST,NEW YORK,NY,10022,Manhattan
"PRECISE PARK ASSOCIATES, LLC",2124903460,702 GRAND CONCOURSE,BRONX,NY,10451,Bronx
"J & B PARKING GARAGE, INC.",2125433328,2123 AMSTERDAM AVE,NEW YORK,NY,10032,Manhattan
CREST CAR PARK LLC,718-499-1235,306 2ND ST,BROOKLYN,NY,11215,Brooklyn
EAST 71ST STREET GARAGE CORP.,2128799451,135 E 71ST ST,NEW YORK,NY,10021,Manhattan
"BROOK PARKING GARAGE, INC.",7185888328,420 E 167TH ST,BRONX,NY,10456,Bronx
880 FIFTH PARKING LLC,,880 5TH AVE,NEW YORK,NY,10021,Manhattan
EXPRESS PARK LLC,2122216111,425 E 79TH ST,NEW YORK,NY,10075,Manhattan
MAY PARKING CORP.,2127373279,330 E 70TH ST,NEW YORK,NY,10021,Manhattan
CHAMPION PARKING 36 LLC,2123085959,30 PARK AVE,NEW YORK,NY,10016,Manhattan
ACE'S PARKING GARAGE INC.,3472207660,950 WESTCHESTER AVE,BRONX,NY,10459,Bronx
INTEGRITY PARKING LLC,2126869800,315 E 72ND ST,NEW YORK,NY,10021,Manhattan
"CENTRAL PARKING SYSTEM OF NEW YORK,INC.",2125022490,200 E 65TH ST,NEW YORK,NY,10065,Manhattan
357 EAST 57TH STREET PARKING CORP,212-736-7171,357 E 57TH ST,NEW YORK,NY,10022,Manhattan
PARKING SYSTEMS PLUS INC,8009441424,280 BAYCHESTER AVE,BRONX,NY,10475,Bronx
"ALFRED CAR PARK, LLC",2129966363,161 W 61ST ST,NEW YORK,NY,10023,Manhattan
"KINNEY PARKING SYSTEM, INC.",2125025490,6575 SAUNDERS ST,REGO PARK,NY,11374,Queens
CHAMPION 126 LLC,2123085959,162 E 126TH ST,NEW YORK,NY,10035,Manhattan
"CENTRAL PARKING SYSTEM OF NEW YORK, INC",2125025490,154-156 E 53RD ST,NEW YORK,NY,10022,Manhattan
BK PARKING GROUP INC,9173277488,1414 CROMWELL AVE,BRONX,NY,10452,Bronx
"CENTRAL PARKING SYSTEM OF NEW YORK,INC.",2125025490,199 WATER ST,NEW YORK,NY,10038,Manhattan
MANHATTAN PARKING EAST 34TH STREET CORP.,2126862508,333 E 34TH ST,NEW YORK,NY,10016,Manhattan
304060 PARKING LLC,2126869800,40 E 9TH ST,NEW YORK,NY,10003,Manhattan
"PARK 139TH, LLC",2122340855,34 W 139TH ST,NEW YORK,NY,10037,Manhattan
CAPITAL PARKING LLC,2126869800,166 E 63RD ST,NEW YORK,NY,10065,Manhattan
LM SUTPHIN PARKING LLC,2127143571,8822 SUTPHIN BLVD,JAMAICA,NY,11435,Queens
"KINNEY PARKING SYSTEM, INC.",7125025490,10736 QUEENS BLVD,FOREST HILLS,NY,11375,Queens
"PLAZA CAR PARK, LLC",212-221-6111,2 PLAZA ST,BROOKLYN,NY,11238,Brooklyn
QUIK PARK EAST 72 LLC,2128322066,530 E 73RD ST,NEW YORK,NY,10021,Manhattan
"KINNEY PARKING SYSTEM, LLC",2125025490,301 E 66TH ST,NEW YORK,NY,10065,Manhattan
QP GRAND ARMY PLAZA LLC,2126869800,1 EASTERN PKWY,BROOKLYN,NY,11238,Brooklyn
"IMPERIAL PARKING (U.S.), INC",2129378660,187 PACIFIC ST,BROOKLYN,NY,11201,Brooklyn
247 NORTH 7TH STREET PARKING CORP,2127367171,249 N 7TH ST,BROOKLYN,NY,11211,Brooklyn
"CENTRAL PARKING SYSTEM OF NEW YORK,INC.",7185384611,20 E 161ST ST,BRONX,NY,10451,Bronx
MKN PARKING CORP,6466516335,1355 CROMWELL AVE,BRONX,NY,10452,Bronx
RAMP PARKING CORP.,2128661000,44 ELIZABETH ST,NEW YORK,NY,10013,Manhattan
1908 PARK AVENUE STORAGE LLC,212-427-4004,1908 PARK AVE,NEW YORK,NY,10035,Manhattan
"CENTRAL PARKING SYSTEM OF NEW YORK,INC.",2125025490,688 MAIN ST,NEW YORK,NY,10044,Manhattan
ARMORY PARKING INC.,7184729595,171 CLERMONT AVE,BROOKLYN,NY,11205,Brooklyn
RAINBOW PARKING CORP.,212-308-5959,300 E 71ST ST,NEW YORK,NY,10021,Manhattan
23RD STREET PARKING LLC,2126869800,318 E 23RD ST,NEW YORK,NY,10010,Manhattan
"ABM PARKING SERVICES, INC",2122131282,450 E 29TH ST,NEW YORK,NY,10016,Manhattan
J & A PARKING INC,7186180992,376 E 184TH ST,BRONX,NY,10458,Bronx
ARTHUR MANAGEMENT CORPORATION,7189603867,4400 3RD AVE,BRONX,NY,10457,Bronx
CHAMPION PARKING 33 LLC,2123085959,4 PARK AVE,NEW YORK,NY,10016,Manhattan
34 BERRY STREET LLC,7183870344,34 BERRY ST,BROOKLYN,NY,11211,Brooklyn
"CENTRAL PARKING SYSTEM OF NEW YORK,INC.",2125025490,103 WARREN ST,NEW YORK,NY,10007,Manhattan
IMPERIAL PARKING LLC,2129378660,306 2ND ST,BROOKLYN,NY,11215,Brooklyn
QUEEN PARKING LLC,7188862422,3907 PRINCE ST,FLUSHING,NY,11354,Queens
PARK NORTH 9 LLC,2123606300,56 N 9TH ST,BROOKLYN,NY,11249,Brooklyn
304060 PARKING LLC,2126869800,30 E 9TH ST,NEW YORK,NY,10003,Manhattan
207TH STREET PARKING LLC,2126869800,408 W 207TH ST,NEW YORK,NY,10034,Manhattan
ZAFIRO PARKING INC.,2127490125,1600 SEDGWICK AVE,BRONX,NY,10453,Bronx
"EDISON NY PARKING, LLC",973-643-7700,161 10TH AVE,NEW YORK,NY,10011,Manhattan
INDEPENDENT PARKING LLC,2126869800,422 E 72ND ST,NEW YORK,NY,10021,Manhattan
"CLEAN AIR CAR SERVICE & PARKING BRANCH 3, LLC",,3720 PRINCE ST,FLUSHING,NY,11354,Queens
"GARDEN GARAGE, LLC",212-686-9800,384 8TH AVE,NEW YORK,NY,10001,Manhattan
QUALITY CAR PARK LLC,2122216111,85 ADAMS ST,BROOKLYN,NY,11201,Brooklyn
JRD PARKING CORP,7186187215,1000 WESTCHESTER AVE,BRONX,NY,10459,Bronx
RIVER 73 PARKING LLC,2126869800,524 E 73RD ST,NEW YORK,NY,10021,Manhattan
IRVING 18TH PARKING LLC,2126869800,196 3RD AVE,NEW YORK,NY,10003,Manhattan
SOY PARKING LLC,2124521324,524 E 73RD ST,NEW YORK,NY,10021,Manhattan
UPTOWN PARKING CORP.,2124903460,1721-1735 AMSTERDAM AVE,NEW YORK,NY,0,
80TH ST. PARKING CORP.,2124903460,525 E 80TH ST,NEW YORK,NY,10075,Manhattan
EASTSIDE 65 PARKING LLC,212-686-9800,200 E 66TH ST,NEW YORK,NY,10065,Manhattan
"CENTRAL PARKING SYSTEM OF NEW YORK,INC.",2125024390,541 W 38TH ST,NEW YORK,NY,10018,Manhattan
"CENTRAL PARKING SYSTEM OF NEW YORK,INC.",7186240316,300 CADMAN PLZ W,BROOKLYN,NY,11201,Brooklyn
PARK MULBERRY CORP,6463558826,62 MULBERRY ST,NEW YORK,NY,10013,Manhattan
A & Z BUSINESS CORP.,9148743268,700 GRAND CONCOURSE,BRONX,NY,10451,Bronx
MINT PARKING CORPORATION,2124903460,270 DYCKMAN ST,NEW YORK,NY,10034,Manhattan
SP PLUS CORPORATION,2125025490,1292 PARK AVE,NEW YORK,NY,10029,Manhattan
"CENTRAL PARKING SYSTEM OF NEW YORK,INC.",2125025490,200 RECTOR PL,NEW YORK,NY,10280,Manhattan
SUPPORT PARKING LLC,2126869800,350 E 52ND ST,NEW YORK,NY,10022,Manhattan
"CENTRAL PARKING SYSTEM OF NEW YORK,INC.",2125025490,214 W 80TH ST,NEW YORK,NY,10024,Manhattan
CFS 2907 JFK LLC,7183222221,14916 131ST ST,JAMAICA,NY,11430,Queens
PARK RIGHT CORPORATION,2122262798,277 GOLD ST,BROOKLYN,NY,11201,Brooklyn
PARKLEX GARAGE INC.,2124072516,345 PARK AVE,NEW YORK,NY,10154,Manhattan
"CENTRAL PARKING SYSTEM OF NEW YORK,INC.",9179747625,9525 QUEENS BLVD,REGO PARK,NY,11374,Queens
"STABLE CAR PARKING, INC.",212-979-9815,614 W 153RD ST,NEW YORK,NY,10031,Manhattan
MYRTLE GARAGE CORP.,2127367171,225 FLATBUSH AVENUE EXT,BROOKLYN,NY,11201,Brooklyn
"CENTRAL PARKING SYSTEM OF NEW YORK,INC.",2125025490,312 W 34TH ST,NEW YORK,NY,10001,Manhattan
"150TH PARKING LEASEHOLD, LLC",212-795-7275,457 W 150TH ST,NEW YORK,NY,10031,Manhattan
CENTRAL GARAGE CORP.,2127367171,860 5TH AVE,NEW YORK,NY,10065,Manhattan
CHAMPION PARKING MIDTOWN LLC,2128673999,224 E 39TH ST,NEW YORK,NY,10016,Manhattan
DSev Enterprise LLC,,1843 CROTONA AVE,BRONX,NY,10457,Bronx
RICANT PARKING LLC,2126887666,443 E 49TH ST,NEW YORK,NY,10017,Manhattan
"KINNEY PARKING SYSTEM, INC.",2125025490,1133 AVENUE OF THE AMERICAS,NEW YORK,NY,10036,Manhattan
650 PARKING CORP.,2124722596,650 PARK AVE,NEW YORK,NY,10065,Manhattan
NOBLE CAR PARK LLC,2122216111,500 4TH AVE,BROOKLYN,NY,11215,Brooklyn
KIDS PARKING CORP.,2129644968,105 DUANE ST,NEW YORK,NY,10007,Manhattan
ENTERPRISE YORK PARKING LLC,2125643199,1175 YORK AVE,NEW YORK,NY,10065,Manhattan
LM MUSTANG PARKING LLC,,510 E 80TH ST,NEW YORK,NY,10075,Manhattan
IMPERIAL HOUSE PARKING MANAGEMENT COMPANY,212-327-2626,155 E 68TH ST,NEW YORK,NY,10065,Manhattan
C & C Parking LLC,,899 WESTCHESTER AVE,BRONX,NY,10459,Bronx
STANDARD PARKING CORPORATION,2127869564,200 LIBERTY ST,NEW YORK,NY,10281,Manhattan
STANDARD PARKING CORPORATION,7187844966,4818 5TH ST,LONG ISLND CITY,NY,11101,Queens
"ESP GROUP OF NEW YORK, INC.",7184697672,324 CLARKSON AVE,BROOKLYN,NY,11226,Brooklyn
BEAVER STREET PARKING LLC,2126869800,15 S WILLIAM ST,NEW YORK,NY,10004,Manhattan
JARABACOA PARKING 2 LLC,347-539-1015,430 E 173RD ST,BRONX,NY,10457,Bronx
UPPER WEST PARKING INC,3474487079,303 W 96TH ST,NEW YORK,NY,10025,Manhattan
ALLIANCE E. 69TH PARKING LLC,2125810535,301 E 69TH ST,NEW YORK,NY,10021,Manhattan
STANDARD PARKING CORPORATION,2129163480,60 E END AVE,NEW YORK,NY,10028,Manhattan
"RELIABLE PARKING, CORP.",2124903460,585 E 169TH ST,BRONX,NY,10456,Bronx
764 4TH AVE ASSOCIATES LLC,7187683100,764 4TH AVE,BROOKLYN,NY,11232,Brooklyn
CIRCLE PARKING LLC,2126869800,200 W 52ND ST,NEW YORK,NY,10019,Manhattan
310 LEX PARKING MGMT LLC,2126812044,310 LEXINGTON AVE,NEW YORK,NY,10016,Manhattan
"IMPERIAL PARKING (U.S.), LLC",2129378660,422 E 79TH ST,NEW YORK,NY,10075,Manhattan
"IMPERIAL PARKING (U.S.), LLC",2129378660,750 AVENUE OF THE AMERICAS,NEW YORK,NY,10010,Manhattan
"STEWART HOUSE CAR PARK, INC",2129966363,70 E 10TH ST,NEW YORK,NY,10003,Manhattan
PARK KWIK LLC,2129745840,110 LIVINGSTON ST,BROOKLYN,NY,11201,Brooklyn
EAST 61ST STREET PARKING GARAGE CORP.,212-736-7171,150 E 61ST ST,NEW YORK,NY,10065,Manhattan
"G&M PARKING GARAGE, CORP.",9546098489,920 WESTCHESTER AVE,BRONX,NY,10459,Bronx
"PARK ON BROADWAY, INC.",7186109192,250 W 43RD ST,NEW YORK,NY,10036,Manhattan
"WESTMINSTER CAR PARK, LLC",2129966363,165 E 66TH ST,NEW YORK,NY,10065,Manhattan
"ABM PARKING SERVICES, INC",2122131282,475 PARK AVE S,NEW YORK,NY,10016,Manhattan
AMABLE PARKING CORP.,2125691722,3795 10TH AVE,NEW YORK,NY,10034,Manhattan
"CENTRAL PARKING SYSTEM OF NEW YORK,INC.",2126296602,154 E 53RD ST,NEW YORK,NY,10022,Manhattan
STAN PARK LLC,7188408400,3538 JUNCTION BLVD,CORONA,NY,11368,Queens
305 EAST 86TH PARKING LLC,2126886800,305 E 86TH ST,NEW YORK,NY,10028,Manhattan
515 NINTH AVENUE PARKING INC,212-736-7171,511 9TH AVE,NEW YORK,NY,10018,Manhattan
"PARKING COMPANY OF AMERICA AIRPORTS, LLC",7183222221,14921 130TH AVE,JAMAICA,NY,11436,Queens
QUIK PARK 65TH ST. LLC,2126869800,403 E 65TH ST,NEW YORK,NY,10065,Manhattan
MANHATTAN PARKING SYSTEM-SERVICE CORP.,2127536116,220 MADISON AVE,NEW YORK,NY,10016,Manhattan
"CENTRAL PARKING SYSTEM OF NEW YORK,INC.",2126296602,1 PENN PLZ,NEW YORK,NY,10119,Manhattan
334 PARKING CORP.,2128661000,302 E 96TH ST,NEW YORK,NY,10128,Manhattan
PROTO PARKING INC,6462092694,250 E 39TH ST,NEW YORK,NY,10016,Manhattan
"MY NEW PARKING, INC.",3475388602,1484 JEROME AVE,BRONX,NY,10452,Bronx
61 JANE PARKING CORP.,2122436303,61 JANE ST,NEW YORK,NY,10014,Manhattan
"IMPERIAL PARKING (U.S.), INC",2129378660,279 AVENUE C,NEW YORK,NY,10009,Manhattan
"KINNEY PARKING SYSTEM, INC.",2126296602,56 N MOORE ST,NEW YORK,NY,10013,Manhattan
200 EAST END AVENUE PARKING CORP,2127367171,200 E END AVE,NEW YORK,NY,10128,Manhattan
RAPID EAST 38TH STREET CORP.,2128661000,80 PARK AVE,NEW YORK,NY,10016,Manhattan
GOLD/PEARL PARKING CORP.,2127367171,2 GOLD ST,NEW YORK,NY,10038,Manhattan
PARK LANE HOTEL GARAGE LLC,6465840409,36-38 CENTRAL PARK S,NEW YORK,NY,10019,Manhattan
QUIK PARK EAST 46TH STREET LLC,2128322066,300 E 46TH ST,NEW YORK,NY,10017,Manhattan
"ALLIANCE ELEMENT PARKING, LLC",2125810535,555 W 59TH ST,NEW YORK,NY,10019,Manhattan
"KINNEY PARKING SYSTEM, INC.",2125025490,211 E 57TH ST,NEW YORK,NY,10022,Manhattan
PARK KWIK LLC,2129745840,55 WASHINGTON ST,BROOKLYN,NY,11201,Brooklyn
330 THIRD PARKING CORP.,2122435900,514 W 168TH ST,NEW YORK,NY,10032,Manhattan
LA FAMILIA PARKING GARAGE CORP.,7188293655,2346 RYER AVE,BRONX,NY,10458,Bronx
"CENTRAL PARKING SYSTEM OF NEW YORK,INC.",2122521673,776 AVENUE OF THE AMERICAS,NEW YORK,NY,10001,Manhattan
CASTLE PARKING CORP.,7189334751,2846 WEBSTER AVE,BRONX,NY,10458,Bronx
CHAMPION PARKING 75 LLC,2123085959,370 E 76TH ST,NEW YORK,NY,10021,Manhattan
QUIK PARK LINC MANAGMENT LLC,2128322066,20 N 5TH ST,BROOKLYN,NY,11249,Brooklyn
VALOR PARKING LLC,212-686-9800,235 E 45TH ST,NEW YORK,NY,10017,Manhattan
AMBER PARK LLC,2126869800,101 E 13TH ST,NEW YORK,NY,10003,Manhattan
BROADWAY & 64TH PARKING LLC,212-686-9800,1900 BROADWAY,NEW YORK,NY,10023,Manhattan
REDBALL PARKING LLC,2126832056,142 E 31ST ST,NEW YORK,NY,10016,Manhattan
SYLVAN WINDSOR PARKING LLC,718-575-9768,10724 71ST RD,FOREST HILLS,NY,11375,Queens
PARK RIGHT CORPORATION,2122624771,415 GREENWICH ST,NEW YORK,NY,10013,Manhattan
205 EAST 38TH STREET PARKING LLC,2126869800,205 E 38TH ST,NEW YORK,NY,10016,Manhattan
BELMONT PARKING LLC,2122889170,113 E 84TH ST,NEW YORK,NY,10028,Manhattan
PARK BRIAR GARAGE,2127367171,11045 QUEENS BLVD,FOREST HILLS,NY,11375,Queens
DEPENDABLE PARKING LLC,2126869800,230 W 55TH ST,NEW YORK,NY,10019,Manhattan
"LAZ PARKING NEW YORK, NEW JERSEY LLC",2122652239,426 E 71ST ST,NEW YORK,NY,10021,Manhattan
EAST 97TH PARKING CORP.,2123488364,175 E 96TH ST,NEW YORK,NY,10128,Manhattan
NEW YORK PARKING 54TH ST. CORP.,2122493344,527 MADISON AVE,NEW YORK,NY,10022,Manhattan
"ST. NICHOLAS PARKING MGMT, LLC",2127957275,673 SAINT NICHOLAS AVE,NEW YORK,NY,10030,Manhattan
160 PARKING CORP.,2127367171,160 E 65TH ST,NEW YORK,NY,10065,Manhattan
"CENTRAL PARKING SYSTEM OF NEW YORK,INC.",2126296602,267 W 47TH ST,NEW YORK,NY,10036,Manhattan
HILLTOP PARKING CORP.,7183649580,305 E 182ND ST,BRONX,NY,10457,Bronx
"CENTRAL PARKING SYSTEM OF NEW YORK,INC.",2125025490,100 W 93RD ST,NEW YORK,NY,10025,Manhattan
RECTOR WEST PARKING LLC,2127864796,200 RECTOR PL,NEW YORK,NY,10280,Manhattan
BUZZ PARKING & MGMT CORP.,7182850102,14 KENMARE ST,NEW YORK,NY,10012,Manhattan
"SYD PARKING, LLC",2127504274,405 E 56TH ST,NEW YORK,NY,10022,Manhattan
BRADY PARKING INC.,7185973232,800 BRADY AVE,BRONX,NY,10462,Bronx
REALITY PARKING LLC,2126869800,900 8TH AVE,NEW YORK,NY,10019,Manhattan
"CENTRAL PARKING SYSTEM OF NEW YORK,INC.",2126296602,45 E END AVE,NEW YORK,NY,10028,Manhattan
"UNION ST. PARKING, INC.",5165893058,3819 UNION ST,FLUSHING,NY,11354,Queens
"CENTRAL PARKING SYSTEM OF NEW YORK,INC.",2125025490,390 GREENWICH ST,NEW YORK,NY,10013,Manhattan
BROOKE PARKING GARAGE INC,9175775924,1120 BROOK AVE,BRONX,NY,10456,Bronx
"ALLIED AUSTIN CO., L.P.",7182633800,7020 AUSTIN ST,FOREST HILLS,NY,11375,Queens
QUIK PARK TRIBECA II LLC,2128322066,450 WASHINGTON ST,NEW YORK,NY,10013,Manhattan
CENTRAL PARKING SYSTEM OF NEW YORK INC.,2125025490,213-217 E 80TH ST,NEW YORK,NY,10075,Manhattan
QUIK PARK EAST 102ND STREET GARAGE LLC,2128322066,315 E 102ND ST,NEW YORK,NY,10029,Manhattan
"FIFTH AVENUE CAR PARK, LLC",2129966363,1325 5TH AVE,NEW YORK,NY,10029,Manhattan
STANDARD PARKING CORPORATION,7182537897,5100 KINGS PLZ,BROOKLYN,NY,11234,Brooklyn
THOMPSON ST. PARKING CORP.,2129299404,221 THOMPSON ST,NEW YORK,NY,10012,Manhattan
CLAVER PLACE PARKING CORP.,7188570822,12 CLAVER PL,BROOKLYN,NY,11238,Brooklyn
QUIK PARK HUDSON RIVER 5 LLC,2128322066,400 W 63RD ST,NEW YORK,NY,10069,Manhattan
FN PARKING CORP.,9173999429,1829 JEROME AVE,BRONX,NY,10453,Bronx
ROGAR LLC,2129299404,280 BROADWAY,NEW YORK,NY,10007,Manhattan
BROOKLYN BRIDGE GARAGE LLC,6465840409,360 FURMAN ST,BROOKLYN,NY,11201,Brooklyn
"CENTRAL PARKING SYSTEM OF NEW YORK,INC.",2126296602,132-146 W 51ST ST,NEW YORK,NY,10019,
SECURE GARAGE DOOR LLC,7188489477,10126 98TH ST,OZONE PARK,NY,11416,Queens
BROOKLYN PARKING LLC,2123085959,741 61ST ST,BROOKLYN,NY,11220,Brooklyn
ISABEL PARKING LLC,6465840409,951 RIVER AVE,BRONX,NY,10452,Bronx
"LIBERTY VIEW PARKING, LLC",2128422305,2 RIVER TER,NEW YORK,NY,10282,Manhattan
BOBBY CAR PARK LLC,2122216111,105 UNDERHILL AVE,BROOKLYN,NY,11238,Brooklyn
"LAZ PARKING NEW YORK, NEW JERSEY LLC",2122652239,525 E 68TH ST,NEW YORK,NY,10065,Manhattan
SHERMAN PARKING SYSTEMS INC.,9149601795,361 E 161ST ST,BRONX,NY,10451,Bronx
MANHATTAN PARKING 110 LLC,2122227813,543 W 110TH ST,NEW YORK,NY,10025,Manhattan
"KINNEY PARKING SYSTEM, INC.",7184307021,1975 EASTCHESTER RD,BRONX,NY,10461,Bronx
"KINNEY PARKING SYSTEM, INC.",2125025490,146 W 57TH ST,NEW YORK,NY,10019,Manhattan
WESTMONT PARKING INC.,2127367171,730 COLUMBUS AVE,NEW YORK,NY,10025,Manhattan
"ALLIANCE RIVERBANK PARKING, LLC",2125810535,555 W 42ND ST,NEW YORK,NY,10036,Manhattan
"101 CAR PARK, LLC",2122216111,101 W 23RD ST,NEW YORK,NY,10011,Manhattan
ML PARKING CORP.,3478823966,615 JACKSON AVE,BRONX,NY,10455,Bronx
44 ELIZABETH STREET PARKING CORP,,44 ELIZABETH ST,NEW YORK,NY,10013,Manhattan
"PENNY LANE CAR PARK, LLC",2129966363,215 E 24TH ST,NEW YORK,NY,10010,Manhattan
QUIK PARK WEST 22 ST. LLC,2128322066,235 W 22ND ST,NEW YORK,NY,10011,Manhattan
"WINDSOR FH CAR PARK, LLC",2129966363,10724 71ST RD,FOREST HILLS,NY,11375,Queens
231 EAST 94TH STREET PARKING LLC,2128887400,231 E 94TH ST,NEW YORK,NY,10128,Manhattan
MEAT MARKET GARAGE INC,2129893100,259 MULBERRY ST,NEW YORK,NY,10012,Manhattan
QUIK PARK W. 23RD ST. LLC,2128322066,423 W 23RD ST,NEW YORK,NY,10011,Manhattan
CHAMPION PARKING 77TH ST. CORP.,2122493344,49 E 77TH ST,NEW YORK,NY,10075,Manhattan
CATON PARKING LLC,7329058338,33 CATON PL,BROOKLYN,NY,11218,Brooklyn
PRINCE TNP REALTY LLC,7189393338,3720 PRINCE ST,FLUSHING,NY,11354,Queens
"SUPREME CAR PARK, LLC",2122216111,1065 PARK AVE,NEW YORK,NY,10128,Manhattan
MERCURY PARKING LLC,2126869800,350 W 50TH ST,NEW YORK,NY,10019,Manhattan
SUPREME 85 PARKING LLC,718-694-2060,85 LIVINGSTON ST,BROOKLYN,NY,11201,Brooklyn
ALERT GARAGE CORP.,7187860643,3017 40TH AVE,LONG IS CITY,NY,11101,Queens
AD PARKING INC.,7189939003,1140 TIFFANY ST,BRONX,NY,10459,Bronx
"GREENE HOUSE CAR PARK, LLC",2129966363,381 CARLTON AVE,BROOKLYN,NY,11238,Brooklyn
"ZOOM CAR PARK, INC.",2122216111,3130 GRAND CONCOURSE,BRONX,NY,10458,Bronx
SP PLUS CORPORATION,2125025490,1420 YORK AVE,NEW YORK,NY,10021,Manhattan
MANHATTAN PARKING 110 LLC,2124903480,543 W 110TH ST,NEW YORK,NY,10025,Manhattan
SP PLUS CORPORATION,2125025490,455 MADISON AVE,NEW YORK,NY,10022,Manhattan
MARKET 15 PARKING LLC,2126869800,552 AVENUE OF THE AMERICAS,NEW YORK,NY,10011,Manhattan
F&S PARKING LLC,2123272626,331 E 75TH ST,NEW YORK,NY,10021,Manhattan
BOWERY FIRST PARKING LLC,2126869800,11 E 1ST ST,NEW YORK,NY,10003,Manhattan
CHAMPION PARKING 81 LLC,2125358005,1533 YORK AVE,NEW YORK,NY,10028,Manhattan
MODERN PARKING LLC,2126869800,666 5TH AVE,NEW YORK,NY,10103,Manhattan
2 LINCOLN PARKING LLC,2126869800,2 LINCOLN PLZ,NEW YORK,NY,10023,Manhattan
"EMERALD CAR PARK, LLC",2127729802,510 E 80TH ST,NEW YORK,NY,10075,Manhattan
PARK RIGHT CORPORATION,7187973093,635 W 42ND ST,NEW YORK,NY,10036,Manhattan
126TH STREET PARKING CORP.,7187880066,418 W 127TH ST,NEW YORK,NY,10027,Manhattan
CFS 2907 JFK LLC,7183222221,14921 130TH AVE,JAMAICA,NY,11436,Queens
50-51 PARKING CORP.,2124268400,260 E 143RD ST,BRONX,NY,10451,Bronx
AFFILIATED PARKING LLC,2126869800,247 MADISON AVE,NEW YORK,NY,10016,Manhattan
"ABDULLAH, MUHAMMAD A",7186366959,1360 FULTON ST,BROOKLYN,NY,11216,Brooklyn
"ATELIER CAR PARK, LLC",2129966363,627 W 42ND ST,NEW YORK,NY,10036,Manhattan
OASIS AUTO REPAIR & GARAGE CORP,2125442833,431 W 202ND ST,NEW YORK,NY,10034,Manhattan
"PRO PARK AMERICA NEW YORK, LLC",2125313418,256 UTICA AVE,BROOKLYN,NY,11213,Brooklyn
PARK LANE GARAGE LLC,6465840409,11624 GROSVENOR LN,RICHMOND HILL,NY,11418,Queens
331 50TH ST. PARKING CORP.,2127577247,336 W 51ST ST,NEW YORK,NY,10019,Manhattan
"W K PARKING, CORP",2127373279,525 E 11TH ST,NEW YORK,NY,10009,Manhattan
"RIVER HOUSE CAR PARK, LLC",2129966363,1175 YORK AVE,NEW YORK,NY,10065,Manhattan
189 PKG LLC,917-731-2034,4745 PARK AVE,BRONX,NY,10458,Bronx
PINE PARKING CORP.,8007985701,111 VARICK ST,NEW YORK,NY,10013,Manhattan
"KNICKERBOCKER PLAZA CAR PARK, LLC",2129966363  X-14,1751 2ND AVE,NEW YORK,NY,10128,Manhattan
"CENTRAL PARKING SYSTEM OF NEW YORK, INC",2125025490,45 E END AVE,NEW YORK,NY,10028,Manhattan
"SANFORD TOWER GARAGE, INC.",7183598058,13347 SANFORD AVE,FLUSHING,NY,11355,Queens
STANDARD PARKING CORPORATION,2129163480,8935 162ND ST,JAMAICA,NY,11432,Queens
ZETA PARKING CORP.,2126501988,213 E 80TH ST,NEW YORK,NY,10075,Manhattan
444 MANHATTAN PARKING CORP.,,444 MANHATTAN AVE,NEW YORK,NY,10026,Manhattan
KEY PARKING LLC,2125810535,115 E 9TH ST,NEW YORK,NY,10003,Manhattan
PARADISE GARAGE CORP.,2127367171,6260 99TH ST,REGO PARK,NY,11374,Queens
"KINNEY PARKING SYSTEM, LLC",2125025490,146 W 57TH ST,NEW YORK,NY,10019,Manhattan
PARK AMERICA CORP,2124866888,351 E 51ST ST,NEW YORK,NY,10022,Manhattan
2000 PARKING INC.,7185978232,2000 WHITE PLAINS RD,BRONX,NY,10462,Bronx
"QUIK PARK 82ND STREET, LLC",2128322066,350 E 82ND ST,NEW YORK,NY,10028,Manhattan
QUIK PARK COLUMBIA LLC,2128322066,2561 BROADWAY,NEW YORK,NY,10025,Manhattan
"PARK IN AUTO SERVICES, INC.",2129661186,75 KENMARE ST,NEW YORK,NY,10012,Manhattan
GALLANT PARKING LLC,2126869800,182-184 E 95TH ST,NEW YORK,NY,10128,Manhattan
"IMPERIAL PARKING (U.S.), LLC",2129378660,168-36 90 AVENUE,JAMAICA,NY,11432,
EASTSIDE 65 PARKING LLC,212-686-9800,200 E 66TH ST,NEW YORK,NY,10065,Manhattan
21ST GARAGE LLC,2126270012,447 W 35TH ST,NEW YORK,NY,10001,Manhattan
"POST OFFICE GARAGE, LLC",2125025490,340 W 31ST ST,NEW YORK,NY,10001,Manhattan
SUPER ELITE PARKING INC,9174705093,1872 E TREMONT AVE,BRONX,NY,10460,Bronx
QUIK PARK FG LLC,212-686-9800,500 E 62ND ST,NEW YORK,NY,10065,Manhattan
CREATIVE PARKING LLC,2122429635,16 W 16TH ST,NEW YORK,NY,10011,Manhattan
CHAMPION PARKING 90 LLC,2123085959,60 E 90TH ST,NEW YORK,NY,10128,Manhattan
"WH PARKING MGMT, LLC",2127957275,4320 BROADWAY,NEW YORK,NY,10033,Manhattan
PARK SAFE LLC,2123404248,2500 FDR DR,NEW YORK,NY,10016,Manhattan
MONTAGUE PARKING LLC,2126869800,180 MONTAGUE ST,BROOKLYN,NY,11201,Brooklyn
8 EAST 83RD PARKING LLC,2125352890,8 E 83RD ST,NEW YORK,NY,10028,Manhattan
PATRIOT PARKING LLC,2126869800,351 GREENWICH ST,NEW YORK,NY,10013,Manhattan
LM PARKING CORP,914-874-3268,250 E 144TH ST,BRONX,NY,10451,Bronx
RGL PARKING & TRANSPORTATION LLC,9178419280,4129 24TH ST,LONG ISLAND CITY,NY,11101,Queens
"KINNEY PARKING SYSTEM, INC.",2126296602,1153 YORK AVE,NEW YORK,NY,10065,Manhattan
"KINNEY PARKING SYSTEM, INC.",2125025490,135 E 33R ST,NEW YORK,NY,10016,
ORMOND PLACE PARKING CORP.,7188570822,12 CLAVER PL,BROOKLYN,NY,11238,Brooklyn
340 EAST 74TH STREET PARKING CORP,2127367171,340 E 74TH ST,NEW YORK,NY,10021,Manhattan
SP PLUS CORPORATION,2126954568,50 OCEANA DR W,BROOKLYN,NY,11235,Brooklyn
EZ PARKING GARAGE INC,3472207660,1334 LOUIS NINE BLVD,BRONX,NY,10459,Bronx
"MEGA PARKING SYSTEMS, INC.",7183924460,343 E 74TH ST,NEW YORK,NY,10021,Manhattan
F & A PARKING CORP,718-399-2640,525 CLINTON AVE,BROOKLYN,NY,11238,Brooklyn
CHAMPION PARKING 57 LLC,2123085959,316 W 57TH ST,NEW YORK,NY,10019,Manhattan
"BRICIN PARKING, CORP.",2126500141,65 W 55TH ST,NEW YORK,NY,10019,Manhattan
JAY PARKING CORP.,9179695850,3720 PRINCE ST,FLUSHING,NY,11354,Queens
WELCOME PARKING CORP.,2126616702,240 E 82ND ST,NEW YORK,NY,10028,Manhattan
"222 PARKING SERVICES, LLC",2122652239,222 E 39TH ST,NEW YORK,NY,10016,Manhattan
QUIK PARK EAST 87 LLC,2128322066,501 E 87TH ST,NEW YORK,NY,10128,Manhattan
STANDARD PARKING CORPORATION,7188974833,9605 QUEENS BLVD,REGO PARK,NY,11374,Queens
"LAZ PARKING NEW YORK, NEW JERSEY LLC",2122652239,528 E 20TH ST,NEW YORK,NY,10009,Manhattan
"IMPERIAL PARKING (U.S.), INC",2129378660,400 E 90TH ST,NEW YORK,NY,10128,Manhattan
"UTOPIA PARKING MANAGEMENT, LLC",2127957275,17660 UNION TPKE,FRESH MEADOWS,NY,11366,Queens
"C&S E-SUPERETTE, INC.",718-745-2888,9053 FORT HAMILTON PKWY,BROOKLYN,NY,11209,Brooklyn
PV PARKING VI CORP,646-302-4330,371 HUMBOLDT ST,BROOKLYN,NY,11211,Brooklyn
LM BONNEVILLE PARKING LLC,2127143571,329 E 22ND ST,NEW YORK,NY,10010,Manhattan
BROOK PARK PARKING CORP.,9174705093,1830 E TREMONT AVE,BRONX,NY,10460,Bronx
PARK NORTH PARKING CORP,2123606300,220 E 117TH ST,NEW YORK,NY,10035,Manhattan
ZENITH PARKING LLC,212-686-9800,790 8TH AVE,NEW YORK,NY,10019,Manhattan
"IMPERIAL PARKING (U.S.), LLC",212-937-8660,457 W 150TH ST,NEW YORK,NY,10031,Manhattan
SUPER ELITE PARKING INC,9174705093,257 E 187TH ST,BRONX,NY,10458,Bronx
CHAMPION PARKING 113 LLC,212-308-5959,400 W 113TH ST,NEW YORK,NY,10025,Manhattan
STAR PARKING GARAGE INC.,718-991-8100,840 WESTCHESTER AVE,BRONX,NY,10459,Bronx
MANHATTAN PARKING - GOLD CORP.,2124903460,220 E 54TH ST,NEW YORK,NY,10022,Manhattan
"ALLIANCE DAG PARKING, LLC",2125810535,240 E 47TH ST,NEW YORK,NY,10017,Manhattan
QUIK PARK WILSON LLC,212-832-2066,200 W 79TH ST,NEW YORK,NY,10024,Manhattan
SP PLUS CORPORATION,2125025490,6575 SAUNDERS ST,REGO PARK,NY,11374,Queens
ZEPHYR PARKING LLC,2126869800,132 E 35TH ST,NEW YORK,NY,10016,Manhattan
PV PARKING IV CORP,718-609-1200,554 W 174TH ST,NEW YORK,NY,10033,Manhattan
STANDARD PARKING CORPORATION,212163480,9015 PARSONS BLVD,JAMAICA,NY,11432,Queens
ASTOR PARKING LLC,2126869800,1511 BROADWAY,NEW YORK,NY,10036,Manhattan
CHELNICK PARKING CORP,2127511080,880 5TH AVE,NEW YORK,NY,10021,Manhattan
PEACH PARKING (40TH) CORP.,9736228888,346 W 40TH ST,NEW YORK,NY,10018,Manhattan
"IMPERIAL PARKING (U.S)., LLC",7188765302,155 RICHMOND TER,STATEN ISLAND,NY,10301,Staten Island
"PILOT PARKING, LLC",2129299404,2 SHERMAN AVE,NEW YORK,NY,10040,Manhattan
VANGUARD CAR RENTAL USA INC.,7184016837,219 W 77TH ST,NEW YORK,NY,10024,Manhattan
PLATT PARKING LLC,2126869800,90 JOHN ST,NEW YORK,NY,10038,Manhattan
"IMPERIAL PARKING (U.S.), LLC",2129378660,80 PARK AVE,NEW YORK,NY,10016,Manhattan
NICE PARK 22 LLC,2129299404,200 E 15TH ST,NEW YORK,NY,10003,Manhattan
"CENTRAL PARKING SYSTEM OF NEW YORK,INC.",2126296602,605 PARK AVE,NEW YORK,NY,10065,Manhattan
"IMPERIAL PARKING (U.S.), LLC",212-937-8660,330 E 75TH ST,NEW YORK,NY,10021,Manhattan
40 FLATBUSH REALTY LLC,2122398580,25 CHAPEL ST,BROOKLYN,NY,11201,Brooklyn
"509 WEST 34TH STREET CAR PARK, LLC",2129966363,509 W 34TH ST,NEW YORK,NY,10001,Manhattan
"KINNEY PARKING SYSTEM, INC.",2125025490,252 W 40TH ST,NEW YORK,NY,10018,Manhattan
"CENTRAL PARKING SYSTEM OF NEW YORK,INC.",2122629778,257 W 47TH ST,NEW YORK,NY,10036,Manhattan
FLATIRON 20 PARKING LLC,2122439384,19 W 20TH ST,NEW YORK,NY,10011,Manhattan
3000 JEROME PARKING CORP.,7183290617,3000 JEROME AVE,BRONX,NY,10468,Bronx
F&T MANAGEMENT & PARKING CORP,7188882828,3907 PRINCE ST,FLUSHING,NY,11354,Queens
615 GARAGE CORPORATION,2129355252,800 5TH AVE,NEW YORK,NY,10065,Manhattan
"CENTRAL PARKING SYSTEM OF NEW YORK,INC.",7189316541,1601 SEDDON ST,BRONX,NY,10461,Bronx
304060 PARKING LLC,2126869800,60 E 9TH ST,NEW YORK,NY,10003,Manhattan
QUEENS PLAZA PARKING CORP.,7184829180,2702 QUEENS PLZ S,LONG IS CITY,NY,11101,Queens
STANDARD PARKING CORPORATION,7185887802,20 E 161ST ST,BRONX,NY,10451,Bronx
ISABEL PARKING LLC,6465840409,71 E 153RD ST,BRONX,NY,10451,Bronx
"EAST 65TH GARAGE, LLC",6469644323,1189 1ST AVE,NEW YORK,NY,10065,Manhattan
REYER PARKING CORP.,2125416050,1872 E TREMONT AVE,BRONX,NY,10460,Bronx
99 JANE STREET PARKING LLC,2126869800,802 WASHINGTON ST,NEW YORK,NY,10014,Manhattan
THE BERGER'S PARKING CORPORATION,2125358291,196 E 75TH ST,NEW YORK,NY,10021,Manhattan
EQUITY PARKING LLC,2126869800,1441 2ND AVE,NEW YORK,NY,10021,Manhattan
INNOVATIVE PARKING LLC,212-686-9800,301 E 40TH ST,NEW YORK,NY,10016,Manhattan
IMPERIAL PARKING US LLC,2129378660 X225,200 W 79TH ST,NEW YORK,NY,10024,Manhattan
SHOWTIME VALET PARKING CORP.,6464002531,2804 E 19TH ST,BROOKLYN,NY,11235,Brooklyn
MP 98-41 LLC,7189970630,6536 99TH ST,REGO PARK,NY,11374,Queens
"SUNNY CAR PARK, LLC",2122216111,4701 QUEENS BLVD,SUNNYSIDE,NY,11104,Queens
PARK 18 WEST LLC,718-349-6200,140 W 18TH ST,NEW YORK,NY,10011,Manhattan
"CENTRAL PARKING SYSTEM OF NEW YORK,INC.",2125025490,216 E 67TH ST,NEW YORK,NY,10065,Manhattan
318 EAST 48TH STREET PARKING LLC,2127558255,318 E 48TH ST,NEW YORK,NY,10017,Manhattan
70 PARK LLC,2122490445,400 E 70TH ST,NEW YORK,NY,10021,Manhattan
PRIME CAR PARK LLC,2122216111,951 HOE AVE,BRONX,NY,10459,Bronx
"ARH PARKING, INC.",7186845803,3463 3RD AVE,BRONX,NY,10456,Bronx
"IMPERIAL PARKING (U.S.), LLC",2129378666,220 E 67TH ST,NEW YORK,NY,10065,Manhattan
PRECISE PARKING CORP.,7187215243,150 E 18TH ST,NEW YORK,NY,10003,Manhattan
A PLUS PARKING LLC,3477329349,13620 BOOTH MEMORIAL AVE,FLUSHING,NY,11355,Queens
"STOP-PARK GARAGE, LLC",2125025490,1820 MORTON ST,NEW YORK,NY,10014,
"IMPERIAL PARKING (U.S.), LLC",2129378660,101 BEDFORD AVE,BROOKLYN,NY,11211,Brooklyn
QP HOSP LLC,2126869800,1250 WATERS PL,BRONX,NY,10461,Bronx
SAFEWAY PARKING CORP.,2124109603,345 E 86TH ST,NEW YORK,NY,10028,Manhattan
CAAL PARKING CORP.,2129424823,1150 WEBSTER AVE,BRONX,NY,10456,Bronx
F & A PARKING CORP,718-399-2640,525 CLINTON AVE,BROOKLYN,NY,11238,Brooklyn
CHAMPION PARKING 83RD ST CORP,212-308-5959,303 E 83RD ST,NEW YORK,NY,10028,Manhattan
CAROUSEL PARKING CORP,2123085959,201 W 75TH ST,NEW YORK,NY,10023,Manhattan
QUEENS OFFICE TOWER LIMITED PARTNERSHIP,7188309344,9525 QUEENS BLVD,REGO PARK,NY,11374,Queens
HUDSON RIVER PARKING CORP.,2127367171,3720 HENRY HUDSON PKWY,BRONX,NY,10463,Bronx
ST GEORGE FERRY PARKING CORP.,212-736-7171,55B RICHMOND TER,STATEN ISLAND,NY,10301,Staten Island
"800 BRADY PARKING, INC.",3478435023,800 BRADY AVE,BRONX,NY,10462,Bronx