Business Name,Contact Phone Number,Address,Address City,Address State,Address ZIP,Address Borough,Latitude,Longitude
QUIK PARK 775 GARAGE LLC,2128322066,775 COLUMBUS AVE,NEW YORK,NY,10025,Manhattan,40.793822,-73.966604
"LAZ PARKING NEW YORK, NEW JERSEY LLC",2122652239,120 NASSAU ST,BROOKLYN,NY,11201,Brooklyn,40.698387,-73.986765
LAZ PARKING NEW YORK / NEW JERSEY LLC,2122652239,504 MYRTLE AVE,BROOKLYN,NY,11205,Brooklyn,40.693388,-73.964834
WILLSHIRE CAR PARK INC.,2122216111,18230 WEXFORD TER,JAMAICA,NY,11432,Queens,40.714562,-73.780079
GR PARKING INC,3474459514,4007 73RD ST,WOODSIDE,NY,11377,Queens,40.746436,-73.892099
QUIK PARK WATER STREET LLC,2128322066,95 WALL ST,NEW YORK,NY,10005,Manhattan,40.70493,-74.007487
J P PARKING II CORP,2018000358,4501 BROADWAY,NEW YORK,NY,10040,Manhattan,40.858509,-73.931929
30-40-60 GARAGE LLC,6469644323,30 E 9TH ST,NEW YORK,NY,10003,Manhattan,40.731997,-73.994149
PUBLIC PARKING 200 E. 15TH STREET INC,7187297276,200 E 15TH ST,NEW YORK,NY,10003,Manhattan,40.733804,-73.986522
LM DRIGGS PARKING LLC,212-714-3571,247 METROPOLITAN AVE,BROOKLYN,NY,11211,Brooklyn,40.715075,-73.959164
ZANDER GARAGE LLC,646-964-4323,301 ELIZABETH ST,NEW YORK,NY,10012,Manhattan,40.724668,-73.993544
LIAM GARAGE LLC,646-964-4323,77 W 15TH ST,NEW YORK,NY,10011,Manhattan,40.738077,-73.996052
CHAMPION PARKING 76 ST LLC.,2123085959,205 W 76TH ST,NEW YORK,NY,10023,Manhattan,40.781511,-73.980229
WEST 30TH GARAGE LLC,6409644323,363 W 30TH ST,NEW YORK,NY,10001,Manhattan,40.750823,-73.997765
QUIK PARK 365 MANAGEMENT LLC,2128322066,365 BOND ST,BROOKLYN,NY,11231,Brooklyn,40.677899,-73.99074
RIVERSIDE CENTER PARKING LLC,2126869800,1 W END AVE,NEW YORK,NY,10023,Manhattan,40.771874,-73.990666
LAZ PARKING NEW YORK / NEW JERSEY LLC,2122652239,360 E 65TH ST,NEW YORK,NY,10065,Manhattan,40.763399,-73.959603
LAZ PARKING NEW YORK / NEW JERSEY LLC,2122652239,779-789 RIVERSIDE DR,NEW YORK,NY,10032,Manhattan,40.83497,-73.947685
LAZ PARKING NEW YORK / NEW JERSEY LLC,2122652239,15 WILLIAM ST,NEW YORK,NY,10005,Manhattan,40.70527,-74.010139
LAZ PARKING NEW YORK / NEW JERSEY LLC,2122652239,3916 PRINCE ST,FLUSHING,NY,11354,Queens,40.759179,-73.832188
LAZ PARKING NEW YORK / NEW JERSEY LLC,2122652239,525 E 72ND ST,NEW YORK,NY,10021,Manhattan,40.766495,-73.951597
LAZ PARKING NEW YORK / NEW JERSEY LLC,2122652239,250 W 50TH ST,NEW YORK,NY,10019,Manhattan,40.761885,-73.985413
LAZ PARKING NEW YORK / NEW JERSEY LLC,2122652239,555 W 59TH ST,NEW YORK,NY,10019,Manhattan,40.77171,-73.989732
LAZ PARKING NEW YORK / NEW JERSEY LLC,2122652239,839 AVENUE OF THE AMERICAS,NEW YORK,NY,10001,Manhattan,40.746904,-73.990116
LAZ PARKING NEW YORK / NEW JERSEY LLC,2122652239,15902 JAMAICA AVE,JAMAICA,NY,11432,Queens,40.703278,-73.799939
"CHARLES PARKING, LLC",2126849704,200 E 27TH ST,NEW YORK,NY,10016,Manhattan,40.741112,-73.981006
LAZ PARKING NEW YORK / NEW JERSEY LLC,2122652239,175 KENT AVE,BROOKLYN,NY,11249,Brooklyn,40.718204,-73.963853
LAZ PARKING NEW YORK / NEW JERSEY LLC,2122652239,267 6TH AVE,BROOKLYN,NY,11215,Brooklyn,40.673483,-73.97919
LAZ PARKING NEW YORK / NEW JERSEY LLC,2122652239,8914 PARSONS BLVD,JAMAICA,NY,11432,Queens,40.705484,-73.801764
LAZ PARKING NEW YORK / NEW JERSEY LLC,2122652239,3804 NOSTRAND AVE,BROOKLYN,NY,11235,Brooklyn,40.591228,-73.940324
LAZ PARKING NEW YORK / NEW JERSEY LLC,2122652239,13620 38TH AVE,FLUSHING,NY,11354,Queens,40.760929,-73.83002
LAZ PARKING NEW YORK / NEW JERSEY LLC,2122652239,56-80 GREENWICH ST,NEW YORK,NY,10006,Manhattan,40.707249,-74.014063
LAZ PARKING NEW YORK / NEW JERSEY LLC,2122652239,160 RIVERSIDE BLVD,NEW YORK,NY,10069,Manhattan,40.777769,-73.988529
LAZ PARKING NEW YORK / NEW JERSEY LLC,2122652239,527 E 14TH ST,NEW YORK,NY,10009,Manhattan,40.730307,-73.979793
LAZ PARKING NEW YORK / NEW JERSEY LLC,2122652239,325 AVENUE C,NEW YORK,NY,10009,Manhattan,40.732075,-73.974477
LAZ PARKING NEW YORK / NEW JERSEY LLC,2122652239,300 SCHERMERHORN ST,BROOKLYN,NY,11217,Brooklyn,40.687493,-73.982583
LAZ PARKING NEW YORK / NEW JERSEY LLC,2122652239,8020 COOPER AVE,GLENDALE,NY,11385,Queens,40.709473,-73.869014
LAZ PARKING NEW YORK / NEW JERSEY LLC,2122652239,420 E 20TH ST,NEW YORK,NY,10009,Manhattan,40.734147,-73.978732
LAZ PARKING NEW YORK / NEW JERSEY LLC,2122652239,501 E 87TH ST,NEW YORK,NY,10128,Manhattan,40.776582,-73.94627
LAZ PARKING NEW YORK / NEW JERSEY LLC,2122652239,265 E 66TH ST,NEW YORK,NY,10065,Manhattan,40.765287,-73.961275
LAZ PARKING NEW YORK / NEW JERSEY LLC,2122652239,200 CABRINI BLVD,NEW YORK,NY,10033,Manhattan,40.854533,-73.938937
LAZ PARKING NEW YORK / NEW JERSEY LLC,2122652239,8914 PARSONS BLVD,JAMAICA,NY,11432,Queens,40.705484,-73.801764
LAZ PARKING NEW YORK / NEW JERSEY LLC,2122652239,347-353 E 17TH ST,NEW YORK,NY,10003,Manhattan,40.733534,-73.981425
LAZ PARKING NEW YORK / NEW JERSEY LLC,2122652239,388 BRIDGE ST,BROOKLYN,NY,11201,Brooklyn,40.691642,-73.985432
LAZ PARKING NEW YORK / NEW JERSEY LLC,2122652239,312 BERGEN ST,BROOKLYN,NY,11217,Brooklyn,40.683155,-73.981812
PARK KWIK LLC,2129745840,325 KENT AVE,BROOKLYN,NY,11249,Brooklyn,40.713572,-73.967141
"ONE PARKING RC, INC.",480-272-2100,10 ROCKEFELLER PLZ,NEW YORK,NY,10020,Manhattan,40.758278,-73.979164
QUIK PARK EAST 79 GARAGE LLC,212-832-2066,435 E 79TH ST,NEW YORK,NY,10075,Manhattan,40.771741,-73.950732
"ONE PARKING 709, INC.",4802722100,2830 JACKSON AVE,LONG ISLAND CITY,NY,11101,Queens,40.7486,-73.937793
MP 1775 LLC,2124903460,1775 GRAND CONCOURSE,BRONX,NY,10453,Bronx,40.846345,-73.910029
POO PARKING CORP.,2124903460,1752 MORRIS AVE,BRONX,NY,10457,Bronx,40.845841,-73.909117
MP COLUMBUS PARKING LLC,2124903460,10 COLUMBUS CIR,NEW YORK,NY,10019,Manhattan,40.768356,-73.98264
PUBLIC PARKING 50 NORTH 5TH STREET INC,2124866888,50 N 5TH ST,BROOKLYN,NY,11249,Brooklyn,40.718559,-73.962056
VANCITY PARKING INC,9173277488,70 E 162ND ST,BRONX,NY,10452,Bronx,40.829024,-73.92492
GEM PARKING CORP.,,260 E 188TH ST,BRONX,NY,10458,Bronx,40.860742,-73.895944
EASTSIDE 27 COMMERCIAL LLC,2123649704,200 E 27TH ST,NEW YORK,NY,10016,Manhattan,40.741112,-73.981006
GEM PARKING CORP.,,260 E 188TH ST,BRONX,NY,10458,Bronx,40.860742,-73.895944
"D&J UNION PLAZA PARKING, LLC",3474539548,3819 UNION ST,FLUSHING,NY,11354,Queens,40.761253,-73.826515
QUIK PARK WEST 62ND ST. LLC,2128322066,140 W 65TH ST,NEW YORK,NY,10023,Manhattan,40.773039,-73.984533
SP PLUS CORPORATION,212217621,20990 23RD AVE,BAYSIDE,NY,11360,Queens,40.779948,-73.780741
WELCOME PARKING LLC,646-476-2959,131 E 55TH ST,NEW YORK,NY,10022,Manhattan,40.759954,-73.970328
TYOS LLC,2126652160,1131 OGDEN AVE,BRONX,NY,10452,Bronx,40.836151,-73.927904
KK ENTERPRISE GROUP INC.,9173277488,4745 PARK AVE,BRONX,NY,10458,Bronx,40.860339,-73.891827
786 PARKING CORP,7186180029,250 E 144TH ST,BRONX,NY,10451,Bronx,40.815573,-73.924923
CUSTOM PARKING LLC,2126869800,184 E 64TH ST,NEW YORK,NY,10065,Manhattan,40.764819,-73.964868
CHAMPION PARKING 39 LLC,2128529033,102 W 39TH ST,NEW YORK,NY,10018,Manhattan,40.753031,-73.985998
PARK PLACE GARAGE LLC,6465840409,99 CHURCH ST,NEW YORK,NY,10007,Manhattan,40.712905,-74.009327
SYLVAN ASTORIA GARAGE LLC,7185759440,2325 31ST ST,ASTORIA,NY,11105,Queens,40.773645,-73.91347
100 RIVERSIDE PARKING LLC,2126869800,120 RIVERSIDE BLVD,NEW YORK,NY,10069,Manhattan,40.7764,-73.989252
100 RIVERSIDE PARKING LLC,2126869800,100 RIVERSIDE BLVD,NEW YORK,NY,10069,Manhattan,40.775806,-73.989744
QUIK PARK CRESCENT LLC,2128322066,4308 CRESCENT ST,LONG ISLAND CITY,NY,11101,Queens,40.749736,-73.941
BROOKLYN METRO PARKING LLC,2126869800,100 WILLOUGHBY ST,BROOKLYN,NY,11201,Brooklyn,40.692024,-73.984766
LAZ PARKING NEW YORK / NEW JERSEY LLC,2122652239,199 WATER ST,NEW YORK,NY,10038,Manhattan,40.707051,-74.004399
1725 PARKING LLC,2126869800,1725 YORK AVE,NEW YORK,NY,10128,Manhattan,40.778261,-73.945693
220 RIVERSIDE PARKING LLC,2126869800,220 RIVERSIDE BLVD,NEW YORK,NY,10069,Manhattan,40.77986,-73.987629
QUIK PARK 801 GARAGE LLC,212-222-3289,801 AMSTERDAM AVE,NEW YORK,NY,10025,Manhattan,40.796138,-73.968618
149 KENT AVENUE PARKING CORP,212-736-7171,149 KENT AVE,BROOKLYN,NY,11249,Brooklyn,40.719254,-73.962697
LAZ PARKING NEW YORK / NEW JERSEY LLC,2122652239,9 W 57TH ST,NEW YORK,NY,10019,Manhattan,40.76379,-73.975182
LM 29 PARK LLC,2129672848,221 W 29TH ST,NEW YORK,NY,10001,Manhattan,40.748304,-73.993712
A & D 24 Hour Parking Inc,,2160 WEBSTER AVE,BRONX,NY,10457,Bronx,40.853785,-73.896582
PARK ARMORYMANAGEMENT LLC,7182229427,171 CLERMONT AVE,BROOKLYN,NY,11205,Brooklyn,40.692447,-73.970543
CHAMPION PARKING 113 LLC,212-308-5959,400 W 113TH ST,NEW YORK,NY,10025,Manhattan,40.804256,-73.961353
"LAUREATE GARAGE, LLC",2127502056,2148 BROADWAY,NEW YORK,NY,10023,Manhattan,40.781293,-73.980922
A & J PARKING LLC,914-314-3157,1035 ANDERSON AVE,BRONX,NY,10452,Bronx,40.833088,-73.926703
LAZ PARKING NEW YORK / NEW JERSEY LLC,2122652239,1113 YORK AVE,NEW YORK,NY,10065,Manhattan,40.759646,-73.959243
LAZ PARKING NEW YORK / NEW JERSEY LLC,2122652239,1 FORDHAM PLZ,BRONX,NY,10458,Bronx,40.860759,-73.890107
MP PARK ASSOCIATES LLC,2124903460,810 RIVER AVE,BRONX,NY,10451,Bronx,40.826053,-73.926808
FULTON LAWRENCE PARKING LLC,2126869800,111 LAWRENCE ST,BROOKLYN,NY,11201,Brooklyn,40.692679,-73.986117
QUIK PARK ELY GARAGE LLC,2128322066,81 FLEET PL,BROOKLYN,NY,11201,Brooklyn,40.693257,-73.981571
CLINTON 53 PARKING LLC,2126869800,515 W 52ND ST,NEW YORK,NY,10019,Manhattan,40.766447,-73.99173
SUPER ELITE PARKING INC,9174705093,1973 38TH ST,ASTORIA,NY,11105,Queens,40.777229,-73.901791
LAZ PARKING NEW YORK / NEW JERSEY LLC,2122652239,247 W 46TH ST,NEW YORK,NY,10036,Manhattan,40.759708,-73.987474
MORRIS AVENUE PARKING LLC,6465027200,655 MORRIS AVE,BRONX,NY,10451,Bronx,40.820002,-73.921905
CHAMPION PARKING 92 LLC,2123085959,114 W 92ND ST,NEW YORK,NY,10025,Manhattan,40.790507,-73.970145
"PROPARK AMERICA NEW YORK, LLC",3479443939,920 PARK AVE,NEW YORK,NY,10028,Manhattan,40.776578,-73.960144
"PROPARK AMERICA NEW YORK, LLC",3479443939,9015 QUEENS BLVD,ELMHURST,NY,11373,Queens,40.733983,-73.870694
"PROPARK AMERICA NEW YORK, LLC",3479443939,11045 QUEENS BLVD,FOREST HILLS,NY,11375,Queens,40.719514,-73.838831
ROCKWELL CAR PARK LLC,212-996-6363,29 FLATBUSH AVE,BROOKLYN,NY,11217,Brooklyn,40.68783,-73.979965
7 WEST 21 PARKING LLC,212-888-7400,7 W 21ST ST,NEW YORK,NY,10010,Manhattan,40.740697,-73.991295
507 WEST 28TH STREET PARKING CORP.,2127367171,507 W 28TH ST,NEW YORK,NY,10001,Manhattan,40.751196,-74.002496
2 NORTH 6TH PARKING CORP,2127367171,2 N 6TH ST,BROOKLYN,NY,11249,Brooklyn,40.719118,-73.961028
"PROPARK AMERICA NEW YORK, LLC",3479443939,11215 NORTHERN BLVD,CORONA,NY,11368,Queens,40.762806,-73.837744
QUIK PARK 808 GARAGE LLC,2128322066,808 COLUMBUS AVE,NEW YORK,NY,10025,Manhattan,40.794646,-73.966553
CHAMPION PARKING NORTH LLC,212-308-5959,2917 QUEENS PLZ N,LONG ISLAND CITY,NY,11101,Queens,40.752191,-73.928848
LAZ PARKING NEW YORK / NEW JERSEY LLC,2122652239,751 CONCOURSE VLG W,BRONX,NY,10451,Bronx,40.823394,-73.923344
SP PLUS CORPORATION,2123217621,9777 QUEENS BLVD,REGO PARK,NY,11374,Queens,40.728984,-73.858349
58TH & 7TH PARKING LLC,2126869800,157 W 57TH ST,NEW YORK,NY,10019,Manhattan,40.765366,-73.979252
99 PARK AVENUE CORP.,2128661000,99 PARK AVE,NEW YORK,NY,10016,Manhattan,40.750432,-73.978591
JORIAN PARK LLC,7187794774,8213 37TH AVE,JACKSON HEIGHTS,NY,11372,Queens,40.749921,-73.883781
THE CAR PARK OF NEW YORK LLC,208-336-6597,8036 COOPER AVE,GLENDALE,NY,11385,Queens,40.709332,-73.868361
XTELL PARKING LLC,917-592-4762,17802 HILLSIDE AVE,JAMAICA,NY,11432,Queens,40.707856,-73.803254
34 NORTH 7TH PARKING CORP.,2127367171,34 N 7TH ST,BROOKLYN,NY,11249,Brooklyn,40.720638,-73.962451
"LAZ PARKING NEW YORK, NEW JERSEY LLC",2122652239,140 RIVERSIDE BLVD,NEW YORK,NY,10069,Manhattan,40.77708,-73.988846
QUIK PARK HUDSON VI LLC,212-686-9800,40 RIVERSIDE BLVD,NEW YORK,NY,10069,Manhattan,40.774016,-73.991818
560 W 43RD STREET PARKING CORP,9174727056,555 W 42ND ST,NEW YORK,NY,10036,Manhattan,40.760654,-73.997416
"BATTERY 17 PARKING, LLC",646-773-4400,17 BATTERY PL,NEW YORK,NY,10004,Manhattan,40.705142,-74.016011
THE CAR PARK OF NEW YORK LLC,208-336-6597,9015 QUEENS BLVD,ELMHURST,NY,11373,Queens,40.733983,-73.870694
147-36 94TH AVENUE PARKING CORP.,2127367171,14736 94TH AVE,JAMAICA,NY,11435,Queens,40.699372,-73.805726
PARK 115TH LLC,2129799815,2131 FREDERICK DOUGLASS BLVD,NEW YORK,NY,10026,Manhattan,40.80403,-73.955886
ENTERPRISE 57 PARKING LLC,2125643199,606 W 57TH ST,NEW YORK,NY,10019,Manhattan,40.770608,-73.992497
NORTH 12 PARKING LLC,9143209630,55 WYTHE AVE,BROOKLYN,NY,11249,Brooklyn,40.722391,-73.957183
"YORK PARKING, LLC",646-773-4400,1418 YORK AVE,NEW YORK,NY,10021,Manhattan,40.768892,-73.952101
43-25 HUNTER STREET PARKING CORP.,2127367171,4325 HUNTER ST,LONG ISLAND CITY,NY,11101,Queens,40.747693,-73.942826
III IN LOT PARKING INC,646-964-4640,4388 BROADWAY,NEW YORK,NY,10040,Manhattan,40.854603,-73.933343
535 CARLTON AVENUE PARKING CORP,212-736-7171,535 CARLTON AVE,BROOKLYN,NY,11238,Brooklyn,40.681192,-73.970821
G & K PARKING GARAGE INC.,718-235-4975,1208 FRANKLIN AVE,BRONX,NY,10456,Bronx,40.830102,-73.903438
1578 WILLIAMSBRIDGE ROAD LLC,7188639709,1578 WILLIAMSBRIDGE RD,BRONX,NY,10461,Bronx,40.846728,-73.848424
LAZ PARKING NEW YORK / NEW JERSEY LLC,2122652239,130 FURMAN ST,BROOKLYN,NY,11201,Brooklyn,40.700582,-73.996229
ACB GARAGE LLC,6465840409,626 1ST AVE,NEW YORK,NY,10016,Manhattan,40.74421,-73.972058
455 CPW PARKING CORP,2127367171,455 CENTRAL PARK W,NEW YORK,NY,10025,Manhattan,40.797752,-73.960761
255 SCHERMERHORN STREET PARKING CORP.,2127367171,33 BOND ST,BROOKLYN,NY,11201,Brooklyn,40.688538,-73.983586
LAZ PARKING NEW YORK / NEW JERSEY LLC,2122652239,90 FURMAN ST,BROOKLYN,NY,11201,Brooklyn,40.70155,-73.995658
TRUST UNDER WILL OF IRVING SERVANSKY,6175476500,210 INDIA ST,BROOKLYN,NY,11222,Brooklyn,40.732516,-73.951391
PARK 24 LLC,2126757777,200 E 24TH ST,NEW YORK,NY,10010,Manhattan,40.739229,-73.982432
"ABM INDUSTRY GROUPS, LLC",2127576500,450 E 29TH ST,NEW YORK,NY,10016,Manhattan,40.739681,-73.973768
II IN LOT PARKING CORP,646-689-9769,2028 CRESTON AVE,BRONX,NY,10453,Bronx,40.852289,-73.905087
LAZ Parking New York New Jersey LLC,2122652239,40 W 116TH ST,NEW YORK,NY,10026,Manhattan,40.801094,-73.947922
"325 FIFTH CAR PARK, LLC",2129966363,325 5TH AVE,NEW YORK,NY,10016,Manhattan,40.747422,-73.985065
99 PARK AVENUE PARKING CORP,2127367171,99 PARK AVE,NEW YORK,NY,10016,Manhattan,40.750432,-73.978591
OTTO PARK LLC,2125755335,211 MCGUINNESS BLVD,BROOKLYN,NY,11222,Brooklyn,40.729615,-73.951213
5 STARS PARKING INC,9172140583,120 UNION AVE,BROOKLYN,NY,11206,Brooklyn,40.704303,-73.950046
240 RIVERSIDE PARKING LLC,2126869800,240 RIVERSIDE BLVD,NEW YORK,NY,10069,Manhattan,40.780296,-73.986964
221 EAST 36TH STREET GARAGE LLC,6465840409,221 E 36TH ST,NEW YORK,NY,10016,Manhattan,40.74673,-73.976176
QUIK PARK 150 CHARLES STREET GARAGE LLC,212-832-2066,150 CHARLES ST,NEW YORK,NY,10014,Manhattan,40.733928,-74.00895
LM WOLVERINE PARKING LLC.,2127143571,282 S 5TH ST,BROOKLYN,NY,11211,Brooklyn,40.709167,-73.958032
214 WEST 88TH STREET GARAGE LLC,6465840409,214 W 88TH ST,NEW YORK,NY,10024,Manhattan,40.789344,-73.97517
LHL PARKING CO LLC,212-213-9600,242 W 53RD ST,NEW YORK,NY,10019,Manhattan,40.763738,-73.98398
QB 71ST AVENUE PARKING LLC,7187865555,10820 71ST AVE,FOREST HILLS,NY,11375,Queens,40.721713,-73.842964
VANCITY PARKING INC,9173277488,355 E 72ND ST,NEW YORK,NY,10021,Manhattan,40.76811,-73.956298
PARK KWIK LLC,2129745840,286 ASHLAND PL,BROOKLYN,NY,11217,Brooklyn,40.68667,-73.978208
PARK KWIK LLC,2129745840,60 WATER ST,BROOKLYN,NY,11201,Brooklyn,40.703209,-73.991801
LAIGHT STREET PARKING  LLC,212-686-9800,416 WASHINGTON ST,NEW YORK,NY,10013,Manhattan,40.722466,-74.01064
QUIK PARK GEM GARAGE LLC,212-832-2066,44 W 47TH ST,NEW YORK,NY,10036,Manhattan,40.757364,-73.980517
59-61 WEST 36TH STREET PARKING CORP,212-736-7171,59 W 36TH ST,NEW YORK,NY,10018,Manhattan,40.750853,-73.986053
LAZ PARKING NEW YORK / NEW JERSEY LLC,7104042575,555 WAVERLY AVE,BROOKLYN,NY,11238,Brooklyn,40.681888,-73.965488
PEAK TIME PARKING INC.,9174705093,225 E 63RD ST,NEW YORK,NY,10065,Manhattan,40.763626,-73.963434
"LIBERTY VIEW PARKING, LLC",2128422305,2 RIVER TER,NEW YORK,NY,10282,Manhattan,40.715401,-74.016269
150 charles Street Garage LLC,6465840409,150 CHARLES ST,NEW YORK,NY,10014,Manhattan,40.733928,-74.00895
38 SIXTH AVENUE PARKING CORP,212-736-7171,38 6TH AVE,BROOKLYN,NY,11217,Brooklyn,40.681966,-73.974222
254 WEST 79TH STREET PARKING CORP,212-736-7171,252 W 79TH ST,NEW YORK,NY,10024,Manhattan,40.78413,-73.981084
SP PLUS CORPORATION,2123217621,333 SCHERMERHORN ST,BROOKLYN,NY,11217,Brooklyn,40.687204,-73.981131
MODA CAR PARK LLC,212-996-6363,8914 PARSONS BLVD,JAMAICA,NY,11432,Queens,40.705484,-73.801764
390 MADISON PARKING CORP.,2127367171,390 MADISON AVE,NEW YORK,NY,10017,Manhattan,40.755752,-73.977339
GGG PARKING GARAGE CORP.,9175573711,920 WESTCHESTER AVE,BRONX,NY,10459,Bronx,40.821624,-73.897449
O & A PARKING GARAGE INC.,7184839458,1100 FRANKLIN AVE,BRONX,NY,10456,Bronx,40.827776,-73.906175
LM ALDUS PARKING LLC,2127143571,951 HOE AVE,BRONX,NY,10459,Bronx,40.822668,-73.890535
LM ALDUS PARKING LLC,2127143571,941 Hoe Avenue,Bronx,NY,10459,Bronx,40.821884,-73.890465
PARKING VERNON LLC,2015678110,3085 VERNON BLVD,ASTORIA,NY,11102,Queens,40.769441,-73.934681
BAJRAKTARI REALTY MANAGEMENT CORP,7183654310,617 East 188th Street,Bronx,NY,10458,Bronx,40.856243,-73.886192
"CENTRAL PARKING SYSTEM OF NEW YORK,INC.",2126296602,169 CADMAN PLZ W,BROOKLYN,NY,11201,Brooklyn,40.700233,-73.990664
BK PARKING GROUP INC,9173277488,27 W 170TH ST,BRONX,NY,10452,Bronx,40.840918,-73.91929
"CENTRAL PARKING SYSTEM OF NEW YORK,INC.",2126296602,808 7TH AVE; # 820,NEW YORK,NY,10019,,40.762643,-73.982357
"CENTRAL PARKING SYSTEM OF NEW YORK,INC.",2123052718,115 FORT WASHINGTON AVE,NEW YORK,NY,10032,Manhattan,40.839643,-73.943511
AZ PARKING CORP,2125484370,35 W 33RD ST,NEW YORK,NY,10001,Manhattan,40.748664,-73.986901
SUPERB PARKING LLC,2126869800,400 E 35TH ST,NEW YORK,NY,10016,Manhattan,40.7443,-73.973027
MANHATTAN PARKING WEST 20 LLC,212-490-3460,516 W 20TH ST,NEW YORK,NY,10011,Manhattan,40.746217,-74.00674
52 WEST 36TH ST. PARKING LLC,2126869800,59 W 36TH ST,NEW YORK,NY,10018,Manhattan,40.750853,-73.986053
QUIK PARK SCH GARAGE LLC,2128322066,236 LIVINGSTON ST,BROOKLYN,NY,11201,Brooklyn,40.689122,-73.98487
"FIFTH AVENUE CAR PARK, LLC",2129966363,1330 5TH AVE,NEW YORK,NY,10026,Manhattan,40.797865,-73.948735
ALVA 47 PARKING LLC,2126869800,257 W 47TH ST,NEW YORK,NY,10036,Manhattan,40.760163,-73.986626
375 HUD PARKING LLC,2126869800,375 HUDSON ST,NEW YORK,NY,10014,Manhattan,40.728418,-74.007368
323 WEST 34TH STREET LLC,2124903460,323 W 34TH ST,NEW YORK,NY,10001,Manhattan,40.752859,-73.994641
JKH BUSINESS CORP,,1579 UNDERCLIFF AVE,BRONX,NY,10453,Bronx,40.84839,-73.922751
SKY PARKING CORP.,2126083060,121 READE ST,NEW YORK,NY,10013,Manhattan,40.716208,-74.009488
JO DASH PARKING LLC,2126869800,488 3RD AVE,NEW YORK,NY,10016,Manhattan,40.745371,-73.978647
167 EAST 77TH ST PARKING SERVICES LLC,6467734400,176 E 77TH ST,NEW YORK,NY,10075,Manhattan,40.772981,-73.958543
"SALVATOR, JOSEPH",3475895454,284 NASSAU AVE,BROOKLYN,NY,11222,Brooklyn,40.726025,-73.939207
"OCHRE CAR PARK, LLC",2129966363,625 ATLANTIC AVE,BROOKLYN,NY,11217,Brooklyn,40.683672,-73.975573
CLINTON HILL GARAGE CORP.,3476023636,240 VANDERBILT AVE,BROOKLYN,NY,11205,Brooklyn,40.690104,-73.969451
1065 GARAGE LLC,2128887400,1065 PARK AVE,NEW YORK,NY,10128,Manhattan,40.780908,-73.95632
QUIK PARK EAST 94TH STREET LLC,2126869800,1829 1ST AVE,NEW YORK,NY,10128,Manhattan,40.782416,-73.94558
"300 EAST 74TH STREET CAR PARK, LLC",2129966363,300 E 74TH ST,NEW YORK,NY,10021,Manhattan,40.769846,-73.95717
SLATE PARKING CORP.,2126296602,329 E 21ST ST,NEW YORK,NY,10010,Manhattan,40.736033,-73.980241
"CENTRAL PARKING SYSTEM OF NEW YORK,INC.",2125025490,215 S END AVE,NEW YORK,NY,10280,Manhattan,40.709579,-74.016796
SUPER ELITE PARKING INC,9174705093,3815 PUTNAM AVE W,BRONX,NY,10463,Bronx,40.885052,-73.89875
EAGLE PARKING GARAGE INC,3472207660,775 EAGLE AVE,BRONX,NY,10456,Bronx,40.820328,-73.909309
"CENTRAL PARKING SYSTEM OF NEW YORK,INC.",2126296602,332 W 44TH ST,NEW YORK,NY,10036,Manhattan,40.759131,-73.990523
"J & B PARKING GARAGE, INC.",2125433328,477 W 165TH ST,NEW YORK,NY,10032,Manhattan,40.837878,-73.937586
"FORBES, DUDLEY",718-277-3866,447 EUCLID AVE,BROOKLYN,NY,11208,Brooklyn,40.676337,-73.872013
"CENTRAL PARKING SYSTEM OF NEW YORK,INC.",2126296602,330 E 61ST ST,NEW YORK,NY,10065,Manhattan,40.761125,-73.961932
115 WEST 25TH STREET PARKING CORP.,2122439808,112 W 25TH ST,NEW YORK,NY,10001,Manhattan,40.744374,-73.9927
RIBAR PARKING LLC,2129293041,160 W 10TH ST,NEW YORK,NY,10014,Manhattan,40.734319,-74.001951
NEW OGDEN PARKING INC.,7184662000,156 W 166TH ST,BRONX,NY,10452,Bronx,40.835772,-73.928618
"KINNEY PARKING SYSTEM, LLC",2125025490,215 W 87TH ST,NEW YORK,NY,10024,Manhattan,40.788666,-73.974764
YORK & 90TH PARKING LLC,2126869800,1731 YORK AVE,NEW YORK,NY,10128,Manhattan,40.778636,-73.945255
SP PLUS CORPORATION,2125025490,910 9TH AVE,NEW YORK,NY,10019,Manhattan,40.768847,-73.984786
LOWER EAST SIDE DISTRICT MANAGEMENT ASSOCIATION INC,212-276-9010,135 DELANCEY ST,NEW YORK,NY,10002,Manhattan,40.718082,-73.987331
"CENTRAL PARKING SYSTEM OF NEW YORK,INC.",9999999999,100 W 57TH ST,NEW YORK,NY,10019,Manhattan,40.764316,-73.977601
CANDACE PARKING CORP.,2124903460,120 W 97TH ST,NEW YORK,NY,10025,Manhattan,40.793931,-73.968312
GMH PARK INC,9172140583,2330 HOFFMAN ST,BRONX,NY,10458,Bronx,40.85461,-73.88953
337 PARKING LLC,2128799796,337 E 64TH ST,NEW YORK,NY,10065,Manhattan,40.76309,-73.960262
SCR PARKING CORP.,2122493344,169 E 87TH ST,NEW YORK,NY,10128,Manhattan,40.779907,-73.954209
FLATIRON 20 PARKING LLC,2122439384,21 W 20 ST,NEW YORK,NY,10011,Manhattan,40.740364,-73.992318
"KINNEY PARKING SYSTEM, LLC",2124450172,2500 JOHNSON AVE,BRONX,NY,10463,Bronx,40.877019,-73.917349
UPPER MANHATTAN PARKING LLC,2124211117,1845 PARK AVE,NEW YORK,NY,10035,Manhattan,40.806328,-73.937788
NEW YORK PARKING 57TH ST. CORP.,2122493344,110 E 57TH ST,NEW YORK,NY,10022,Manhattan,40.761231,-73.97026
CHATHAM PARKING SYSTEMS INC.,2125137143,180 PARK ROW,NEW YORK,NY,10038,Manhattan,40.713513,-73.999536
"ACCESS 37 PARKING, LLC",2126869800,404 W 37TH ST,NEW YORK,NY,10018,Manhattan,40.755357,-73.99534
"LAZ PARKING NEW YORK, NEW JERSEY LLC",2122652239,279 AVENUE C,NEW YORK,NY,10009,Manhattan,40.730124,-73.974806
SHARP PARKING LLC,2126869800,825 2ND AVE,NEW YORK,NY,10017,Manhattan,40.75129,-73.971363
NEW YORK PARKING 56TH ST. CORP,212-249-3349,65 W 56TH ST,NEW YORK,NY,10019,Manhattan,40.763595,-73.977296
"IMPERIAL PARKING (U.S.), LLC",2129378660,450 E 79TH ST,NEW YORK,NY,10075,Manhattan,40.771725,-73.951889
BRICIN PARKING CORP.,2127565451,155 E 55TH ST,NEW YORK,NY,10022,Manhattan,40.759347,-73.969139
"ATLANTIC PARKING MGMT, LLC",2127957275,238 ATLANTIC AVE,BROOKLYN,NY,11201,Brooklyn,40.689195,-73.991361
ROYAL 89 PARKING LLC,2126869800,200 E 89TH ST,NEW YORK,NY,10128,Manhattan,40.780423,-73.952162
"IMPERIAL PARKING (U.S), LLC",2129378660,422-446 79TH STREET,NEW YORK,NY,,,40.771996,-73.952376
65 WEST 55TH STREET PARKING CORP,2127367171,57 W 55TH ST,NEW YORK,NY,10019,Manhattan,40.762521,-73.976144
ONE PARKING 40TH STREET INC,480-272-2100,225 E 39TH ST,NEW YORK,NY,10016,Manhattan,40.748478,-73.974655
EAST 29 PARKING LLC,2122624771,39 E 29TH ST,NEW YORK,NY,10016,Manhattan,40.744312,-73.984225
CP PARKING CORP.,9175785635,13331 39TH AVE,FLUSHING,NY,11354,Queens,40.759818,-73.832935
REX PARKING CORP.,5166984240,532 W 53RD ST,NEW YORK,NY,10019,Manhattan,40.766917,-73.991529
PIERCE PARKING LLC,2127143571,80 W END AVE,NEW YORK,NY,10023,Manhattan,40.774154,-73.988372
"CENTRAL PARKING SYSTEM OF NEW YORK,INC.",2125025490,34 RIVER TER,NEW YORK,NY,10282,Manhattan,40.717857,-74.015311
WALL PARK 45 LLC,2126869800,45 WALL ST,NEW YORK,NY,10005,Manhattan,40.706421,-74.009795
ALLIANCE AMHERST PARKING LLC,2125810535,401 E 74TH ST,NEW YORK,NY,10021,Manhattan,40.76898,-73.954451
CONTINENTAL TOWERS PARKING LLC,2126501936,301 E 79TH ST,NEW YORK,NY,10075,Manhattan,40.773267,-73.954405
"IMPERIAL PARKING US, LLC",2129378660,40 PROSPECT ST,STATEN ISLAND,NY,10304,Staten Island,40.62848,-74.075968
QUIK PARK WEST 41ST STREET LLC,212-686-9800,601 W 41ST ST,NEW YORK,NY,10036,Manhattan,40.760393,-73.999086
WELCOME PARKING LIMITED LIABILITY COMPANY,2016807129,128 W 42ND ST,NEW YORK,NY,10036,Manhattan,40.755107,-73.984902
COOPER & 9TH PARKING LLC,212-686-9800,70 E 10TH ST,NEW YORK,NY,10003,Manhattan,40.731287,-73.991086
"BOGOPA LIC, INC.",7183466500,4202 NORTHERN BLVD,LONG IS CITY,NY,11101,Queens,40.752429,-73.921704
BROTHERS CAR PARK LLC,2122216111,180 MONTAGUE ST,BROOKLYN,NY,11201,Brooklyn,40.693984,-73.99189
162 PARKING MGMT LLC.,,528 W 162ND ST,NEW YORK,NY,10032,Manhattan,40.836528,-73.941319
WEST FARMS PARKING LLC,,1512 BOONE AVE,BRONX,NY,10460,Bronx,40.832362,-73.885363
LEMAR PARKING CORP.,718-681-7406,519 W 161ST ST,NEW YORK,NY,10032,Manhattan,40.835941,-73.941334
NOBLE PARKING LLC,212-686-9800,310 E 40TH ST,NEW YORK,NY,10016,Manhattan,40.748023,-73.972316
"BEST BUY AUTOMOTIVE, INC.",7188636816,1855 E TREMONT AVE,BRONX,NY,10460,Bronx,40.84107,-73.86541
GRACIE PUBLIC PARKING CORP.,2127367171,401 E 89TH ST,NEW YORK,NY,10128,Manhattan,40.778791,-73.947664
"CENTRAL PARKING SYSTEM OF NEW YORK,INC.",2125025490,800 AVENUE OF THE AMERICAS,NEW YORK,NY,10001,Manhattan,40.745342,-73.990486
GM PARK GROUP INC,6466100315,110 BROADWAY,BROOKLYN,NY,11249,Brooklyn,40.710234,-73.964892
"CENTRAL PARKING SYSTEM OF NEW YORK, INC",2126954568,4007 73RD ST,WOODSIDE,NY,11377,Queens,40.746436,-73.892099
"CENTRAL PARKING SYSTEM OF NEW YORK,INC.",7185887800,20 E 161ST ST,BRONX,NY,10451,Bronx,40.829209,-73.929383
"CENTRAL PARKING SYSTEM OF NEW YORK, INC",2125025490,75 PARK PLACE,NEW YORK,NY,10016,Manhattan,40.714303,-74.011287
SECURE PARKING LLC,2126869800,363 W 30TH ST,NEW YORK,NY,10001,Manhattan,40.750823,-73.997765
"KINNEY PARKING SYSTEM, LLC",2125025490,38 W 46TH ST,NEW YORK,NY,10036,Manhattan,40.756706,-73.980883
ZR PARKING LLC,6314212686,3538 JUNCTION BLVD,CORONA,NY,11368,Queens,40.742169,-73.867326
VICTOR GARAGE CORP.,7188559571,275 PARK AVE,BROOKLYN,NY,11205,Brooklyn,40.696109,-73.968135
QUIK PARK BPC LLC,2128322066,70 LITTLE WEST ST,NEW YORK,NY,10004,Manhattan,40.707046,-74.016671
189 PKG LLC,917-731-2034,4741 PARK AVE,BRONX,NY,10458,Bronx,40.860327,-73.891744
TOWER 25 PARKING LLC,2126869800,305 E 24TH ST,NEW YORK,NY,10010,Manhattan,40.738487,-73.980025
"ST. ANN'S PARKING GARAGE, LLC",7184080141,800 SAINT ANNS AVE,BRONX,NY,10456,Bronx,40.820768,-73.909899
"DIAMOND 1 PARKING GARAGE, INC.",347-843-5023,284 DYCKMAN ST,NEW YORK,NY,10034,Manhattan,40.866995,-73.929293
AMPCO SYSTEM PARKING,2127542678,750 LEXINGTON AVE,NEW YORK,NY,10022,Manhattan,40.762515,-73.968556
"CENTRAL PARKING SYSTEM OF NEW YORK,INC.",2126296602,25 W 48TH ST,NEW YORK,NY,10020,Manhattan,40.75829,-73.980237
SP PLUS CORPORATION,2125025490,226 BATTERY PARK CITY,NEW YORK,NY,10280,,40.706895,-74.017799
130 ST. FELIX STREET PARKING CORP.,2127419009,130 SAINT FELIX ST,BROOKLYN,NY,11217,Brooklyn,40.686568,-73.977461
QUIK PARK RIVERSIDE GARAGE LLC,2128322066,779 RIVERSIDE DR,NEW YORK,NY,10032,Manhattan,40.83497,-73.947685
142 WEST 57TH STREET PARKING CORP.,2127367171,146 W 57TH ST,NEW YORK,NY,10019,Manhattan,40.764996,-73.979205
"CONEY ISLAND COMMONS PARKING, CORP",7182850102,2960 W 29TH ST,BROOKLYN,NY,11224,Brooklyn,40.573764,-73.995225
SOHO VILLAGE PARKING LLC,212-686-9800,610 BROADWAY,NEW YORK,NY,10012,Manhattan,40.725685,-73.996271
PARK MERCER LLC,212-360-6300,139 CHARLES ST,NEW YORK,NY,10014,Manhattan,40.734246,-74.008048
"CENTRAL PARKING SYSTEM OF NEW YORK,INC.",2126296602,120 W 21ST ST,NEW YORK,NY,10011,Manhattan,40.741957,-73.994819
HILLSIDE AVE PARKING LOT CORP,7187396270,17535 HILLSIDE AVE,JAMAICA,NY,11432,Queens,40.712149,-73.78659
"STATE STREET PARKING, LLC",973-643-7700,71 SMITH ST,BROOKLYN,NY,11201,Brooklyn,40.689284,-73.9885
"SESSANTA PARKING CO., LLC",2128429308,229 W 60TH ST,NEW YORK,NY,10023,Manhattan,40.771809,-73.988724
SAN MIGUEL PARK CORP,9172153295,1740-1746 ANDREWS AVE,BRONX,NY,10453,Bronx,40.850397,-73.916992
REED PARKING CORP.,2124903460,10025 QUEENS BLVD,FOREST HILLS,NY,11375,Queens,40.727058,-73.852462
"KINNEY PARKING SYSTEM, LLC",2125025490,56 N MOORE ST,NEW YORK,NY,10013,Manhattan,40.719921,-74.009307
MPC PARKING LLC,2126869800,1104 2ND AVE,NEW YORK,NY,10022,Manhattan,40.759832,-73.964801
86 ST. PARKING GARAGE CORP.,7186514273,8610 ROOSEVELT AVE,JACKSON HTS,NY,11372,Queens,40.748834,-73.874161
J & A PARKING INC,7186180992,376 E 184TH ST,BRONX,NY,10458,Bronx,40.857488,-73.895858
GEMAT PARKING CORP.,2124220423,233 E 69TH ST,NEW YORK,NY,10021,Manhattan,40.767183,-73.960269
"IMPERIAL PARKING (U.S.), LLC",212-934-8660,353 4TH AVE,BROOKLYN,NY,11215,Brooklyn,40.672896,-73.986312
73RD STREET PARKING CORP.,2127367171,1257 3RD AVE,NEW YORK,NY,10021,Manhattan,40.769933,-73.96033
"KINNEY PARKING SYSTEM, LLC",2125025490,6575 SAUNDERS ST,REGO PARK,NY,11374,Queens,40.727103,-73.856915
CREST CAR PARK LLC,718-499-1235,302 2ND ST,BROOKLYN,NY,11215,Brooklyn,40.674337,-73.984975
"CENTRAL PARKING SYSTEM OF NEW YORK,INC.",2126296602,1900 ARCHER ST,BRONX,NY,10462,Bronx,40.837826,-73.862818
RYER PARKING LLC,6463771900,2346 RYER AVE,BRONX,NY,10458,Bronx,40.858366,-73.898413
EZ PARKING GARAGE INC,3472207660,870 JENNINGS ST,BRONX,NY,10459,Bronx,40.832434,-73.892133
"KINNEY PARKING SYSTEM, LLC",2125025490,135 E 33RD ST,NEW YORK,NY,10016,Manhattan,40.745937,-73.980659
"CENTRAL PARKING SYSTEM OF NEW YORK,INC.",2126296602,882 7TH AVE,NEW YORK,NY,10019,Manhattan,40.764869,-73.980795
STATE PREMIER PROPERTY INC.,7188610321,1325 BOSTON RD,BRONX,NY,10456,Bronx,40.831934,-73.899409
QUIK PARK EAST 73RD ST LLC,212-832-2066,524 E 73RD ST,NEW YORK,NY,10021,Manhattan,40.766841,-73.951856
STANDARD PARKING CORPORATION,2129163491,200 W 79TH ST,NEW YORK,NY,10024,Manhattan,40.783115,-73.978772
ENTERPRISE 30TH STREET GARAGE LLC,2127442277,343 10TH AVE,NEW YORK,NY,10001,Manhattan,40.752096,-74.001237
MANHATTAN PARKING BORO CORP,2124903460,40 CLINTON ST,BROOKLYN,NY,11201,Brooklyn,40.695501,-73.991983
EZY PARKING GO INC,7182944264,930 SHERIDAN AVE,BRONX,NY,10451,Bronx,40.827608,-73.920316
189 park llc,917-731-2034,4741 PARK AVE,BRONX,NY,10458,Bronx,40.860327,-73.891744
M H M PARKING LLC,2126869800,560 3RD AVE,NEW YORK,NY,10016,Manhattan,40.747837,-73.97685
NR PARKING CORP,3478125297,615 JACKSON AVE,BRONX,NY,10455,Bronx,40.815168,-73.908538
REGAL PARKING CORP.,2127367171,9810 64TH AVE,REGO PARK,NY,11374,Queens,40.73029,-73.858106
"CHAMPION PARKING 16, LLC",2123085959,101 E 16TH ST,NEW YORK,NY,10003,Manhattan,40.735906,-73.988972
PV PARKING V CORP,7186094200,4007 73RD ST,WOODSIDE,NY,11377,Queens,40.746436,-73.892099
ENTERPRISE 36TH STREET PARKING LLC,212-564-3199,411 W 35TH ST,NEW YORK,NY,10001,Manhattan,40.754397,-73.996369
EMPIRE PARKING CORP.,212-262-4771,303 W 96TH ST,NEW YORK,NY,10025,Manhattan,40.795673,-73.973798
SP PLUS CORPORATION,2125025490,211 W 87TH ST,NEW YORK,NY,10024,Manhattan,40.788616,-73.974674
PARK GATE PARKING INC.,2127367171,750 COLUMBUS AVE,NEW YORK,NY,10025,Manhattan,40.793294,-73.967435
125 CHARLES PARKING LLC,2033212175,139 CHARLES ST,NEW YORK,NY,10014,Manhattan,40.734246,-74.008048
STANDARD PARKING CORPORATION,2123137275,200 CENTRAL PARK W,NEW YORK,NY,10024,Manhattan,40.781348,-73.972781
SP PLUS CORPORATION,2125025490,140 W 28TH ST,NEW YORK,NY,10001,Manhattan,40.746395,-73.991469
ISABEL PARKING LLC,6465840409,20 E 161ST ST,BRONX,NY,10451,Bronx,40.829209,-73.929383
776 SIXTH AVE PARKING CORP,2127367171,776 6TH AVE,NEW YORK,NY,10001,Manhattan,40.744651,-73.991418
"MY NEW PARKING, INC.",3475388602,1380 DR MARTIN L KING JR BLVD,BRONX,NY,10452,Bronx,40.842467,-73.925716
"C&S E-SUPERETTE, INC.",718-745-2888,9053 FORT HAMILTON PKWY,BROOKLYN,NY,11209,Brooklyn,40.617109,-74.027102
"IMPERIAL PARKING (U.S.), LLC",2129378660,405 E 63RD ST,NEW YORK,NY,10065,Manhattan,40.76194,-73.959428
E 74TH PARKING CORP.,8009441424,343 E 74TH ST,NEW YORK,NY,10021,Manhattan,40.769538,-73.955767
TLC PARKING INC,3475388602,1600 SEDGWICK AVE,BRONX,NY,10453,Bronx,40.848294,-73.923776
EZ2 PARK LLC,2127446300,240 E 82ND ST,NEW YORK,NY,10028,Manhattan,40.775341,-73.954004
"CENTRAL PARKING SYSTEM OF NEW YORK,INC.",2125025490,117 KENT AVE,BROOKLYN,NY,11249,Brooklyn,40.720225,-73.961459
"CENTRAL PARKING SYSTEM OF NEW YORK,INC.",2125025490,405 E 63RD ST,NEW YORK,NY,10065,Manhattan,40.76194,-73.959428
ENTERPRISE 51 PARKING LLC,2125643199,680 12TH AVE,NEW YORK,NY,10019,Manhattan,40.766885,-73.996356
"PARK 139TH, LLC",2122340855,29 W 138TH ST,NEW YORK,NY,10037,Manhattan,40.815027,-73.936819
GREENWICH STREET GARAGE LLC,6465840409,641 WASHINGTON ST,NEW YORK,NY,10014,Manhattan,40.732263,-74.008568
"WILSHIRE CAR PARK, INC.",2122216111,18230 WEXFORD TER,JAMAICA,NY,11432,Queens,40.714562,-73.780079
786 PARKING CORP,7186180029,3710 CRESCENT ST,LONG ISLAND CITY,NY,11101,Queens,40.756538,-73.935218
CFS 2907 JFK LLC,7183222221,13024 S CONDUIT AVE,JAMAICA,NY,11430,Queens,40.666071,-73.807592
COMFORT PARK LLC,2126869800,301 ELIZABETH ST,NEW YORK,NY,10012,Manhattan,40.724668,-73.993544
"IMPACT CAR PARK, LLC",2122216111,333 W 26TH ST,NEW YORK,NY,10001,Manhattan,40.747729,-73.997934
"CENTRAL PARKING SYSTEM OF NEW YORK, INC",2125025490,158 W 20TH STREET,NEW YORK,NY,10011,Manhattan,40.741608,-73.995512
CHAMPION PARKING 61 LLC,2123085959,1113 YORK AVE,NEW YORK,NY,10065,Manhattan,40.759646,-73.959243
"THE GGG PARKING, INC.",7189015222,1565 JEROME AVE,BRONX,NY,10452,Bronx,40.844013,-73.915266
BELLTEL CAR PARK LLC,212-996-6363 EXT14,101 WILLOUGHBY ST,BROOKLYN,NY,11201,Brooklyn,40.692252,-73.985096
GREENLUX PARKING LLC,2126869800,200 N END AVE,NEW YORK,NY,10282,Manhattan,40.716011,-74.014944
"I. R. PARKING, INC",5169381310,112 W 25TH ST,NEW YORK,NY,10001,Manhattan,40.744374,-73.9927
EHTE PARKING CORP,2128381629,357 E 57TH ST,NEW YORK,NY,10022,Manhattan,40.758569,-73.963097
"QUIK PARK BROOKLYN BRIDGE, LLC",212-832-2066,360 FURMAN ST,BROOKLYN,NY,11201,Brooklyn,40.693422,-73.999548
V.M.C. PARKING INC.,2125312924,316 W 118TH ST,NEW YORK,NY,10026,Manhattan,40.806097,-73.955564
"COVE CAR PARK, LLC",2122216111,3085 VERNON BLVD,ASTORIA,NY,11102,Queens,40.769441,-73.934681
311 PARKING CORP.,2125869760,311 W 50TH ST,NEW YORK,NY,10019,Manhattan,40.762809,-73.987073
9495 PARKING CORP.,2122893800,1832 2ND AVE,NEW YORK,NY,10128,Manhattan,40.783215,-73.947621
200 SCHERMERHORN GARAGE CORP.,2127367171,200 SCHERMERHORN ST,BROOKLYN,NY,11201,Brooklyn,40.688673,-73.98565
"IMPERIAL PARKING (U.S.), INC",2129378660,121 W 125TH ST,NEW YORK,NY,10027,Manhattan,40.808306,-73.946327
"CENTRAL PARKING SYSTEM OF NEW YORK,INC.",2125025490,530 E 73RD ST,NEW YORK,NY,10021,Manhattan,40.767093,-73.952777
"2000 PARKING GARAGE, INC.",3478435023,2000 WHITE PLAINS RD,BRONX,NY,10462,Bronx,40.850228,-73.86764
"CENTRAL PARKING SYSTEM OF NEW YORK,INC.",2125649199,75 PARK PL,NEW YORK,NY,10007,Manhattan,40.714303,-74.011287
COLUMBUS 95 PARKING LLC,2126869800,730 COLUMBUS AVE,NEW YORK,NY,10025,Manhattan,40.792563,-73.968014
GEMAT PARKING CORP.,2125359302,233 E 69TH ST,NEW YORK,NY,10021,Manhattan,40.767183,-73.960269
"CENTRAL PARKING SYSTEM OF NEW YORK,INC.",2125025490,147 W 83RD ST,NEW YORK,NY,10024,Manhattan,40.785231,-73.974534
250 W. 50TH PARKING LLC,2126869800,250 W 50TH ST,NEW YORK,NY,10019,Manhattan,40.761885,-73.985413
"LPARK 2, LLC",2127517033,457 W 150TH ST,NEW YORK,NY,10031,Manhattan,40.828017,-73.94413
QUIK PARK NASSAU LLC,2128322066,150 NASSAU ST,NEW YORK,NY,10038,Manhattan,40.711507,-74.005966
215 E 95TH PARKING LLC,2126869800,207 E 95TH ST,NEW YORK,NY,10128,Manhattan,40.784431,-73.949266
ENTERPRISE TOREN PARKING LLC,2125643199,150 MYRTLE AVE,BROOKLYN,NY,11201,Brooklyn,40.693465,-73.982576
CONVENIENT PARKING LLC,2126869800,215 W 95TH ST,NEW YORK,NY,10025,Manhattan,40.793883,-73.9718
"CENTRAL PARKING SYSTEM OF NEW YORK,INC.",7186254215,351 JAY ST,BROOKLYN,NY,11201,Brooklyn,40.692885,-73.987097
"CENTRAL PARKING SYSTEM OF NEW YORK,INC.",2126296602,403 E 60TH ST,NEW YORK,NY,10022,Manhattan,40.760341,-73.961413
L.E. PARKING INC.,7187780796,65 NEW YORK AVE,BROOKLYN,NY,11216,Brooklyn,40.677868,-73.946821
"CENTRAL PARKING SYSTEM OF NEW YORK,INC.",2125025490,800 AVENUE OF THE AMERICAS,NEW YORK,NY,10001,Manhattan,40.745342,-73.990486
INDOOR PARKING CORP.,2129429804,164 DYCKMAN ST,NEW YORK,NY,10040,Manhattan,40.863817,-73.926398
COSMO PARKING LLC,2129562280,360 W 43RD ST,NEW YORK,NY,10036,Manhattan,40.758758,-73.991582
PARK KWIK LLC,2129745840,211 ATLANTIC AVE,BROOKLYN,NY,11201,Brooklyn,40.689521,-73.991336
W. 28TH GARAGE PARKING LLC,2126869800,241 W 28TH ST,NEW YORK,NY,10001,Manhattan,40.747857,-73.994163
282 SOUTH 5TH PARKING LLC,212-837-4590,282 S 5TH ST,BROOKLYN,NY,11211,Brooklyn,40.709167,-73.958032
KIPS BAY 27 PARKING LLC,2126869800,236 E 27TH ST,NEW YORK,NY,10016,Manhattan,40.740598,-73.979947
"350 WEST 43RD CAR PARK, LLC",212-996-6363,350 W 43RD ST,NEW YORK,NY,10036,Manhattan,40.758605,-73.991218
QUIK PARK WEST 58TH LLC,2128322066,116 CENTRAL PARK S,NEW YORK,NY,10019,Manhattan,40.765894,-73.977132
"252 PARKING, LLC",212-837-4509,252 SCHERMERHORN ST,BROOKLYN,NY,11217,Brooklyn,40.688025,-73.983988
"STRAND PARKING MGMT, LLC",2127957275,500 W 43RD ST,NEW YORK,NY,10036,Manhattan,40.760253,-73.99538
BENEFICIAL 21 PARKING LLC,2126869800,329 E 21ST ST,NEW YORK,NY,10010,Manhattan,40.736033,-73.980241
PV PARKING CORP,718-609-1200,3411 STEINWAY ST,LONG IS CITY,NY,11101,Queens,40.75637,-73.920927
"CENTRAL PARKING SYSTEM OF NEW YORK, INC",2125025490,115 E 87TH ST,NEW YORK,NY,10128,Manhattan,40.780665,-73.955854
CA-LI AUTOMATIC TRANSMISSION CORP.,2128640137,103 W 108TH ST,NEW YORK,NY,10025,Manhattan,40.800879,-73.962445
EZY PARKING GO INC,7182944264,1981 CEDAR AVE,BRONX,NY,10452,Bronx,40.857557,-73.916701
"BROOK PARKING GARAGE, INC.",7185888328,418 E 167TH ST,BRONX,NY,10456,Bronx,40.830338,-73.909684
UNION SQUARE CAR PARK LLC,2129966363,1 IRVING PL,NEW YORK,NY,10003,Manhattan,40.734564,-73.988525
222 WEST 14TH STREET PARKING CORP.,2122485900,222 W 14TH ST,NEW YORK,NY,10011,Manhattan,40.739027,-74.001197
301 PARK CORP.,2124730135,301 E 64TH ST,NEW YORK,NY,10065,Manhattan,40.763723,-73.96176
QUIK PARK 801 GARAGE LLC,2128322066,801 AMSTERDAM AVE,NEW YORK,NY,10025,Manhattan,40.796138,-73.968618
"CENTRAL PARKING SYSTEM OF NEW YORK, INC",2125025490,115 FORT WASHINGTON AVE,NEW YORK,NY,10032,Manhattan,40.839643,-73.943511
1050 FIFTH AVENUE PARKING CORP,9172615152,1050 5TH AVE,NEW YORK,NY,10028,Manhattan,40.781615,-73.960139
FEDERAL REALTY LIMITED PARTNERSHIP,7185754692,9777 QUEENS BLVD,REGO PARK,NY,11374,Queens,40.728984,-73.858349
WORLD PARKING GARAGE LLC,2125643199,1 CENTRAL PARK W,NEW YORK,NY,10023,Manhattan,40.769092,-73.981406
"CENTRAL PARKING SYSTEM OF NEW YORK,INC.",7183698185,500 5TH AVE,BROOKLYN,NY,11215,Brooklyn,40.667299,-73.988053
"87-10 NORTHERN BLVD PARKING, LLC",9175924762,3306 88TH ST,JACKSON HEIGHTS,NY,11372,Queens,40.752223,-73.879104
"OCEAN CAR PARK, LLC",2129966363,17 BATTERY PL,NEW YORK,NY,10004,Manhattan,40.705142,-74.016011
MANHATTAN PARKING SYSTEM - WEST 58TH. ST. CORP.,212-308-5959,200 E 67TH ST,NEW YORK,NY,10065,Manhattan,40.766409,-73.962929
"PARK IN AUTO SERVICES, INC.",2129661186,71 KENMARE ST,NEW YORK,NY,10012,Manhattan,40.721216,-73.996106
METROPOLITAN PARKING GROUP LLC,2124903460,4172 BROADWAY,NEW YORK,NY,10033,Manhattan,40.847368,-73.937973
"TIMES SQUARE GARAGE, LLC",2125025490,141 W 43RD ST,NEW YORK,NY,10036,Manhattan,40.756324,-73.985284
SHERWOOD 21 GARAGE LLC,2129808000,500 W 21ST ST,NEW YORK,NY,10011,Manhattan,40.746453,-74.005484
QUIK PARK COOPER LLC,2128322066,301 E 86TH ST,NEW YORK,NY,10028,Manhattan,40.778025,-73.951743
WOOSTER PARKING CORP.,212-929-9404,349 CANAL ST,NEW YORK,NY,10013,Manhattan,40.720794,-74.003561
STANDARD PARKING CORPORATION,7185887802,951 RIVER AVE,BRONX,NY,10452,Bronx,40.830531,-73.924642
"CENTRAL PARKING SYSTEM OF NEW YORK,INC.",2125025490,5 E 102ND ST,NEW YORK,NY,10029,Manhattan,40.79155,-73.952295
VINCENT 15 PARKING LLC,2126869800,553 AVENUE OF THE AMERICAS,NEW YORK,NY,10011,Manhattan,40.738193,-73.996337
CROYDEN PARKING LLC,2129562280,12 E 86TH ST,NEW YORK,NY,10028,Manhattan,40.780989,-73.959526
INTERTOWN PARKING CORP.,2127367171,55 E END AVE,NEW YORK,NY,10028,Manhattan,40.772152,-73.946576
CHAMPION PARKING 77 LLC,2123085959,219 W 77TH ST,NEW YORK,NY,10024,Manhattan,40.78235,-73.979906
IMPERIAL PARKING US LLC,2125573311,80 PARK AVE,NEW YORK,NY,10016,Manhattan,40.750171,-73.979399
"CENTRAL PARKING SYSTEM OF NEW YORK,INC.",2126296602,4017 MAIN ST,FLUSHING,NY,11354,Queens,40.760279,-73.830388
"CENTRAL PARKING SYSTEM OF NEW YORK,INC.",2126296602,27 W 52ND ST,NEW YORK,NY,10019,Manhattan,40.760278,-73.976864
STANDARD PARKING CORPORATION,7188971220,10460 QUEENS BLVD,FOREST HILLS,NY,11375,Queens,40.723088,-73.849281
444 MANHATTAN PARKING CORP.,,309 W 118TH ST,NEW YORK,NY,10026,Manhattan,40.806121,-73.954991
"C21 PARKING MGMT, LLC",212-795-7275,416 87TH ST,BROOKLYN,NY,11209,Brooklyn,40.621539,-74.028115
CLARIDGE 87 PARKING LLC,2126869800,201 E 87TH ST,NEW YORK,NY,10128,Manhattan,40.779574,-73.952723
GM PARK GROUP INC,6466100315,116 NOSTRAND AVE,BROOKLYN,NY,11205,Brooklyn,40.69625,-73.952874
k one parking inc,3478545507,2160 WEBSTER AVE,BRONX,NY,10457,Bronx,40.853785,-73.896582
"KINNEY PARKING SYSTEM, LLC",2125025490,58 W 58TH ST,NEW YORK,NY,10019,Manhattan,40.764572,-73.976207
QUIK PARK ELY GARAGE II LLC,2126869800,180 MYRTLE AVE,BROOKLYN,NY,11201,Brooklyn,40.693422,-73.980454
BETH PARKING CORP.,2127533100,225 RECTOR PL,NEW YORK,NY,10280,Manhattan,40.709296,-74.016123
KK ENTERPRISE GROUP INC.,9173277488,554 W 182ND ST,NEW YORK,NY,10033,Manhattan,40.849385,-73.932362
MP WEST 57TH LLC,2124903460,9 W 57TH ST,NEW YORK,NY,10019,Manhattan,40.76379,-73.975182
"MUSS, HYMAN - ET AL",7182633800,11835 QUEENS BLVD,FOREST HILLS,NY,11375,Queens,40.715129,-73.830543
CHAMPION PARKING 230 LLC,2123085959,230 WEST   55 STREET,NEW YORK,NY,10019,,40.764798,-73.982667
ENTERPRISE 40TH PARKING CORP.,2127367171,315 E 40TH ST,NEW YORK,NY,10016,Manhattan,40.748127,-73.971908
ENTERPRISE WASHINGTON PARKING LLC,2126270012,545 WASHINGTON AVE,BROOKLYN,NY,11238,Brooklyn,40.681857,-73.964331
"IMPERIAL PARKING (U.S.), LLC",2129378660,12601 ROOSEVELT AVE,FLUSHING,NY,11368,Queens,40.755487,-73.845139
ENTERPRISE 230 PARKING LLC,2126863330,230 E 30TH ST,NEW YORK,NY,10016,Manhattan,40.742596,-73.978924
68 PARKING INC,6469966479,13633 37TH AVE,FLUSHING,NY,11354,Queens,40.761958,-73.829884
"CENTRAL PARKING SYSTEM OF NEW YORK,INC.",2127798311,350 E 30TH ST,NEW YORK,NY,10016,Manhattan,40.741318,-73.975741
"IMPERIAL PARKING (U.S.), LLC",212-934-8660,500 4TH AVE,BROOKLYN,NY,11215,Brooklyn,40.668467,-73.990623
"CARPARK 39TH STREET, LLC",2128661000,80 PARK AVE,NEW YORK,NY,10016,Manhattan,40.750171,-73.979399
1350 SIXTH PARKING LLC,2126809800,1350 6TH AVE,NEW YORK,NY,10019,Manhattan,40.762672,-73.978276
100 Varick Realty LLC,2125343939,403 E 60TH ST,NEW YORK,NY,10022,Manhattan,40.760341,-73.961413
"CENTRAL PARKING SYSTEM OF NEW YORK,INC.",2126296602,135 E 47TH ST,NEW YORK,NY,10017,Manhattan,40.754629,-73.973443
PARK RIGHT CORPORATION,2122624771,307 SAINT MARKS AVE,BROOKLYN,NY,11238,Brooklyn,40.677975,-73.965233
99 JANE STREET PARKING LLC,212-686-9800,99 JANE ST,NEW YORK,NY,10014,Manhattan,40.738225,-74.008687
GMH PARK INC,9172140583,5229 BROADWAY,BRONX,NY,10463,Bronx,40.875378,-73.909371
"ONE PARKING 703, INC.",4802722100,21010 23RD AVE,BAYSIDE,NY,11360,Queens,40.779948,-73.780741
MOTT PARK LLC,212-564-3199,284 MOTT ST,NEW YORK,NY,10012,Manhattan,40.724364,-73.99421
LENOX 65 PARKING LLC,2126869800,1189 1ST AVE,NEW YORK,NY,10065,Manhattan,40.763021,-73.959712
DYNAMIC PARKING LLC,2126869800,222 E 41ST ST,NEW YORK,NY,10017,Manhattan,40.74957,-73.973945
"IMPERIAL PARKING (U.S.), LLC",2129378660,212 S OXFORD ST,BROOKLYN,NY,11217,Brooklyn,40.68322,-73.972987
"YORKVILLE CAR PARK, LLC",,1635 3RD AVE,NEW YORK,NY,10128,Manhattan,40.782311,-73.951318
EMERALD PARKING SOLUTIONS INC.,3476385589,1600 SEDGWICK AVE,BRONX,NY,10453,Bronx,40.848294,-73.923776
CH RENTAL PARKING LLC,2123483268,414 HICKS ST,BROOKLYN,NY,11201,Brooklyn,40.688335,-73.999683
WELCOME PARKING LIMITED LIABILITY COMPANY,2016807129,8806 VAN WYCK EXPY,JAMAICA,NY,11418,Queens,40.701964,-73.81676
VIP CAPITAL PARKING CORPORATION,2129253331,298 MULBERRY ST,NEW YORK,NY,10012,Manhattan,40.725192,-73.994676
K & R PARKING CORP.,6467376163,1872 E TREMONT AVE,BRONX,NY,10460,Bronx,40.840876,-73.864744
IMPERIAL PARKING US LLC,2129378660,120-01 ROOSEVELT AVENUE,FLUSHING,NY,11368,,40.755624,-73.846364
PF PARKING CORP.,5163781222,24 LEONARD ST,NEW YORK,NY,10013,Manhattan,40.718402,-74.007565
"FLASH 31 MANAGEMENT, LLC",7187880066,124 W 31ST ST,NEW YORK,NY,10001,Manhattan,40.748059,-73.989766
WEST SIDE PARKING CORP.,2122748513,432 WASHINGTON ST,NEW YORK,NY,10013,Manhattan,40.723158,-74.010565
"QSB 267 PROPERTY CO, LLC",,271 W 87TH ST,NEW YORK,NY,10024,Manhattan,40.789341,-73.976321
QUIK PARK CHESAPEAKE LLC,2128322066,400 E 81ST ST,NEW YORK,NY,10028,Manhattan,40.773453,-73.951501
"ESP GROUP OF NEW YORK, INC.",7184697672,354 CLARKSON AVE,BROOKLYN,NY,11226,Brooklyn,40.655342,-73.94805
GRAND CAR PARK LLC,2122216111,110 E 42ND ST,NEW YORK,NY,10017,Manhattan,40.751656,-73.97698
SOUTH WILLIAM PARKING LLC,2126869800,16 S WILLIAM ST,NEW YORK,NY,10004,Manhattan,40.704813,-74.010498
IMPARK NORTH END LLC,2129378660,211 N END AVE,NEW YORK,NY,10282,Manhattan,40.716315,-74.01531
EZY PARKING INC.,7182944264,930 SHERIDAN AVE,BRONX,NY,10451,Bronx,40.827608,-73.920316
EASTSIDE PARKING LLC,2123558890,45 SUTTON PL S,NEW YORK,NY,10022,Manhattan,40.75563,-73.961572
SAB PARKING INC.,6468610883,200 E END AVE,NEW YORK,NY,10128,Manhattan,40.777364,-73.943355
PARKING 56 LLC,6467734400,33 W 56TH ST,NEW YORK,NY,10019,Manhattan,40.763138,-73.976205
REED PARKING CORP.,2124903460,10025 QUEENS BLVD,FLUSHING,NY,11375,Queens,40.727058,-73.852462
MANHATTAN PARKING E 71 ST  CORP,2128619652,311 E 71ST ST,NEW YORK,NY,10021,Manhattan,40.767858,-73.957918
WETHEROLE LLC,7188969896,6574 WETHEROLE ST,REGO PARK,NY,11374,Queens,40.725728,-73.858012
200 EAST PARKING CORP.,2127500254,1081 3RD AVE,NEW YORK,NY,10065,Manhattan,40.764405,-73.964274
"CODY CAR PARK, INC.",2122216111,555 11TH ST,BROOKLYN,NY,11215,Brooklyn,40.664882,-73.980669
QUIK PARK MORTON LLC,,1 MORTON SQ,NEW YORK,NY,10014,Manhattan,40.731028,-74.010076
"CENTRAL PARKING SYSTEM OF NEW YORK,INC.",2125025490,501 E 87TH ST,NEW YORK,NY,10128,Manhattan,40.776582,-73.94627
IMPARK QB LLC,212-937-8660,9277 QUEENS BLVD,REGO PARK,NY,11374,Queens,40.732219,-73.866397
DEAN STREET PARKING CORP.,7183983409,885 DEAN ST,BROOKLYN,NY,11238,Brooklyn,40.678817,-73.960593
QUIK PARK EAST 88TH STREET LLC,2128323022,160 E 88TH ST,NEW YORK,NY,10128,Manhattan,40.780641,-73.954515
"RISING WOLF PARKING GARAGE, LLC",2124755858,336 E 9TH ST,NEW YORK,NY,10003,Manhattan,40.728526,-73.985922
"ABM INDUSTRY GROUPS, LLC",2127576500,1633 BROADWAY,NEW YORK,NY,10019,Manhattan,40.761997,-73.984228
159 WEST 53RD PARKING CORP,2127367171,159 W 53RD ST,NEW YORK,NY,10019,Manhattan,40.762799,-73.981217
LM SUSIE PARKING LLC,2127143571,214 W 95TH ST,NEW YORK,NY,10025,Manhattan,40.793417,-73.971233
403 East 60th Street Parking LLC,,403 E 60TH ST,NEW YORK,NY,10022,Manhattan,40.760341,-73.961413
8TH STREET PARKING LLC,2126869800,11 5TH AVE,NEW YORK,NY,10003,Manhattan,40.732628,-73.995853
PARAMOUNT CAR PARK LLC,2122216111,353 4TH AVE,BROOKLYN,NY,11215,Brooklyn,40.672896,-73.986312
ABLE PARKING LLC,2129299404,160 W 124TH ST,NEW YORK,NY,10027,Manhattan,40.807699,-73.947368
APEX PARKING LLC,2126869800,440 W 57TH ST,NEW YORK,NY,10019,Manhattan,40.76844,-73.987402
"ALLIANCE IMPALA PARKING, LLC",2125810535,404 E 76TH ST,NEW YORK,NY,10021,Manhattan,40.770042,-73.95354
EDISON 9TH AVENUE PARKING CORPORATION,2016432080,440 W 33RD ST,NEW YORK,NY,10001,Manhattan,40.753284,-73.998112
COMMAND PARKING LLC,212-686-9800,1700 BROADWAY,NEW YORK,NY,10019,Manhattan,40.763342,-73.9824
"CENTRAL PARKING SYSTEM OF NEW YORK,INC.",2125025490,15001 89TH AVE,JAMAICA,NY,11432,Queens,40.708756,-73.794374
ONE PARKING 200 PARK INC.,5618337222,200 PARK AVE,NEW YORK,NY,10166,Manhattan,40.753965,-73.976401
201 PEARL PARKING CORP.,2127367171,201 PEARL ST,NEW YORK,NY,10038,Manhattan,40.706892,-74.006743
UPTOWN PARKING GARAGE CORPORATION,6462593636,160 W 124TH ST,NEW YORK,NY,10027,Manhattan,40.807699,-73.947368
TODAY PARKING CORP.,2125696249,284 DYCKMAN ST,NEW YORK,NY,10034,Manhattan,40.866995,-73.929293
STOP-PARK GARAGE CORP.,2126296602,18 MORTON ST,NEW YORK,NY,10014,Manhattan,40.731146,-74.003939
STANDARD PARKING CORPORATION,7182926515,71 E 153RD ST,BRONX,NY,10451,Bronx,40.825823,-73.92913
QUIK PARK TRUFFLES LLC,2128322066,12 E 13TH ST,NEW YORK,NY,10003,Manhattan,40.734892,-73.993364
82ND ST. PARKING GARAGE CORP.,7187794774,3555 82ND ST,JACKSON HEIGHTS,NY,11372,Queens,40.75358,-73.885037
SUTTON 53 PARKING LLC,212-686-9800,410 E 54TH ST,NEW YORK,NY,10022,Manhattan,40.756155,-73.964225
"DISCOUNT PARKING, INC",5166267412,180 ASHLAND PL,BROOKLYN,NY,11217,Brooklyn,40.689469,-73.978659
"KINNEY PARKING SYSTEM, INC.",2125025490,200 E 88TH ST,NEW YORK,NY,10128,Manhattan,40.788989,-73.974302
PPS NEPTUNE LLC,2123606300,360 NEPTUNE AVE,BROOKLYN,NY,11235,Brooklyn,40.580609,-73.965696
"RENOIR CAR PARK, LLC",2129966363,225 E 63RD ST,NEW YORK,NY,10065,Manhattan,40.763626,-73.963434
"CENTRAL PARKING SYSTEM OF NEW YORK,INC.",2125025490,568 UNION AVE,BROOKLYN,NY,11211,Brooklyn,40.717753,-73.951983
"87-10 NORTHERN BLVD PARKING, LLC",9175924762,3306 88TH ST,JACKSON HEIGHTS,NY,11372,Queens,40.752223,-73.879104
"KINNEY PARKING SYSTEM, INC.",212-502-5490,211 E 57TH ST,NEW YORK,NY,10022,Manhattan,40.760289,-73.967287
LTG PARKING CORP.,2126869800,185 W END AVE,NEW YORK,NY,10023,Manhattan,40.777668,-73.986471
207 GARAGE L.L.C.,8004090819,3875 9TH AVE,NEW YORK,NY,10034,Manhattan,40.864066,-73.9166
"90 WASHINGTON CAR PARK, LLC",2129966363,90 WASHINGTON ST,NEW YORK,NY,10006,Manhattan,40.707997,-74.014666
QUIK PARK EAGLE LLC,2128322066,240 E 41ST ST,NEW YORK,NY,10017,Manhattan,40.749333,-73.973483
AMPCO SYSTEM PARKING,2127542678,13 E 54TH ST,NEW YORK,NY,10022,Manhattan,40.760692,-73.974281
POO PARKING CORP.,2124903460,1650 SELWYN AVE,BRONX,NY,10457,Bronx,40.843616,-73.910255
FANDA PARKING LLC,2125945050,340 E 74TH ST,NEW YORK,NY,10021,Manhattan,40.769321,-73.955818
QUIK PARK WEST 50TH STREET LLC,,1633 BROADWAY,NEW YORK,NY,10019,Manhattan,40.761997,-73.984228
GR PARKING INC,3474459514,4007 73RD ST,WOODSIDE,NY,11377,Queens,40.746436,-73.892099
MAESTRO PARKING LLC,2126869800,882 7TH AVE,NEW YORK,NY,10019,Manhattan,40.764869,-73.980795
"ABM INDUSTRY GROUPS, LLC",2127576500,866 UNITED NATIONS PLZ,NEW YORK,NY,10017,Manhattan,40.752316,-73.966039
"ESP GROUP OF NEW YORK, INC.",7184697672,349 LENOX RD,BROOKLYN,NY,11226,Brooklyn,40.654403,-73.948743
ARTHUR MANAGEMENT CORPORATION,7186188021,4400 3RD AVE,BRONX,NY,10457,Bronx,40.85181,-73.892802
LONG ISLAND JEWISH MEDICAL CENTER,7184707764,27117 76TH AVE,NEW HYDE PARK,NY,11040,Queens,40.751297,-73.700985
WEST 31ST GARAGE CORP.,2127367171,148 W 31ST ST,NEW YORK,NY,10001,Manhattan,40.748354,-73.990293
"HOME HOSPITAL PARKING, LLC",2126279822,2621 AQUEDUCT AVE,BRONX,NY,10468,Bronx,40.867066,-73.901118
QUIK PARK TRIBECA II LLC,2126869800,450 WASHINGTON ST,NEW YORK,NY,10013,Manhattan,40.723639,-74.010446
QUIK PARK PCVST GARAGE LLC,2126145862,527 E 14TH ST,NEW YORK,NY,10009,Manhattan,40.730307,-73.979793
ANITA HOLDING LLC,2125642111,9905 63RD DR,REGO PARK,NY,11374,Queens,40.73209,-73.856353
NEPTUNE PARKING LLC,2126869800,486 NEPTUNE AVE,BROOKLYN,NY,11224,Brooklyn,40.579242,-73.972312
GLOBAL PARKING LLC,2126869800,143 W 40TH ST,NEW YORK,NY,10018,Manhattan,40.754634,-73.987333
LAFAYETTE PLACE PARKING LLC,2127771659,445 LAFAYETTE ST,NEW YORK,NY,10003,Manhattan,40.729535,-73.991398
"ABM INDUSTRY GROUPS, LLC",2127576500,750 LEXINGTON AVE,NEW YORK,NY,10022,Manhattan,40.762515,-73.968556
QUIK PARK 1133 GARAGE LLC,2126869800,1133 AVENUE OF THE AMERICAS,NEW YORK,NY,10036,Manhattan,40.755955,-73.983633
"CENTRAL PARKING SYSTEM OF NEW YORK,INC.",2125025490,506 W 181ST ST,NEW YORK,NY,10033,Manhattan,40.848291,-73.931624
3896 PARKING CORP.,2125696508,3896 10TH AVE,NEW YORK,NY,10034,Manhattan,40.86542,-73.918459
9-11 LLC,212-686-9800,9 PARK AVE,NEW YORK,NY,10016,Manhattan,40.747267,-73.980902
CHAMPION PARKING 68 LLC,2123085959,80 CENTRAL PARK W,NEW YORK,NY,10023,Manhattan,40.773926,-73.9779
EAST VILLAGE PARKING LLC,2126869800,22 E 1ST ST,NEW YORK,NY,10003,Manhattan,40.724582,-73.991276
"KINNEY PARKING SYSTEM, INC.",2125025490,14 CHARLTON ST,NEW YORK,NY,10014,Manhattan,40.726848,-74.004003
"KINNEY PARKING SYSTEM, INC.",7186589619,16327 ARCHER AVE,JAMAICA,NY,11433,Queens,40.70344,-73.79637
QUIK PARK 175 K LLC,2128322066,53 N 3RD ST,BROOKLYN,NY,11249,Brooklyn,40.717816,-73.963554
ATLANTIC GARAGE MANAGEMENT LLC,646-964-4323,238 ATLANTIC AVE,BROOKLYN,NY,11201,Brooklyn,40.689195,-73.991361
QUEENS WEST PARKING LLC,7186061760,476 47TH AVE,LONG ISLAND CITY,NY,11109,Queens,40.742915,-73.933213
"CENTRAL PARKING SYSTEM OF NEW YORK,INC.",2125025490,7074 E 162ND ST,BRONX,NY,10452,,40.831154,-73.928865
CENTURY PARKING CORP.,2127367171,2600 NETHERLAND AVE,BRONX,NY,10463,Bronx,40.87848,-73.915679
"CENTRAL PARKING SYSTEM OF NEW YORK,INC.",2126296602,798 UNION ST,BROOKLYN,NY,11215,Brooklyn,40.674512,-73.976487
"KINNEY PARKING SYSTEM, LLC",2125025490,1153 YORK AVE,NEW YORK,NY,10065,Manhattan,40.760726,-73.958445
IMPERIAL HOUSE PARKING LLC,2127142442,150 E 69TH ST,NEW YORK,NY,10021,Manhattan,40.767956,-73.962951
"LAN TIAN GARAGE, INC.",2123859600,89 HENRY ST,NEW YORK,NY,10002,Manhattan,40.713274,-73.993295
OMEGA PARKING SYSTEMS LLC,2127251791,200 E 24TH ST,NEW YORK,NY,10010,Manhattan,40.739229,-73.982432
132 EAST 35TH STREET GARAGE LLC,6465840409,132 E 35TH ST,NEW YORK,NY,10016,Manhattan,40.747045,-73.979602
21ST GARAGE LLC,2126270012,436 W 36TH ST,NEW YORK,NY,10018,Manhattan,40.755123,-73.996815
QUIK PARK 485 GARAGE LLC,2128322066,485 LEXINGTON AVE,NEW YORK,NY,10017,Manhattan,40.75425,-73.97383
"ABM PARKING SERVICES, INC",2122131282,1633 BROADWAY,NEW YORK,NY,10019,Manhattan,40.761997,-73.984228
"KINNEY PARKING SYSTEM, INC.",2125025490,477 LEXINGTON AVE,NEW YORK,NY,10017,Manhattan,40.753844,-73.97419
CROTONA PARKWAY GARAGE INC.,7186206177,1981 HONEYWELL AVE,BRONX,NY,10460,Bronx,40.843023,-73.884436
AD PARKING INC.,7189939003,331 E 132ND ST,BRONX,NY,10454,Bronx,40.805538,-73.926226
QUIK PARK WARREN GARAGE LLC,2128322066,86 WARREN ST,NEW YORK,NY,10007,Manhattan,40.715505,-74.010325
AUDUBON PARKING MGMT LLC.,,284 AUDUBON AVE,NEW YORK,NY,10033,Manhattan,40.847727,-73.933264
425 EAST 79 CAR PARK LLC,2129966363,415 E 79TH ST,NEW YORK,NY,10075,Manhattan,40.772335,-73.95237
815 TENTH PARKING LLC,212-686-9800,815 10TH AVE,NEW YORK,NY,10019,Manhattan,40.767515,-73.989955
PARK RIGHT CORPORATION,2122624771,235 GOLD ST,BROOKLYN,NY,11201,Brooklyn,40.697235,-73.982981
"ONE PARKING GOTHAM, INC.",2123706530,4209 28TH ST,LONG ISLAND CITY,NY,11101,Queens,40.749585,-73.938967
QUIK PARK HUDSON 180 LLC,2128322066,180 RIVERSIDE BLVD,NEW YORK,NY,10069,Manhattan,40.778474,-73.988287
"QUIK PARK EAST 67TH STREET, LLC",2128322066,400 E 67TH ST,NEW YORK,NY,10065,Manhattan,40.764285,-73.958313
"CENTRAL PARKING SYSTEM OF NEW YORK,INC.",7185260156,15902 JAMAICA AVE,JAMAICA,NY,11432,Queens,40.703278,-73.799939
BELUGA PARKING CORP,2125416050,1830 E TREMONT AVE,BRONX,NY,10460,Bronx,40.840348,-73.866646
93RD STREET PARKING LLC,212-686-9800,100 W 93RD ST,NEW YORK,NY,10025,Manhattan,40.790986,-73.96963
IMPERIAL PARKING US LLC,2129378660,450 EAST 79TH ST,NEW YORK,NY,10075,Manhattan,40.771725,-73.951889
"LM CHASE PARKING, LLC.",2127143571,344 E 52ND ST,NEW YORK,NY,10022,Manhattan,40.755542,-73.966858
"REGAL CAR PARK, LLC",1212216111,33 W 56TH ST,NEW YORK,NY,10019,Manhattan,40.763138,-73.976205
F & M PARKING LOT CORP.,7188501030,363 E 138TH ST,BRONX,NY,10454,Bronx,40.809736,-73.924265
5TH AVENUE PROPERTY & PARKING LLC,2124211117,1325 5TH AVE,NEW YORK,NY,10026,Manhattan,40.797739,-73.948366
F&T MANAGEMENT & PARKING CORP.,7188881980,13331 39TH AVE,FLUSHING,NY,11354,Queens,40.759818,-73.832935
"IMPERIAL PARKING (U.S.), INC",2129378660,251 AVENUE C,NEW YORK,NY,10009,Manhattan,40.729187,-73.975481
"CENTRAL PARKING SYSTEM OF NEW YORK, INC",2125025490,375 PARK AVE,NEW YORK,NY,10152,Manhattan,40.758519,-73.972299
CHAMPION BROADWAY PARKING CORP,2124739061,60 E 8TH ST,NEW YORK,NY,10003,Manhattan,40.730642,-73.99278
QUIK PARK WEST 57 LLC,2128322066,9 W 57TH ST,NEW YORK,NY,10019,Manhattan,40.76379,-73.975182
SBC PARKING LLC,2128318816,50 E 89TH ST,NEW YORK,NY,10128,Manhattan,40.782387,-73.956822
"MAIDEN PARKING MGMT, LLC",2127957275,151 MAIDEN LN,NEW YORK,NY,10038,Manhattan,40.705748,-74.005177
"ELEMENT PARKING MGMT, LLC",2127957275,555 W 59TH ST,NEW YORK,NY,10019,Manhattan,40.77171,-73.989732
PROBE PARKING LLC,2126869800,300 E 46TH ST,NEW YORK,NY,10017,Manhattan,40.752195,-73.970176
UNIVERSAL PARKING LLC,212-686-9800,55 W 14TH ST,NEW YORK,NY,10011,Manhattan,40.737242,-73.996163
STANDARD PARKING CORP,2129163480,4028 COLLEGE POINT BLVD,FLUSHING,NY,11354,Queens,40.757338,-73.834212
CITY PARKING LLC,2127078993,525 E 11TH ST,NEW YORK,NY,10009,Manhattan,40.728024,-73.980532
"CENTRAL PARKING SYSTEM OF NEW YORK,INC.",2125025490,1470 MADISON AVE,NEW YORK,NY,10029,Manhattan,40.790879,-73.951693
"KINNEY PARKING SYSTEM, INC.",2125025490,123 W 56TH ST,NEW YORK,NY,10019,Manhattan,40.764276,-73.978794
"FIELD LAGUARDIA ASSOCIATES, INC.",7184576300,10404 DITMARS BLVD,EAST ELMHURST,NY,11369,Queens,40.767393,-73.866911
"78 PARKING MANAGEMENT, LLC",7187880066,404 E 79TH ST,NEW YORK,NY,10075,Manhattan,40.771998,-73.952279
STANDARD PARKING CORPORATION,7185384249,950 RIVER AVE,BRONX,NY,10452,Bronx,40.83001,-73.924479
79TH STREET PARKING LLC,2126869800,900 PARK AVE,NEW YORK,NY,10075,Manhattan,40.776023,-73.960767
231ST STREET PARKING LLC,718-708-5077,3217 IRWIN AVE,BRONX,NY,10463,Bronx,40.882606,-73.907942
SAGE PARKING CORP.,7185387336,1295 JEROME AVE,BRONX,NY,10452,Bronx,40.838016,-73.919778
420 EAST 51ST PARKING LLC,2128587565,420 E 51ST ST,NEW YORK,NY,10022,Manhattan,40.754126,-73.965095
"KINNEY PARKING SYSTEM, INC.",2125025490,212 E 47TH ST,NEW YORK,NY,10017,Manhattan,40.753385,-73.971541
WILLSHIRE CAR PARK INC.,2122216111,18230 WEXFORD TER,JAMAICA,NY,11432,Queens,40.714562,-73.780079
LTG PARKING CORP.,2129999999,185 W END AVE,NEW YORK,NY,10023,Manhattan,40.777668,-73.986471
C.V. PARKING LLC,2127959070,200 CABRINI BLVD,NEW YORK,NY,10033,Manhattan,40.854533,-73.938937
ENTERPRISE ANN PARKING LLC,2127143571,57 ANN ST,NEW YORK,NY,10038,Manhattan,40.710249,-74.006591
BLEECKER PARKING CORP.,2122748303,350 BLEECKER ST,NEW YORK,NY,10014,Manhattan,40.734328,-74.004786
PF PARKING CORP.,7184307021,1975 EASTCHESTER RD,BRONX,NY,10461,Bronx,40.852802,-73.843706
QUIK PARK HUDSON LLC,212-686-9800,160 RIVERSIDE BLVD,NEW YORK,NY,10069,Manhattan,40.777769,-73.988529
"CENTRAL PARKING SYSTEM OF NEW YORK,INC.",7188555544,15 HOYT ST,BROOKLYN,NY,11201,Brooklyn,40.689967,-73.985391
SJS 39 AVENUE PARKING LLC,718-886-4035,3907 PRINCE ST,FLUSHING,NY,11354,Queens,40.759364,-73.832034
R & M PARKING CORP.,7186811406,600 E 156TH ST,BRONX,NY,10455,Bronx,40.818844,-73.909571
"CHOY & C GROUP, INC.",,4235 MAIN ST,FLUSHING,NY,11355,Queens,40.754558,-73.827735
"PARKING COMPANY OF AMERICA AIRPORTS, LLC",7183222221,14916 131ST ST,JAMAICA,NY,11430,Queens,40.664646,-73.808852
21 EAST 12TH STREET PARKING LLC,2129293041,21 E 12TH ST,NEW YORK,NY,10003,Manhattan,40.734122,-73.993016
MP 126 LLC,2124903460,163 E 125TH ST,NEW YORK,NY,10035,Manhattan,40.804125,-73.936412
"SWEETS PARKING I, INC.",2127533100,437 MADISON AVE,NEW YORK,NY,10022,Manhattan,40.757471,-73.975643
"CARNEGIE CAR PARK, INC.",2129966363,40 E 94TH ST,NEW YORK,NY,10128,Manhattan,40.785621,-73.954649
HANOVER PARKING LLC,2126869800,7 HANOVER SQ,NEW YORK,NY,10004,Manhattan,40.704265,-74.009335
"SMITH CAR PARK, LLC",2129966363,75 SMITH ST,BROOKLYN,NY,11201,Brooklyn,40.68907,-73.988652
"ABM INDUSTRY GROUPS, LLC",2127576500,475 PARK AVE S,NEW YORK,NY,10016,Manhattan,40.745374,-73.982245
20166 PARKING LLC,212-794-0111,202 E 67TH ST,NEW YORK,NY,10065,Manhattan,40.766375,-73.96275
AMP VALET PARKING INC.,7182882213,5423 8TH AVE,BROOKLYN,NY,11220,Brooklyn,40.638214,-74.006202
"LAZ PARKING NEW YORK, NEW JERSEY LLC",2122652239,251 AVENUE C,NEW YORK,NY,10009,Manhattan,40.729187,-73.975481
TAURUS MANAGEMENT CORP.,7188661000,906 UNION ST,BROOKLYN,NY,11215,Brooklyn,40.672818,-73.971593
LENOX PARKING GARAGE LLC,2032029746,380 LENOX AVE,NEW YORK,NY,10027,Manhattan,40.810438,-73.943203
QUIK PARK 184 MANAGEMENT LLC,212-686-9800,184 KENT AVE,BROOKLYN,NY,11211,Brooklyn,40.718374,-73.963969
S.T.A. PARKING CORP.,2127378850,433 E 76TH ST,NEW YORK,NY,10021,Manhattan,40.769806,-73.952477
"CENTRAL PARKING SYSTEM OF NEW YORK, INC",2125025490,47 CHURCH STREET,NEW YORK,NY,10007,,40.71121,-74.010539
ROX PARKING MANAGEMENT COMPANY LLC,2124868603,351 E 51ST ST,NEW YORK,NY,10022,Manhattan,40.75479,-73.966131
EMBASSY PARKING LLC,2128887400,120 E 81ST ST,NEW YORK,NY,10028,Manhattan,40.776354,-73.958384
WEST 108TH STREET PARKING GARAGE CORPORATION,2122228800,234 W 108TH ST,NEW YORK,NY,10025,Manhattan,40.802426,-73.96663
"KINNEY PARKING SYSTEM, INC.",2125025490,29 E 50TH ST,NEW YORK,NY,10022,Manhattan,40.757972,-73.975484
"CENTRAL PARKING SYSTEM OF NEW YORK,INC.",2125025490,9777 QUEENS BLVD,REGO PARK,NY,11374,Queens,40.728984,-73.858349
"BAS PARKING, INC.",2126289447,530 E 72ND ST,NEW YORK,NY,10021,Manhattan,40.765979,-73.952102
245 EAST 36TH STREET GARAGE CORP.,2126880700,237 E 36TH ST,NEW YORK,NY,10016,Manhattan,40.746624,-73.975976
PEAK TIME PARKING INC.,7182204580,4469 BROADWAY,NEW YORK,NY,10040,Manhattan,40.857499,-73.932456
"CENTRAL PARKING SYSTEM OF NEW YORK,INC.",2125025490,22 E 1ST ST,NEW YORK,NY,10003,Manhattan,40.724582,-73.991276
FULTON LAWRENCE PARKING LLC,2126869800,111 LAWRENCE ST,BROOKLYN,NY,11201,Brooklyn,40.692679,-73.986117
"CENTRAL PARKING SYSTEM OF NEW YORK,INC.",2125025490,519 W 161ST ST,NEW YORK,NY,10032,Manhattan,40.835941,-73.941334
ENTERPRISE 87 CORP.,2125643199,1065 PARK AVE,NEW YORK,NY,10128,Manhattan,40.780908,-73.95632
"KINNEY PARKING SYSTEM, INC.",2125025490,1257 3RD AVE,NEW YORK,NY,10021,Manhattan,40.769933,-73.96033
CL PARKING LLC,212-686-9800,4809 CENTER BLVD,LONG ISLAND CITY,NY,11109,Queens,40.744465,-73.957666
UNIVERSITY 10 PARKING LLC,2126869800,63 E 9TH ST,NEW YORK,NY,10003,Manhattan,40.731407,-73.992236
TAINO TOWERS GARAGE CORP.,2125670234,221 E 122ND ST,NEW YORK,NY,10035,Manhattan,40.801556,-73.936445
QUIK PARK WEST 23RD STREET GARAGE LLC,2128322066,425 W 23RD ST,NEW YORK,NY,10011,Manhattan,40.747088,-74.002292
STELLMAR PARKING LLC,212-879-8798,30 E 65TH ST,NEW YORK,NY,10065,Manhattan,40.767159,-73.968483
QUIK PARK EAST 72 LLC,2128322066,525 E 72ND ST,NEW YORK,NY,10021,Manhattan,40.766495,-73.951597
ISABEL PARKING LLC,6465840409,950 RIVER AVE,BRONX,NY,10452,Bronx,40.83001,-73.924479
MID TOWN PARKING CORP.,2127536116,575 LEXINGTON AVE,NEW YORK,NY,10022,Manhattan,40.757321,-73.97159
CASTLE GARAGE LLC,2126869800,135 E 31ST ST,NEW YORK,NY,10016,Manhattan,40.744418,-73.980646
SELECT PARKING LLC,2126869800,301 E 57TH ST,NEW YORK,NY,10022,Manhattan,40.759366,-73.964868
"CARLYLE CAR PARK, LLC",2125702182,53 E 76TH ST,NEW YORK,NY,10021,Manhattan,40.77414,-73.962746
24 LEONARD PARKING LLC,2126202621,24 LEONARD ST,NEW YORK,NY,10013,Manhattan,40.718402,-74.007565
RELIANT PARKING LLC,2126869800,225 W 83RD ST,NEW YORK,NY,10024,Manhattan,40.78619,-73.977258
21ST GARAGE LLC,2126270012,444 10TH AVE,NEW YORK,NY,10001,Manhattan,40.755052,-73.998584
225 EAST 63RD PARKING CORP,2127367171,221 E 63RD ST,NEW YORK,NY,10065,Manhattan,40.763996,-73.964336
QUIK PARK HUDSON LLC,2128322657,140 RIVERSIDE BLVD,NEW YORK,NY,10069,Manhattan,40.77708,-73.988846
"CENTRAL PARKING SYSTEM OF NEW YORK,INC.",2126296602,1250 BROADWAY,NEW YORK,NY,10001,Manhattan,40.747571,-73.988018
CHURCH STREET PARKING LLC,2126869800,110 CHURCH ST,NEW YORK,NY,10007,Manhattan,40.713507,-74.009269
KIDS PARKING CORP.,2129644968,105 DUANE ST,NEW YORK,NY,10007,Manhattan,40.715584,-74.005923
ULTRA-PARK LLC,2128749633,424 W END AVE,NEW YORK,NY,10024,Manhattan,40.78527,-73.980264
STANDARD PARKING CORPORATION,2129163480,10420 QUEENS BLVD,FOREST HILLS,NY,11375,Queens,40.723697,-73.850074
NEW RIVERDALE PARKING INC.,2128821911,3217 IRWIN AVE,BRONX,NY,10463,Bronx,40.882606,-73.907942
"550 WEST 25TH CAR PARK, LLC",2129966363,550 W 25TH ST,NEW YORK,NY,10001,Manhattan,40.749791,-74.005435
"IMPERIAL PARKING (U.S.), LLC",2129378660,9015 PARSONS BLVD,JAMAICA,NY,11432,Queens,40.704571,-73.800744
751 CVW LLC,9175840383,173 E 156TH ST,BRONX,NY,10451,Bronx,40.823266,-73.923595
QUIK PARK UNDERHILL LLC,2128322066,105 UNDERHILL AVE,BROOKLYN,NY,11238,Brooklyn,40.677428,-73.965698
"SB PARK AVE PARKING, LLC",7187331820,225 E 149TH ST,BRONX,NY,10451,Bronx,40.818159,-73.92474
SP PLUS CORPORATION,2125025490,375 PARK AVE,NEW YORK,NY,10152,Manhattan,40.758519,-73.972299
"IMPERIAL PARKING (U.S.), LLC",212-934-8660,355 FRONT ST,STATEN ISLAND,NY,10304,Staten Island,40.629452,-74.074452
"CENTRAL PARKING SYSTEM OF NEW YORK, INC",2125025490,885 6TH AVE,NEW YORK,NY,10001,Manhattan,40.748225,-73.989154
POO PARKING CORP.,2124903460,1650 SELWYN AVE,BRONX,NY,10457,Bronx,40.843616,-73.910255
"CENTRAL PARKING SYSTEM OF NEW YORK,INC.",2125025490,9 W 57TH ST,NEW YORK,NY,10019,Manhattan,40.76379,-73.975182
QUIK PARK TRUFFLES LLC,2128322066,312 W 34TH ST,NEW YORK,NY,10001,Manhattan,40.752419,-73.994417
WEST 46 ST GARAGE LLC,2128322066,305 W 46TH ST,NEW YORK,NY,10036,Manhattan,40.760089,-73.988366
ELMHURST PARKING CORPORATION,9173251969,7911 41ST AVE,ELMHURST,NY,11373,Queens,40.745828,-73.886223
"CENTRAL PARKING SYSTEM OF NEW YORK,INC.",7188527317,276 LIVINGSTON ST,BROOKLYN,NY,11217,Brooklyn,40.688622,-73.98358
QUIK PARK WEST 55TH ST. LLC,2128322066,73 W 55TH ST,NEW YORK,NY,10019,Manhattan,40.762763,-73.976579
THE CAR PARK OF NEW YORK LLC,208-336-6597,8020 COOPER AVE,GLENDALE,NY,11385,Queens,40.709473,-73.869014
SECURE GARAGE DOOR LLC,7188489477,10126 98TH ST,OZONE PARK,NY,11416,Queens,40.684189,-73.843107
"MUTUAL PARKING SYSTEM, INC.",2128887400,340 E 64TH ST,NEW YORK,NY,10065,Manhattan,40.762956,-73.960487
EMPIRE 33 PARKING LLC,2126869800,38 W 33RD ST,NEW YORK,NY,10001,Manhattan,40.748518,-73.987063
QUIK PARK NORTHROSE GARAGE LLC,2128322066,508 E 163RD ST,BRONX,NY,10451,Bronx,40.82423,-73.909727
"LA MIRAGE CAR PARK, INC.",2122216111,17810 WEXFORD TER,JAMAICA,NY,11432,Queens,40.713022,-73.785342
"CENTRAL PARKING SYSTEM OF NEW YORK,INC.",2125025490,2 PLATT ST,NEW YORK,NY,10038,Manhattan,40.707354,-74.005951
MANHATTAN PARKING E. 71 ST. CORP.,2123536116,311 E 71ST ST,NEW YORK,NY,10021,Manhattan,40.767858,-73.957918
"CHELSEA CAR PARK, LLC",2122216111,160 W 24TH ST,NEW YORK,NY,10011,Manhattan,40.744549,-73.994909
WEST FARMS PARKING LLC,,1512 BOONE AVE,BRONX,NY,10460,Bronx,40.832362,-73.885363
MINETTA LANE PARKING LLC,2127773530,122 W 3RD ST,NEW YORK,NY,10012,Manhattan,40.730588,-74.000638
"KINNEY PARKING SYSTEM, LLC",2125025490,555 W 57TH ST,New York,NY,10019,Manhattan,40.770208,-73.990587
21ST AND 11TH PARKING LLC,212-686-9800,551 W 21ST ST,NEW YORK,NY,10011,Manhattan,40.747464,-74.007354
HAPPY FACE PARKING CORP.,718-583-3301,1560 JEROME AVE,BRONX,NY,10452,Bronx,40.84367,-73.914951
"SEVEN ELEVEN CAR PARK, LLC",2129966363,711 3RD AVE,NEW YORK,NY,10017,Manhattan,40.752306,-73.973102
NOSTRAND AVE PARKING CORP,718-934-0252,3804 NOSTRAND AVE,BROOKLYN,NY,11235,Brooklyn,40.591228,-73.940324
CONCOURSE PARKING CORP.,2127367171,800 GRAND CONCOURSE,BRONX,NY,10451,Bronx,40.82516,-73.923328
162 PARKING OPS LLC,212-568-7800,528 W 162ND ST,NEW YORK,NY,10032,Manhattan,40.836528,-73.941319
FLATBUSH PARKING SYSTEMS INC.,7188568113,626 FLATBUSH AVE,BROOKLYN,NY,11225,Brooklyn,40.657891,-73.960969
"GM PARKING GROUP, INC.",8604600523,116 NOSTRAND AVE,BROOKLYN,NY,11205,Brooklyn,40.69625,-73.952874
174 PARKING MGMT LLC.,,554 W 174TH ST,NEW YORK,NY,10033,Manhattan,40.844353,-73.936274
"KINNEY PARKING SYSTEM, INC.",2125025490,515 FASHION AVE,NEW YORK,NY,10018,Manhattan,40.753305,-73.988843
STELLMAR PARKING LLC,212-879-8798,27 E 65TH ST,NEW YORK,NY,10065,Manhattan,40.76734,-73.968406
WALL STREET GARAGE PARKING CORP.,2127373279,45 WALL ST,NEW YORK,NY,10005,Manhattan,40.706421,-74.009795
328 WEST 39TH STREET PARKING LLC,2126869800,334 W 39TH ST,NEW YORK,NY,10018,Manhattan,40.755614,-73.991997
182 STREET PARKING CORP.,3476728286,8822 182ND ST,HOLLIS,NY,11423,Queens,40.708093,-73.778312
DILIGENT PARKING LLC,2126869800,150 W 68TH ST,NEW YORK,NY,10023,Manhattan,40.775793,-73.983298
RIVER PARK TOWERS GARAGE LLC,6465840409,55 RICHMAN PLZ,BRONX,NY,10453,Bronx,40.851731,-73.922593
"KINNEY PARKING SYSTEM, INC.",2126296602,153 W 48TH ST,NEW YORK,NY,10036,Manhattan,40.759411,-73.982407
WELCOME PARKING LIMITED LIABILITY COMPANY,2016807129,601 AMBOY ST,BROOKLYN,NY,11212,Brooklyn,40.655004,-73.91074
EAST RIVER PARKING CORP.,2127367171,345 E 94TH ST,NEW YORK,NY,10128,Manhattan,40.782171,-73.945945
TWO FIFTH PARKING LLC,2125338312,2 5TH AVE,NEW YORK,NY,10011,Manhattan,40.732172,-73.996635
PARKING SYSTEMS PLUS INC,8009441424,301 E 69TH ST,NEW YORK,NY,10021,Manhattan,40.766816,-73.959399
"KINNEY PARKING SYSTEM, LLC",2125025490,33 W 28TH ST,NEW YORK,NY,10001,Manhattan,40.745549,-73.988893
"ST. ANN'S PARKING GARAGE, LLC",7184010141,780 SAINT ANNS AVE,BRONX,NY,10456,Bronx,40.820254,-73.910065
"CENTRAL PARKING SYSTEM OF NEW YORK,INC.",2125025490,528 W 162ND ST,NEW YORK,NY,10032,Manhattan,40.836528,-73.941319
2211 3RD AVE PARKING LLC,347-589-4139,2211 3RD AVE,NEW YORK,NY,10035,Manhattan,40.800828,-73.937687
34 NORTH 7TH PARKING CORP.,2127367171,27 N 6TH ST,BROOKLYN,NY,11249,Brooklyn,40.720119,-73.962697
1955 FIRST PARKING CORP.,2129963074,1955 1ST AVE,NEW YORK,NY,10029,Manhattan,40.786202,-73.942795
"CENTRAL PARKING SYSTEM OF NEW YORK,INC.",2125025490,839 AVENUE OF THE AMERICAS,NEW YORK,NY,10001,Manhattan,40.746904,-73.990116
"RODRIQUEZ DISLA, LUZ D",347-513-6083,1961 JEROME AVE,BRONX,NY,10453,Bronx,40.851517,-73.909696
CHAMPION PARKING 74 LLC.,2123085959,2109 BROADWAY,NEW YORK,NY,10023,Manhattan,40.780407,-73.982075
SUPERIOR PARKING LLC,2126869800,515 E 79TH ST,NEW YORK,NY,10075,Manhattan,40.770923,-73.948834
"LIVINGSTON CAR PARK, LLC",2129966363,141 LIVINGSTON ST,BROOKLYN,NY,11201,Brooklyn,40.690693,-73.988107
PARK 127TH LLC,2129799815,311 W 127TH ST,NEW YORK,NY,10027,Manhattan,40.811905,-73.951005
STATE-PEARL GARAGE INC.,2124072516,1 BATTERY PARK PLZ,NEW YORK,NY,10004,Manhattan,40.703332,-74.014121
"KINNEY PARKING SYSTEM OF NEW YORK, INC.",2125025490,1189 1ST AVE,NEW YORK,NY,10065,Manhattan,40.763021,-73.959712
EMPIRE PARKING CORP.,212-262-4771,416 WASHINGTON ST,NEW YORK,NY,10013,Manhattan,40.722466,-74.01064
VINCENT 15 PARKING LLC,2126869800,553 AVENUE OF THE AMERICAS,NEW YORK,NY,10011,,40.738193,-73.996337
SUPREME PARKING CORP.,7182033312,230 E 30TH ST,NEW YORK,NY,10016,Manhattan,40.742596,-73.978924
"KINNEY PARKING SYSTEM, INC.",2126296602,838 11TH AVE,NEW YORK,NY,10019,,40.770486,-73.991135
"PARK 127 MGMT, LLC",2127957275,311 W 127TH ST,NEW YORK,NY,10027,Manhattan,40.811905,-73.951005
ZAFIRO PARKING INC.,2127490125,804 E 138TH ST,BRONX,NY,10454,Bronx,40.803611,-73.910287
"PARK-SERV, INC.",2126869800,140-166 W 53RD ST,NEW YORK,NY,10019,,40.762647,-73.981475
"KINNEY PARKING SYSTEM, LLC",2125025490,515 FASHION AVE,New York,NY,10018,Manhattan,40.753305,-73.988843
300 E. 34 PARKING LLC,212-481-6016,300 E 34TH ST,NEW YORK,NY,10016,Manhattan,40.744397,-73.975369
EZY PARKING INC.,7182944264,1981 SEDGWICK AVE,BRONX,NY,10453,Bronx,40.8568,-73.916346
POWER PARKING S CORP.,2125696506,164 DYCKMAN ST,NEW YORK,NY,10040,Manhattan,40.863817,-73.926398
"CLARITY 47 PARKING, LLC",2126869800,145 W 47TH ST,NEW YORK,NY,10036,Manhattan,40.758685,-73.982689
M&N GROUP PARKING INC,917-470-5093,3158-60 JEROME AVE,BRONX,NY,10468,,40.876118,-73.887937
"CENTRAL PARKING SYSTEM OF NEW YORK,INC.",2128676300,157 W 83RD ST,NEW YORK,NY,10024,Manhattan,40.785417,-73.975412
B.Y.M COMMUNITY PARKING LOT CORP.,9172243769,530 BERGEN AVE,BRONX,NY,10455,Bronx,40.815425,-73.917085
1740 PETROLEUM LLC,718-581-7841,1730 JEROME AVE,BRONX,NY,10453,Bronx,40.847287,-73.912575
LA MARINA PARKING LLC,34784325023,284 DYCKMAN ST,NEW YORK,NY,10034,Manhattan,40.866995,-73.929293
MANHATTAN PARKING-BORO CORP.,2124903460,40 CLINTON ST,BROOKLYN,NY,11201,Brooklyn,40.695501,-73.991983
106 Mott Street Parking Corp,2127419009,106 MOTT ST,NEW YORK,NY,10013,Manhattan,40.717631,-73.99714
GATEWAY PARKING CORP,2127511080,345 S END AVE,NEW YORK,NY,10280,Manhattan,40.711027,-74.016222
"LAZ PARKING NEW YORK, NEW JERSEY LLC",2122652239,180 RIVERSIDE BLVD,NEW YORK,NY,10069,Manhattan,40.778474,-73.988287
"IMPERIAL PARKING (U.S), LLC",2129378660,9102 168TH ST,JAMAICA,NY,11432,Queens,40.718745,-73.79847
"BHC CAR PARK, LLC",2129966363,240 WILLOUGHBY ST,BROOKLYN,NY,11201,Brooklyn,40.691728,-73.977982
"LASALLE PARKING, LLC",2127143571,220 E 9TH ST,NEW YORK,NY,10003,Manhattan,40.729513,-73.988254
"280 BROADWAY CAR PARK, LLC",2129966363,280 BROADWAY,NEW YORK,NY,10007,Manhattan,40.714367,-74.005962
"G&M PARKING GARAGE, CORP.",718-524-8328,1231 WEBSTER AVE,BRONX,NY,10456,Bronx,40.832773,-73.909566
CLIFF PARKING LLC,2126869800,99 JOHN ST,NEW YORK,NY,10038,Manhattan,40.708125,-74.006216
NICE PARK LLC,2129299404,310 E 11TH ST,NEW YORK,NY,10003,Manhattan,40.729949,-73.985608
"CENTRAL PARKING SYSTEM OF NEW YORK,INC.",2122895040,115 E 87TH ST,NEW YORK,NY,10128,Manhattan,40.780665,-73.955854
QUIK PARK TRIBECA LLC,2128322066,450 WASHINGTON ST,NEW YORK,NY,10013,Manhattan,40.723639,-74.010446
UNIQUE PARKING LLC,2126869800,41 E 21ST ST,NEW YORK,NY,10010,Manhattan,40.739429,-73.988269
G & M PARKING GARAGE CORP.,7184839458,1100 FRANKLIN AVE,BRONX,NY,10456,Bronx,40.827776,-73.906175
"351 EAST 83 CAR PARK, LLC",2129966363,351 E 83RD ST,NEW YORK,NY,10028,Manhattan,40.775253,-73.951099
"CRESCENT PARKING MGMT, LLC",2127957275,4123 CRESCENT ST,LONG IS CITY,NY,11101,Queens,40.749736,-73.941
GROSVENOR PARKING LLC,2125810535,11624 GROSVENOR LN,RICHMOND HILL,NY,11418,Queens,40.706948,-73.835626
"ONE PARKING 703, INC.",4802722100,209-90 23RD AVE,Bayside,NY,11360,Queens,40.779097,-73.781256
8930 PARKING LLC,212-837-4509,8936 SUTPHIN BLVD,JAMAICA,NY,11435,Queens,40.701265,-73.809605
"CENTRAL PARKING SYSTEM OF NEW YORK, INC",2125025490,441 9TH AVE,NEW YORK,NY,10001,Manhattan,40.753818,-73.996217
SYLVAN MIDWAY PARKING LLC,718-575-9440,10818 QUEENS BLVD,FOREST HILLS,NY,11375,Queens,40.721005,-73.843734
"CENTRAL PARKING SYSTEM OF NEW YORK,INC.",2125025490,304 W 49TH ST,NEW YORK,NY,10019,Manhattan,40.76185,-73.987252
STANDARD PARKING CORPORATION,7188974833,6135 JUNCTION BLVD,REGO PARK,NY,11374,Queens,40.732977,-73.863692
FLUSHING EZ PARKING INC.,9178152555,13203 SANFORD AVE,FLUSHING,NY,11355,Queens,40.754888,-73.832836
STANDARD PARKING CORPORATION,7188943580,8020 COOPER AVE,GLENDALE,NY,11385,Queens,40.709473,-73.869014
GM&M PARK INC.,6466100315,110 BROADWAY,BROOKLYN,NY,11211,Brooklyn,40.710234,-73.964892
301 EAST 79 PARKING LLC,2128887400,301 E 79TH ST,NEW YORK,NY,10075,Manhattan,40.773267,-73.954405
PARK ON 44TH CORP.,2127373279,230 E 44TH ST,NEW YORK,NY,10017,Manhattan,40.751341,-73.97209
BEAVER STREET PARKING LLC,212-785-9733,15 WILLIAM ST,NEW YORK,NY,10004,Manhattan,40.70527,-74.010139
CONNAUGHT TOWER CAR PARK INC,2129966363,300 E 54TH ST,NEW YORK,NY,10022,Manhattan,40.757088,-73.966364
QUIK PARK BROADWAY GARAGE LLC,2128322066,225 W 56TH ST,NEW YORK,NY,10019,Manhattan,40.765735,-73.982366
54TH & 2ND PARKING LLC,2126869800,300 E 55TH ST,NEW YORK,NY,10022,Manhattan,40.757773,-73.965995
"IMPERIAL PARKING (U.S.), LLC",212-937-8660,150 NASSAU ST,NEW YORK,NY,10038,Manhattan,40.711507,-74.005966
QUIK PARK LIBBY 2 LLC,,300 E 48TH ST,NEW YORK,NY,10017,Manhattan,40.753473,-73.969431
IMPERIAL PARKING US LLC,2129378660,92-30 165 STREET,JAMAICA,NY,11433,,40.704401,-73.79424
"KINNEY PARKING SYSTEM, LLC",2125025490,23 W 55TH ST,NEW YORK,NY,10019,Manhattan,40.762262,-73.976067
"KINNEY PARKING SYSTEM, LLC",2125025490,29 E 50TH ST,NEW YORK,NY,10022,Manhattan,40.757972,-73.975484
Prince Tower Parking Corp.,,3636 PRINCE ST,FLUSHING,NY,11354,Queens,40.761003,-73.832874
"CENTRAL PARKING SYSTEM OF NEW YORK,INC.",2129163480,404 E 79TH ST,NEW YORK,NY,10075,Manhattan,40.771998,-73.952279
"PARK 117TH, LLC",2122220242,279 W 117TH ST,NEW YORK,NY,10026,Manhattan,40.805011,-73.954404
21ST AND 11TH PARKING LLC,212-686-9800,551 W 21ST ST,NEW YORK,NY,10011,Manhattan,40.747464,-74.007354
MANHATTAN PARKING EAST 48TH STREET CORP.,2124903460,141 E 48TH ST,NEW YORK,NY,10017,Manhattan,40.755259,-73.972996
W. 79TH STREET PARKING CORP.,2122435900,200 W 79TH ST,NEW YORK,NY,10024,Manhattan,40.783115,-73.978772
REALPRO PARKING LLC,2126869800,330 E 39TH ST,NEW YORK,NY,10016,Manhattan,40.747183,-73.972226
400 EAST 70TH STREET PARKING LLC,2127949173,400 E 70TH ST,NEW YORK,NY,10021,Manhattan,40.766162,-73.956742
PLAZA 48 PARKING LLC,2126869800,329 E 48TH ST,NEW YORK,NY,10017,Manhattan,40.753461,-73.968835
"PRO PARK AMERICA NEW YORK, LLC",9174152749,204 W 101ST ST,NEW YORK,NY,10025,Manhattan,40.797411,-73.968686
"SHARP CAR PARK, LLC",2122216111,357 E 57TH ST,NEW YORK,NY,10022,Manhattan,40.758569,-73.963097
"RUPPERT CAR PARK, LLC",2129966363,1601 3RD AVE,NEW YORK,NY,10128,Manhattan,40.781511,-73.951746
QUIK PARK PCVST GARAGE LLC,2126145862,528 E 20TH ST,NEW YORK,NY,10009,Manhattan,40.733192,-73.976225
315 EAST 65TH PARKING LLC,212-570-1732,322 E 66TH ST,NEW YORK,NY,10065,Manhattan,40.764492,-73.960221
"SZYMANSKI, THOMAS STANLEY",7186419788,13220 81ST ST,OZONE PARK,NY,11417,Queens,40.674499,-73.855543
"FANNWOOD ESTATES, LLC",5163747000,9958 66TH AVE,REGO PARK,NY,11374,Queens,40.72885,-73.852697
PERFORMANCE PARKING LLC,212-686-9800,127 AMSTERDAM AVE,NEW YORK,NY,10023,Manhattan,40.774257,-73.984582
MANHATTAN PARKING GOLD CORP,2127536116,220 E 54TH ST,NEW YORK,NY,10022,Manhattan,40.757828,-73.968123
WELLESLEY PARKING LLC,2122495514,203 E 71ST ST,NEW YORK,NY,10021,Manhattan,40.768924,-73.960491
QUIK PARK KESTREL PARKING LLC,212-686-9800,29 CATON PL,BROOKLYN,NY,11218,Brooklyn,40.649364,-73.974268
BRAIRWOOD CAR PARK INC,2122216111,8515 MAIN ST,JAMAICA,NY,11435,Queens,40.709601,-73.818947
"BATTERY PLACE CAR PARK, LLC",2129966363,50 BATTERY PL,NEW YORK,NY,10280,Manhattan,40.706581,-74.017937
WORTHY PARKING LLC,2124903460,841 10TH AVE,NEW YORK,NY,10019,Manhattan,40.768235,-73.989445
165 EAST PARKING CORP.,2127367171,165 E 72ND ST,NEW YORK,NY,10021,Manhattan,40.770004,-73.960803
420 EAST 51ST PARKING PARTNERS LLC,2128387565,420 E 51ST ST,NEW YORK,NY,10022,Manhattan,40.754126,-73.965095
MBA PARKING CORP,718-864-2992,2702 QUEENS PLZ S,LONG ISLAND CITY,NY,11101,Queens,40.750031,-73.939732
37 EAST LLC,2125643199,415 E 37TH ST,NEW YORK,NY,10016,Manhattan,40.745487,-73.971393
JDS PARKING LLC,2126869800,561 10TH AVE,NEW YORK,NY,10036,Manhattan,40.759222,-73.995995
RAPID 83 STREET PARKING CORP.,2127443591,351 E 83RD ST,NEW YORK,NY,10028,Manhattan,40.775253,-73.951099
"CENTRAL PARKING SYSTEM OF NEW YORK,INC.",2125025490,535 E 75TH ST,NEW YORK,NY,10021,Manhattan,40.76801,-73.950164
"LAZ PARKING NEW YORK, NEW JERSEY LLC",2122652239,507 E 70TH ST,NEW YORK,NY,10021,Manhattan,40.76562,-73.954529
KEY PARKING LLC,2125810535,115 E 9TH ST,NEW YORK,NY,10003,Manhattan,40.730408,-73.98979
KELLY ST PARKING LLC,7183436262,950 WESTCHESTER AVE,BRONX,NY,10459,Bronx,40.822358,-73.896027
CHAMPION 221 LLC,2123085959,216 CENTRAL PARK S,NEW YORK,NY,10019,Manhattan,40.766902,-73.97943
"CENTRAL PARKING SYSTEM OF NEW YORK,INC.",2125025490,135 E 31ST ST,NEW YORK,NY,10016,Manhattan,40.744418,-73.980646
"CENTRAL PARKING SYSTEM OF NEW YORK,INC.",2126296602,90 OCEANA DR W,BROOKLYN,NY,11235,Brooklyn,40.57681,-73.958447
"IMPERIAL PARKING (U.S), LLC",2129378660,31 NAGLE AVENUE,NEW YORK,NY,10040,,40.85948,-73.929828
60 SUTTON PLACE PARKING LLC,2128887400,60 SUTTON PL S,NEW YORK,NY,10022,Manhattan,40.755289,-73.962707
"CENTRAL PARKING SYSTEM OF NEW YORK,INC.",2125025490,282 11TH AVE,NEW YORK,NY,10001,Manhattan,40.752236,-74.004345
UPPER MANHATTAN PARKING LLC,2124211117,1845 PARK AVE,NEW YORK,NY,10035,Manhattan,40.806328,-73.937788
PACIFIC PARKING LLC,2033212129,700 PACIFIC ST,BROOKLYN,NY,11217,Brooklyn,40.681748,-73.972135
"KINNEY PARKING SYSTEM, INC.",7187974864,85 LIVINGSTON ST,BROOKLYN,NY,11201,Brooklyn,40.691515,-73.990604
PARK 70 LLC,2123272626,400 E 70TH ST,NEW YORK,NY,10021,Manhattan,40.766162,-73.956742
QUIK PARK YORK AVENUE LLC,2126869800,400 E 71ST ST,NEW YORK,NY,10021,Manhattan,40.766766,-73.956054
"KINNEY PARKING SYSTEM, LLC",2125025490,870 8TH AVE,NEW YORK,NY,10019,Manhattan,40.763799,-73.984776
NATIONS 47 PARKING LLC,2126869800,885 2ND AVE,NEW YORK,NY,10017,Manhattan,40.753419,-73.969858
MAGIC PARKING LLC,2122893800,225 SAINT NICHOLAS AVE,NEW YORK,NY,10027,Manhattan,40.80791,-73.953073
WHITNEY 90 PARKING LLC,212-686-9800,200 E 90TH ST,NEW YORK,NY,10128,Manhattan,40.781163,-73.951865
M&N Group Parking Inc,9174705093,2990 JEROME AVE,BRONX,NY,10468,Bronx,40.873675,-73.889032
"IMPERIAL PARKING (U.S.), LLC.",2129378660,212 S OXFORD ST,BROOKLYN,NY,11217,Brooklyn,40.68322,-73.972987
605 PARKING CORP.,2127367171,605 PARK AVE,NEW YORK,NY,10065,Manhattan,40.766382,-73.966959
MURRAY 38 PARKING LLC,2126869800,155 E 38TH ST,NEW YORK,NY,10016,Manhattan,40.748432,-73.97646
"CENTRAL PARKING SYSTEM OF NEW YORK, INC",2125025490,1250 BROADWAY,NEW YORK,NY,10001,Manhattan,40.747571,-73.988018
"IMPERIAL PARKING (U.S.), LLC",212-934-8660,1199 PARK AVE,NEW YORK,NY,10128,Manhattan,40.785344,-73.953098
ROX PARKING LLC,2123272626,931 1ST AVE,NEW YORK,NY,10022,Manhattan,40.754794,-73.965712
EAST 79TH STREET PARKING LLC,2124903460,505 E 79TH ST,NEW YORK,NY,10075,Manhattan,40.771186,-73.949538
UPTOWN PARKING LLC,212-686-9800,201 E 63RD ST,NEW YORK,NY,10065,Manhattan,40.764208,-73.964755
330 THIRD PARKING CORP.,2127367171,330 3RD AVE,NEW YORK,NY,10010,Manhattan,40.739801,-73.982669
GRAMERCY 24 PARKING LLC,2126869800,401 2ND AVE,NEW YORK,NY,10010,Manhattan,40.738215,-73.980922
"ALBERT AUTO SALES & PARKING, INC.",7182942319,1540 JEROME AVE,BRONX,NY,10452,Bronx,40.842946,-73.915197
QUIK PARK W. 14TH STREET LLC,212-686-9800,222 W 14TH ST,NEW YORK,NY,10011,Manhattan,40.739027,-74.001197
FLORAL 26 PARKING LLC,2126869800,55 W 25TH ST,NEW YORK,NY,10010,Manhattan,40.744076,-73.991337
333 EAST 46TH ST. PARKING CORP.,2126869800,333 E 46TH ST,NEW YORK,NY,10017,Manhattan,40.75204,-73.969056
W. 79TH STREET PARKING CORP.,2122435900,200 W 79TH ST,NEW YORK,NY,10024,Manhattan,40.783115,-73.978772
"IMPERIAL PARKING (U.S.), LLC",2129378660,724-732 AVENUE OF THE AMERICAS,NEW YORK,NY,10010,,40.74342,-73.992345
150 EAST 18TH STREET PARKING CORP,2127367171,196-202 THIRD AVE,NEW YORK,NY,10003,Manhattan,40.735694,-73.98566
ALLIANCE PARKING WEST 43 ST LLC,2125810535,500 W 43RD ST,NEW YORK,NY,10036,Manhattan,40.760253,-73.99538
"SCHERMERHORN PARKING MGMT, LLC",2127957275,200 SCHERMERHORN ST,BROOKLYN,NY,11201,Brooklyn,40.688673,-73.98565
JONATHAN & GABRIELLE PARKING INC.,7187310931,1521 INWOOD AVE,BRONX,NY,10452,Bronx,40.843388,-73.917016
"ENTERPRISE PARKING COMPANY, LLC",2125329682,2500 FDR DR,NEW YORK,NY,10016,Manhattan,40.783282,-73.943715
PUTNAM GARDENS PARKING CORP.,7184327226,3815 PUTNAM AVE W,BRONX,NY,10463,Bronx,40.885052,-73.89875
ML GJUSHI PROPERTIES LLC,,453 E 184TH ST,BRONX,NY,10458,Bronx,40.856286,-73.893477
NYC PARKING GROUP I LLC,7182850102,333 E 75TH ST,NEW YORK,NY,10021,Manhattan,40.770155,-73.95522
"KINNEY PARKING SYSTEM, INC.",2125025490,301 E 66TH ST,NEW YORK,NY,10065,Manhattan,40.764953,-73.9608
TAINO PARKING CORPORATION,2124109174,211 E 122ND ST,NEW YORK,NY,10035,Manhattan,40.8018,-73.936976
"CENTRAL PARKING SYSTEM OF NEW YORK,INC.",2125025490,530 E 76TH ST,NEW YORK,NY,10021,Manhattan,40.768507,-73.94992
PARK RIGHT CORPORATION,2124599003,564 SAINT JOHNS PL,BROOKLYN,NY,11238,Brooklyn,40.672612,-73.959018
QUIK PARK LIBBY LLC,2128322066,301 E 48TH ST,NEW YORK,NY,10017,Manhattan,40.75358,-73.969069
WATERFRONT PARKING LLC,2126869800,95 WALL ST,NEW YORK,NY,10005,Manhattan,40.70493,-74.007487
PARK KWIK LLC,2129745840,770 11TH AVE,NEW YORK,NY,10019,Manhattan,40.768031,-73.992858
HESTER PARKING CORP.,9736228888,106 MOTT ST,NEW YORK,NY,10013,Manhattan,40.717631,-73.99714
AMPCO SYSTEM PARKING,6464391610,450 E 29TH ST,NEW YORK,NY,10016,Manhattan,40.739681,-73.973768
AIR PARK OF JFK INC.,7182767000,15344 S CONDUIT AVE,JAMAICA,NY,11434,Queens,40.666108,-73.78567
QUIK PARK PCVST GARAGE LLC,2126145862,279 AVENUE C,NEW YORK,NY,10009,Manhattan,40.730124,-73.974806
"IMPERIAL PARKING (U.S.), LLC",2129378660,35 E 38TH ST,NEW YORK,NY,10016,Manhattan,40.749966,-73.980063
"MUTUAL PARKING, INC.",2128887400,605 E 82ND ST,NEW YORK,NY,10028,Manhattan,40.772089,-73.945783
F & A PARKING CORP,7183992640,14238 37TH AVE,FLUSHING,NY,11354,Queens,40.762711,-73.826019
ALLIANCE DAG PARKING LLC,212-795-7275,240 E 47TH ST,NEW YORK,NY,10017,Manhattan,40.753037,-73.970352
"UNISPHERE MANAGEMENT, LLC",7188882367,13618 41ST AVE,FLUSHING,NY,11355,Queens,40.756356,-73.831265
PARK KWIK LLC,2129745840,85 ADAMS ST,BROOKLYN,NY,11201,Brooklyn,40.701755,-73.988483
ATLANTIC GROUP PARKING INC,7186384977,1171 ATLANTIC AVE,BROOKLYN,NY,11216,Brooklyn,40.678817,-73.951947
JO-MEG GARAGE CORP.,2129562280,80 CENTRAL PARK W,NEW YORK,NY,10023,Manhattan,40.773926,-73.9779
"WORLD TOWER PARKING GARAGE, LLC",2125643199,310 W 144TH ST,NEW YORK,NY,10030,Manhattan,40.822415,-73.943256
"CAPABLE CAR PARK, LLC",2122216111,210 CENTRAL PARK S,NEW YORK,NY,10019,Manhattan,40.767036,-73.979961
"CENTRAL PARKING SYSTEM OF NEW YORK,INC.",2125025490,250 E 67TH ST,NEW YORK,NY,10065,Manhattan,40.76603,-73.962287
STANDARD PARKING GARAGE,,9015 QUEENS BLVD,ELMHURST,NY,11373,Queens,40.733983,-73.870694
PRONTO PARKING CORP,2124903460,169 E 65TH ST,NEW YORK,NY,10065,Manhattan,40.765777,-73.964765
"CENTRAL PARKING SYSTEM OF NEW YORK,INC.",2126296602,5100 KINGS PLZ,BROOKLYN,NY,11234,Brooklyn,40.609937,-73.921947
K & R PARKING CORP.,6468374721,1855 E TREMONT AVE,BRONX,NY,10460,Bronx,40.84107,-73.86541
"KINNEY PARKING SYSTEM, LLC",2125025490,3739 W 12TH ST,NEW YORK,NY,10011,,40.737099,-74.000031
IMPERIAL PARKING US LLC,2129378660,155 W 70TH ST,NEW YORK,NY,10023,Manhattan,40.777022,-73.981665
PV PARKING II CORP,646-302-4330,3128 QUEENS BLVD,LONG ISLAND CITY,NY,11101,Queens,40.745416,-73.93401
"C & S PARKING GARAGE, INC.",6465336409,1208 FRANKLIN AVE,BRONX,NY,10456,Bronx,40.830102,-73.903438
24 PARKING GARAGE INC,7182934872,1231 WEBSTER AVE,BRONX,NY,10456,Bronx,40.832773,-73.909566
QUIK PARK 390 GARAGE LLC,2128322066,390 PARK AVE,NEW YORK,NY,10022,Manhattan,40.759358,-73.972703
"CENTRAL PARKING SYSTEM OF NEW YORK, INC",2125025490,109-27 E 58TH ST/ 110 E 59TH STREET,NEW YORK,NY,10022,Manhattan,40.762288,-73.970258
ADD PARK INC,7189939003,3213 3RD AVE,BRONX,NY,10451,Bronx,40.823491,-73.909237
AERO PARKING CORP.,2128661000,10 E 30TH ST,NEW YORK,NY,10016,Manhattan,40.745486,-73.985628
"IMPERIAL PARKING (U.S.), LLC",2129378660,35 EAST   38 STREET,NEW YORK,NY,10016,,40.749966,-73.980063
SP PLUS CORPORATION,2123217621,75 PARK PL,NEW YORK,NY,10007,Manhattan,40.714303,-74.011287
SHERMAN PARKING MANAGEMENT LLC,765-276-7275,11 BROADWAY,BROOKLYN,NY,11249,Brooklyn,40.710925,-73.968204
400 EAST 56 PARKING LLC,2127522884,400 E 56TH ST,NEW YORK,NY,10022,Manhattan,40.757267,-73.962955
"ABM INDUSTRY GROUPS, LLC",2127576500,17 E 54TH ST,NEW YORK,NY,10022,Manhattan,40.760784,-73.974604
QUIK PARK CPS LLC,2128322066,116 CENTRAL PARK W,NEW YORK,NY,10019,Manhattan,40.765894,-73.977132
SLOPE CAR PARK INC.,2122216111,429 12TH ST,BROOKLYN,NY,11215,Brooklyn,40.664785,-73.982325
CHAMPION PARKING 80 LLC,2125358002,445 E 80TH ST,NEW YORK,NY,10075,Manhattan,40.772258,-73.950102
"IMPERIAL PARKING (U.S.), INC",2129378660,325 AVENUE C,NEW YORK,NY,10009,Manhattan,40.732075,-73.974477
"CENTRAL PARKING SYSTEM OF NEW YORK,INC.",2125025490,100 MORTON ST,NEW YORK,NY,10014,Manhattan,40.731025,-74.010022
QUEENS BLVD PETROLEUM LLC,914-699-9500,3105 QUEENS BLVD,LONG ISLAND CITY,NY,11101,Queens,40.745948,-73.933683
"KINNEY PARKING SYSTEM, INC.",7184325834,2500 JOHNSON AVE,BRONX,NY,10463,Bronx,40.877019,-73.917349
ENTERPRISE 24TH PARKING LLC,2125643199,214 E 24TH ST,NEW YORK,NY,10010,Manhattan,40.739139,-73.982063
PLAZA 48 PARKING LLC,2126869800,326 E 49TH ST,NEW YORK,NY,10017,Manhattan,40.753852,-73.968577
QUIK PARK WEST 12TH ST. LLC,212-686-9800,175 W 12TH ST,NEW YORK,NY,10011,Manhattan,40.73718,-74.000268
116TH-117TH STREET PARKING CORP.,2127367171,23 W 116TH ST,NEW YORK,NY,10026,Manhattan,40.801275,-73.947483
305 EAST 80TH PARKING LLC,2126283121,305 E 80TH ST,NEW YORK,NY,10075,Manhattan,40.773855,-73.953904
"GUILLEN BUSINESS CENTER, INC.",9175591203,700 GRAND CONCOURSE,BRONX,NY,10451,Bronx,40.821867,-73.924885
"G&M PARKING GARAGE, CORP.",7184839458,1208 FRANKLIN AVE,BRONX,NY,10456,Bronx,40.830102,-73.903438
22ND AND SIXTH PARKING LLC,2126869800,60 W 23RD ST,NEW YORK,NY,10010,Manhattan,40.742468,-73.992186
FULL HOUSE PARKING LLC,3477320219,13511 40TH RD,FLUSHING,NY,11354,Queens,40.758587,-73.83115
SWIFT PARKING LLC,2126869800,160 E 88TH ST,NEW YORK,NY,10128,Manhattan,40.780641,-73.954515
ACTIVE PARKING LLC,2126869800,2373 BROADWAY,NEW YORK,NY,10024,Manhattan,40.788557,-73.976641
"CENTRAL PARKING SYSTEM OF NEW YORK,INC.",2126296602,109 E 58TH ST,NEW YORK,NY,10022,Manhattan,40.762162,-73.969494
62 MULBERRY PARKING CORP,212-736-7171,62 MULBERRY ST,NEW YORK,NY,10013,Manhattan,40.715623,-73.999173
"CRYSTAL CAR PARK, LLC",2129966363,200 E 24TH ST,NEW YORK,NY,10010,Manhattan,40.739229,-73.982432
BROOK PARK PARKING CORP.,9174705093,1820 E TREMONT AVE,BRONX,NY,10460,Bronx,40.840277,-73.866872
JEROME PARKING CORP.,7187167170,1961 JEROME AVE,BRONX,NY,10453,Bronx,40.851517,-73.909696
"CENTRAL PARKING SYSTEM OF NEW YORK,INC.",2126296602,138 E 50TH ST,NEW YORK,NY,10022,Manhattan,40.756084,-73.971798
ASTORIA CENTRAL PARKING LLC,7544447275,3157 31ST ST,ASTORIA,NY,11106,Queens,40.762753,-73.924521
CHAMPION PARKING 53 LLC,2123085959,821-827 7 AVE,NEW YORK,NY,10019,,40.763077,-73.981522
900 8TH AVENUE GARAGE LLC,6465840409,900 8TH AVE,NEW YORK,NY,10019,Manhattan,40.764294,-73.984386
GREENWICH STREET PARKING LLC,2126869800,551 GREENWICH ST,NEW YORK,NY,10014,Manhattan,40.7276,-74.008683
PARK AVENUE 39 PARKING LLC,212-686-9800,90 PARK AVE,NEW YORK,NY,10016,Manhattan,40.750799,-73.978946
QUIK PARK 86TH ST. LLC,2126509677,444 E 86TH ST,NEW YORK,NY,10028,Manhattan,40.776014,-73.947878
1114 SIXTH PARKING LLC,212-686-9800,1114 AVENUE OF THE AMERICAS,NEW YORK,NY,10036,Manhattan,40.75494,-73.982904
FDD ENTERPRISES INC.,6463997098,3000 PARK AVE,BRONX,NY,10451,Bronx,40.82075,-73.922157
"60 SUTTON PLACE PARKING ASSOCIATES, LLC",2125352890,60 SUTTON PL S,NEW YORK,NY,10022,Manhattan,40.755289,-73.962707
"CHAMPION PARKING 46, LLC",2123085959,247 W 46TH ST,NEW YORK,NY,10036,Manhattan,40.759708,-73.987474
QUIK PARK 48TH ST. GARAGE CORP.,2128322066,300 E 48TH ST,NEW YORK,NY,10017,Manhattan,40.753473,-73.969431
BRUCKNER PARKING LLC,212-929-9404,25 BRUCKNER BLVD,BRONX,NY,10454,Bronx,40.807456,-73.928538
157-57TH INC,2122232838,153 E 57TH ST,NEW YORK,NY,10022,Manhattan,40.760677,-73.968129
ALERT GARAGE CORP.,7187860643,3017 40TH AVE,LONG IS CITY,NY,11101,Queens,40.751881,-73.934278
DISCOVER 97 PARKING LLC,2126869800,750 COLUMBUS AVE,NEW YORK,NY,10025,Manhattan,40.793294,-73.967435
250 WEST PARKING CORP.,2127367171,250 W 19TH ST,NEW YORK,NY,10011,Manhattan,40.742124,-73.998951
"V.J. MEGA PARKING SYSTEMS, INC.",2126501339,343 E 74TH ST,NEW YORK,NY,10021,Manhattan,40.769538,-73.955767
QUIK PARK 3RD AVE LLC,2128322066,1142 3RD AVE,NEW YORK,NY,10065,Manhattan,40.766462,-73.963233
BRISTOL 65 PARKING LLC,2126869800,200 E 65TH ST,NEW YORK,NY,10065,Manhattan,40.765121,-73.963671
QUIK PARK PCVST GARAGE LLC,2126145862,325 AVENUE C,NEW YORK,NY,10009,Manhattan,40.732075,-73.974477
EAST 105TH STREET PARKING LLC,2125347019,156 E 105TH ST,NEW YORK,NY,10029,Manhattan,40.79127,-73.946339
BK PARKING GROUP INC.,917-327-7488,4566 BROADWAY,NEW YORK,NY,10040,Manhattan,40.859713,-73.930441
T & K PARKING INC.,9176569896,61 CHRYSTIE ST,NEW YORK,NY,10002,Manhattan,40.716627,-73.994968
ROPETMAR GARAGE INC.,2127511080,299 PEARL ST,NEW YORK,NY,10038,Manhattan,40.708664,-74.00301
BELLTEL 365 PARKING LLC,82-1130031,365 BRIDGE ST,BROOKLYN,NY,11201,Brooklyn,40.692314,-73.985143
STATUE PARKING LLC,2125710538,20 RIVER TER,NEW YORK,NY,10282,Manhattan,40.716857,-74.016089
"CENTRAL PARKING SYSTEM OF NEW YORK,INC.",2125025490,554 W 174TH ST,NEW YORK,NY,10033,Manhattan,40.844353,-73.936274
ZAFIRO PARKING INC.,2127490125,1380 MLK JR BLVD,BRONX,NY,10452,Bronx,40.838729,-73.921605
PRIOR PARKING LLC,2126869800,40-50 W 61ST ST,NEW YORK,NY,10023,,40.770018,-73.983649
NYULMC E GARAGE CORP.,2127367171,333 E 38TH ST,NEW YORK,NY,10016,Manhattan,40.746687,-73.972326
REX PARKING CORP.,5166984240,10 E 153RD ST,BRONX,NY,10451,Bronx,40.82092,-73.923838
COSMOPOLITAN PARKING CORP.,2122493344,34 E 21ST ST,NEW YORK,NY,10010,Manhattan,40.739329,-73.98862
157-53 PARKING CORP,6464639403,157 E 57TH ST,NEW YORK,NY,10022,Manhattan,40.760531,-73.96778
IMPERIAL PARKING (US) LLC,2129378660,222 W 14TH ST,NEW YORK,NY,10011,Manhattan,40.739027,-74.001197
QUIK PARK 89TH ST. LLC,2128322066,207 W 88TH ST,NEW YORK,NY,10024,Manhattan,40.789202,-73.974138
158TH NY CORP,7189938026,85 E 158TH ST,BRONX,NY,10451,Bronx,40.826571,-73.926247
LIVINGSTON STREET PARKING LLC,212-686-9800,111 LIVINGSTON ST,BROOKLYN,NY,11201,Brooklyn,40.691369,-73.989926
STANDARD PARKING CORPORATION,7188971220,10440 QUEENS BLVD,FOREST HILLS,NY,11375,Queens,40.723045,-73.850552
ENC PARKING CORPORATION,9173251969,69 5TH AVE,NEW YORK,NY,10003,Manhattan,40.73622,-73.993243
TOREN PARKING LLC,9177493600,255 FLATBUSH AVENUE EXT,BROOKLYN,NY,11201,,40.69261,-73.982771
WEST VILLAGE GARAGE CORP,212-262-4771,125 PERRY ST,NEW YORK,NY,10014,Manhattan,40.735133,-74.007093
59 AND 5TH PARKING LLC,2126869800,767 5TH AVE,NEW YORK,NY,10153,Manhattan,40.763554,-73.972839
101 WEST END PARKING LLC,2126869800,101 W END AVE,NEW YORK,NY,10023,Manhattan,40.775065,-73.988635
IMPARK210CPS LLC,212-937-8660,210 CENTRAL PARK S,NEW YORK,NY,10019,Manhattan,40.767036,-73.979961
PEAK TIME PARKING INC.,7182204580,1231 EDWARD L GRANT HWY,BRONX,NY,10452,Bronx,40.836656,-73.922568
KC ONE PARK CORP.,7182850102,330 3RD AVE,NEW YORK,NY,10010,Manhattan,40.739801,-73.982669
FASHION 35 PARKING LLC,2126869800,1328 BROADWAY,NEW YORK,NY,10001,Manhattan,40.749838,-73.987479
HJ PARKING LLC,2126869800,301-309 W 51ST ST,NEW YORK,NY,10019,,40.762764,-73.985647
"IMPERIAL PARKING (U.S.), LLC",2129378660,89-35 162 STREET,JAMAICA,NY,11432,,40.705574,-73.798312
REYER PARKING CORP.,2125416050,257 E 187TH ST,BRONX,NY,10458,Bronx,40.860217,-73.897375
1745 BROADWAY PARKING MANAGEMENT CORP.,2127367171,1745 BROADWAY,NEW YORK,NY,10019,Manhattan,40.765235,-73.982263
DIRECT PARKING LLC,2126869800,51 W 56TH ST,NEW YORK,NY,10019,Manhattan,40.763114,-73.975632
"IMPERIAL PARKING (U.S.), LLC",2129378660,9330 HORACE HARDING EXPRESSWAY,QUEENS,NY,11374,Queens,40.735372,-73.858899
ENTERPRISE 30TH STREET GARAGE LLC,2126270012,529 W 29TH ST,NEW YORK,NY,10001,Manhattan,40.752217,-74.002998
STANDARD PARKING CORPORATION,7188943580,8036 COOPER AVE,GLENDALE,NY,11385,Queens,40.709332,-73.868361
786 PARKING CORP,7186180029,313 SAINT MARKS AVE,BROOKLYN,NY,11238,Brooklyn,40.677865,-73.964805
MP HUB PARKING LLC,2124903460,3000 3RD AVE,BRONX,NY,10455,Bronx,40.818984,-73.913797
ONE PARKING 89TH STREET LLC,4802722100,205 W 89TH ST,NEW YORK,NY,10024,Manhattan,40.790075,-73.974499
CHELSEA 29 PARKING LLC,2126869800,525 W 28TH ST,NEW YORK,NY,10001,Manhattan,40.751564,-74.003372
A&P PARKING CORP.,2123601711,339 GREENE AVE,BROOKLYN,NY,11238,Brooklyn,40.687801,-73.957707
155 EAST 55TH STREET PARKING CORP,2127367171,155 E 55TH ST,NEW YORK,NY,10022,Manhattan,40.759347,-73.969139
MAJESTIC CAR PARK LLC,2122216111,1199 PARK AVE,NEW YORK,NY,10128,Manhattan,40.785344,-73.953098
KC THIRD AVENUE PARKING LLC,7187880066,330 3RD AVE,NEW YORK,NY,10010,Manhattan,40.739801,-73.982669
"SAM PARKING, L.L.C.",2129666774,360 W BROADWAY,NEW YORK,NY,10013,Manhattan,40.722993,-74.003436
Z AND G PARKING LLC,2129799815,2355 WEBSTER AVE,BRONX,NY,10458,Bronx,40.857515,-73.894992
345 Sheffield Parking LLC,,345 SHEFFIELD AVE,BROOKLYN,NY,11207,Brooklyn,40.668703,-73.895766
36-36 PRINCE PARKING LLC,7183580001,3636 PRINCE ST,FLUSHING,NY,11354,Queens,40.761003,-73.832874
"LA MIRAGE CAR PARK, INC.",2122216111,17810 WEXFORD TER,JAMAICA,NY,11432,Queens,40.713022,-73.785342
SAMO PARKING LLC,2127143571,401 E 74TH ST,NEW YORK,NY,10021,Manhattan,40.76898,-73.954451
304 WEST 49TH PARKING CORP.,2122475607,304 W 49TH ST,NEW YORK,NY,10019,Manhattan,40.76185,-73.987252
"ONE PARKING GOTHAM, INC.",2123706530,4209 28TH ST,LONG IS CITY,NY,11101,Queens,40.749585,-73.938967
PARK 108 LLC,2129299404,234 W 108TH ST,NEW YORK,NY,10025,Manhattan,40.802426,-73.96663
249 PARKING CORP.,2126457548,249 10TH AVE,NEW YORK,NY,10001,Manhattan,40.748829,-74.003563
SAWYER PARKING LLC,2122428310,150 W 20TH ST,NEW YORK,NY,10011,Manhattan,40.741792,-73.996236
RESOURCE PARKING LLC,2126869800,1540 BROADWAY,NEW YORK,NY,10036,Manhattan,40.757846,-73.98501
IMPERIAL PARKING US LLC,2125573311,90-15 PARSONS BOULEVARD,JAMAICA,NY,11432,,40.704571,-73.800744
NYC PARKING GROUP I LLC,7182850102,340 E 74TH ST,NEW YORK,NY,10021,Manhattan,40.769321,-73.955818
DEB PARKING LLC,2127143571,300 W 135TH ST,NEW YORK,NY,10030,Manhattan,40.816549,-73.947162
VS PARKING GARAGE CORP.,7189094449,275 PARK AVE,BROOKLYN,NY,11205,Brooklyn,40.696109,-73.968135
NEW YORK PARKING 51ST STREET CORP.,212-308-5959,251 E 51ST ST,NEW YORK,NY,10022,Manhattan,40.755679,-73.968219
SP PLUS CORPORATION,2125025490,380 LENOX AVE,NEW YORK,NY,10027,Manhattan,40.810438,-73.943203
SAM DAR ENTERPRISES INC,6463997098,3000 PARK AVE,BRONX,NY,10451,Bronx,40.82075,-73.922157
"CENTRAL PARKING SYSTEM OF NEW YORK, INC",2125025490,115 E 57TH ST,NEW YORK,NY,10022,Manhattan,40.761435,-73.969923
JENUWEN CAR PARK INC.,2122216111,580 FLATBUSH AVE,BROOKLYN,NY,11225,Brooklyn,40.659456,-73.960773
"CENTRAL PARKING SYSTEM OF NEW YORK, INC",2125025490,100 MORTON ST,NEW YORK,NY,10014,Manhattan,40.731025,-74.010022
LOREN'S PARKING GARAGE CORPORATON,212-244-2332,4035 PARK AVE,BRONX,NY,10457,Bronx,40.843735,-73.901869
PLATT PARKING LLC,2126869800,90 JOHN ST,NEW YORK,NY,10038,Manhattan,40.707992,-74.00632
ABILITY PARKING CORP.,2122493344,200 E END AVE,NEW YORK,NY,10128,Manhattan,40.777364,-73.943355
GM&M PARK INC.,6466100315,116 NOSTRAND AVE,BROOKLYN,NY,11205,Brooklyn,40.69625,-73.952874
"CENTRAL PARKING SYSTEM OF NEW YORK,INC.",7182239722,95 OCEANA DR E,BROOKLYN,NY,11235,Brooklyn,40.577219,-73.95752
"PARIS, ZACARIAS P",7182933679,1300 GERARD AVE,BRONX,NY,10452,Bronx,40.837216,-73.919111
F & A PARKING CORP,7183992640,785 DEKALB AVE,BROOKLYN,NY,11221,Brooklyn,40.692262,-73.945049
"LEONARD STREET PARKING, LLC",9736437700,88 LEONARD ST,NEW YORK,NY,10013,Manhattan,40.717071,-74.004682
"IMPERIAL PARKING (U.S.), LLC",2129378660,9605 QUEENS BLVD,REGO PARK,NY,11374,Queens,40.730445,-73.862358
64TH WEST END PARKING LLC,2126869800,110 W END AVE,NEW YORK,NY,10023,Manhattan,40.774958,-73.987784
PARKING SYSTEMS PLUS INC,8009441424,260 BAYCHESTER AVE,BRONX,NY,10475,Bronx,40.863498,-73.829117
200 WEA PARKING CORP.,7187880066,200 W END AVE,NEW YORK,NY,10023,Manhattan,40.77819,-73.985196
CLAREMONT PARKING CORP,2128661000,480 RIVERSIDE DR,NEW YORK,NY,10027,Manhattan,40.811413,-73.9638
"CENTRAL PARKING SYSTEM OF NEW YORK,INC.",2125025490,525 E 72ND ST,NEW YORK,NY,10021,Manhattan,40.766495,-73.951597
300 PARKING INC.,2127367171,300 W 55TH ST,NEW YORK,NY,10019,Manhattan,40.765143,-73.984253
"LAZ PARKING NEW YORK, NEW JERSEY LLC",2122652239,1283 YORK AVE,NEW YORK,NY,10065,Manhattan,40.764665,-73.955565
39TH AND EIGHTH PARKING LLC,212-686-9800,310 W 39TH ST,NEW YORK,NY,10018,Manhattan,40.755554,-73.991957
QUIK PARK MARLO LLC,2128322066,56 FULTON ST,NEW YORK,NY,10038,Manhattan,40.708409,-74.00496
VALET PARKING CORP.,2122493344,10 W 15TH ST,NEW YORK,NY,10011,Manhattan,40.736964,-73.994055
PRIMARY PARKING LLC,2126869800,721 10TH AVE,NEW YORK,NY,10019,Manhattan,40.764293,-73.99236
QUIK PARK LITTLE WEST LLC,,70 LITTLE WEST ST,NEW YORK,NY,10004,Manhattan,40.707046,-74.016671
"CENTRAL PARKING SYSTEM OF NEW YORK,INC.",2125649199,47 CHURCH ST,NEW YORK,NY,10007,Manhattan,40.71121,-74.010539
RKKS GROUP INC.,9172852934,13203 SANFORD AVE,FLUSHING,NY,11355,Queens,40.754888,-73.832836
TRITO PARKING   PARKING CORP,2129355922,225 E 63RD ST,NEW YORK,NY,10065,Manhattan,40.763626,-73.963434
"KINNEY PARKING SYSTEM, LLC",2125025490,159 W 48TH ST,NEW YORK,NY,10036,Manhattan,40.759484,-73.982538
K One Parking Inc,,2160 WEBSTER AVE,BRONX,NY,10457,Bronx,40.853785,-73.896582
ENTERPRISE 24 PARKING LLC,2126270012,160 W 24TH ST,NEW YORK,NY,10011,Manhattan,40.744549,-73.994909
"CENTRAL PARKING SYSTEM OF NEW YORK,INC.",2125025490,1292 PARK AVE,NEW YORK,NY,10029,Manhattan,40.788321,-73.951512
"KINNEY PARKING SYSTEM, INC.",2125025490,58 W 58TH ST,NEW YORK,NY,10019,Manhattan,40.764572,-73.976207
"KINNEY PARKING SYSTEM, INC.",2125025490,12 W 13TH ST,NEW YORK,NY,10011,Manhattan,40.735323,-73.994445
CARTER AVE PARKING CORP.,3475979366,1841 CARTER AVE,BRONX,NY,10457,Bronx,40.846808,-73.902329
216-10 NY PARKING CORP,(212) 304-0315,4055 10TH AVE,NEW YORK,NY,10034,Manhattan,40.870373,-73.91437
EFFECTIVE PARKING LLC,2126869800,435 W 57TH ST,NEW YORK,NY,10019,Manhattan,40.768747,-73.987282
MANHATTAN PARKING SYSTEM-PARK AVE. CORP.,2127536116,277 PARK AVE,NEW YORK,NY,10172,Manhattan,40.755438,-73.974708
"KINNEY PARKING SYSTEM, INC.",2125025490,224 MULBERRY ST,NEW YORK,NY,10012,Manhattan,40.722351,-73.996001
920 PARKING CORP.,2128661000,920 PARK AVE,NEW YORK,NY,10028,Manhattan,40.776578,-73.960144
F & R PARKING LOT CORP.,7183295670,65 NEW YORK AVE,BROOKLYN,NY,11216,Brooklyn,40.677868,-73.946821
169 LUDLOW PARKING LLC,212-262-4771,180 ORCHARD ST,NEW YORK,NY,10002,Manhattan,40.721789,-73.988241
"KINNEY PARKING SYSTEM, INC.",2125025490,50 W 93RD ST,NEW YORK,NY,10025,Manhattan,40.790145,-73.967376
57 & 11 PARKING CORP.,2128887400,622 W 57TH ST,NEW YORK,NY,10019,Manhattan,40.77068,-73.992418
QUIK PARK BLEECKER STREET GARAGE LLC,212-686-9800,350 BLEECKER ST,NEW YORK,NY,10014,Manhattan,40.734328,-74.004786
316 BERGEN PARKING CORP,2127367171,312 BERGEN ST,BROOKLYN,NY,11217,Brooklyn,40.683155,-73.981812
"IMPERIAL PARKING (U.S.), LLC",2129378660,8935 162ND ST,JAMAICA,NY,11432,Queens,40.705574,-73.798312
QUIK PARK GARMENT LLC,2128322066,155 E 34TH ST,NEW YORK,NY,10016,Manhattan,40.746079,-73.978557
ADVANCE PARKING LLC,2122218902,249 W 43RD ST,NEW YORK,NY,10036,Manhattan,40.757566,-73.988236
P.J.'S PARKING SERVICE CORP.,7189492507,8835 164TH ST,JAMAICA,NY,11432,Queens,40.708102,-73.797139
CHAPLAND PARKING LLC,2122889645,111 E 82ND ST,NEW YORK,NY,10028,Manhattan,40.777647,-73.958881
"CENTRAL PARKING SYSTEM OF NEW YORK,INC.",2125025490,200 CHAMBERS ST,NEW YORK,NY,10007,Manhattan,40.716703,-74.01226
1020 PARKING LLC,212-490-3460,1020 GRAND CONCOURSE,BRONX,NY,10451,Bronx,40.830237,-73.920312
"OLYMPIC PARKING SYSTEMS, LLC",2126270667,587 AVENUE OF THE AMERICAS,NEW YORK,NY,10011,Manhattan,40.739198,-73.995762
STANDARD PARKING CORPORATION,2122410795,1292 PARK AVE,NEW YORK,NY,10029,Manhattan,40.788321,-73.951512
HERALD SQUARE PARKING LLC,2126869800,839 6TH AVE,NEW YORK,NY,10001,Manhattan,40.746937,-73.990085
"PARKING SERVICES PLUS, INC.",5168254661,7710 41ST AVE,ELMHURST,NY,11373,Queens,40.746465,-73.870487
QUIK PARK SOUTHERN LLC,2128322066,1 NEW YORK PLZ,NEW YORK,NY,10004,Manhattan,40.702357,-74.012161
ENTERPRISE 62ND PARKING LLC,212-564-3199,301 E 62ND ST,NEW YORK,NY,10065,Manhattan,40.762439,-73.962597
ONE PARKING 1411 LLC,2123706530,136 W 40TH ST,NEW YORK,NY,10018,Manhattan,40.754521,-73.987611
GMH PARK INC,9172140583,1326 SPOFFORD AVE,BRONX,NY,10474,Bronx,40.814517,-73.885422
"CORINTHIAN PARKING MANAGEMENT, LLC",2127957275,330 E 38TH ST,NEW YORK,NY,10016,Manhattan,40.746488,-73.972452
247 NORTH 7TH STREET PARKING CORP,2127367171,248 N 8TH ST,BROOKLYN,NY,11211,Brooklyn,40.716316,-73.954011
QSB 267 PROPERTY CO LLC,2127246833,267 W 87TH ST,NEW YORK,NY,10024,Manhattan,40.789371,-73.976652
SP PLUS CORPORATION,2125025490,353 WEST ST,NEW YORK,NY,10014,Manhattan,40.729822,-74.010524
"G & R PARKING SERVICES, INC.",7184309038,1550 BLONDELL AVE,BRONX,NY,10461,Bronx,40.846184,-73.845383
"CONNAUGHT CAR PARK, LLC",2129966363,300 E 54TH ST,NEW YORK,NY,10022,Manhattan,40.757088,-73.966364
1939 W FARMS RD PARKING CORP,7183008790,1939 W FARMS RD,BRONX,NY,10460,Bronx,40.839623,-73.880498
10 WEST 66TH STREET CAR PARK LLC,2129966363,10 W 66TH ST,NEW YORK,NY,10023,Manhattan,40.772505,-73.97964
ROX PARKING LLC,2123272626,931 1ST AVE,NEW YORK,NY,10022,Manhattan,40.754794,-73.965712
45TH STREET PARKING CORP,2127367171,825 2ND AVE,NEW YORK,NY,10017,Manhattan,40.75129,-73.971363
"3223 JOHNSON SERVICES, INC.",718-543-5219,3223 JOHNSON AVE,BRONX,NY,10463,Bronx,40.883622,-73.910457
PRIME CAR PARK LLC,2122216111,941 HOE AVE,BRONX,NY,10459,Bronx,40.821884,-73.890465
205 THIRD PARKING LLC,2126869800,205 3RD AVE,NEW YORK,NY,10003,Manhattan,40.735991,-73.984939
"KINNEY PARKING SYSTEM, INC.",2125025490,211 W 87TH ST,NEW YORK,NY,10024,Manhattan,40.788616,-73.974674
"STABLE CAR PARKING, INC.",212-979-9815,9201 4TH AVE,BROOKLYN,NY,11209,Brooklyn,40.618073,-74.030013
REGAL PARKING CORP.,2127367171,9822 63RD DR,REGO PARK,NY,11374,Queens,40.731094,-73.857973
SEWARD PARK GARAGE LLC,6465840409,413 GRAND ST,NEW YORK,NY,10002,Manhattan,40.715374,-73.986474
GEMA PARKING CORP.,2124774043,333 E 14TH ST,NEW YORK,NY,10003,Manhattan,40.731812,-73.983264
1010 PARKING CORP.,2127367171,530 E 72ND ST,NEW YORK,NY,10021,Manhattan,40.765979,-73.952102
"IMPERIAL PARKING (U.S.), INC",2129378660,420 E 20TH ST,NEW YORK,NY,10009,Manhattan,40.734147,-73.978732
2910 ATLANTIC PARKING CORP.,7183648350,188 W 230TH ST,BRONX,NY,10463,Bronx,40.876675,-73.905509
ON 2'S PARKING & STORAGE INC.,6313341802,650 BERRIMAN ST,BROOKLYN,NY,11208,Brooklyn,40.662768,-73.874508
IMPERIAL PARKING US LLC,2125573311,302 2ND ST,BROOKLYN,NY,11215,Brooklyn,40.674337,-73.984975
CLINTON GRAND PARKING LLC,212-686-9800,240 E BROADWAY,NEW YORK,NY,10002,Manhattan,40.714542,-73.986424
333 EAST 75TH STREET PARKING CORP.,2127367171,333 E 75TH ST,NEW YORK,NY,10021,Manhattan,40.770155,-73.95522
"KINNEY PARKING SYSTEM, INC.",2125025490,23 W 55TH ST,NEW YORK,NY,10019,Manhattan,40.762262,-73.976067
LTG PARKING CORP.,2129999999,205 W END AVE,NEW YORK,NY,10023,Manhattan,40.778571,-73.986376
SP PLUS CORPORATION,2125025490,1500 UNIONPORT RD,BRONX,NY,10462,Bronx,40.836804,-73.855951
"CENTRAL PARKING SYSTEM OF NEW YORK,INC.",2125025490,56 GREENWICH ST,NEW YORK,NY,10006,Manhattan,40.707093,-74.014183
SEAPORT PARKING LLC,2126869800,80 BEEKMAN ST,NEW YORK,NY,10038,Manhattan,40.708825,-74.003955
"EDISON NY PARKING, LLC",3477285044,270 DYCKMAN ST,NEW YORK,NY,10034,Manhattan,40.866791,-73.929052
MURRAY PARK GARAGE CO. LLC,2122139600,120 E 34TH ST,NEW YORK,NY,10016,Manhattan,40.746453,-73.980264
METROPOLITAN 51 PARKING LLC,2123088474,569-573 LEXINGTON AVE,NEW YORK,NY,10022,Manhattan,40.756816,-73.97196
BOULEVARD LEASING LIMITED PARTNERSHIP,7188309084,9745 QUEENS BLVD,REGO PARK,NY,11374,Queens,40.729419,-73.85955
247 NORTH 7TH STREET PARKING CORP.,929-337-8633,248 N 8TH ST,BROOKLYN,NY,11211,Brooklyn,40.716316,-73.954011
WEST 43 PARKING LLC,2122624771,635 W 42ND ST,NEW YORK,NY,10036,Manhattan,40.76145,-73.999394
"CLEAN AIR CAR SERVICE & PARKING BRANCH TWO, LLC",718-395-8288,3720 PRINCE ST,FLUSHING,NY,11354,Queens,40.760294,-73.832874
"BRICIN PARKING, CORP.",2126500141,511 E 80TH ST,NEW YORK,NY,10075,Manhattan,40.771839,-73.949077
"IMPERIAL PARKING (U.S.), INC",2129378660,527 E 14TH ST,NEW YORK,NY,10009,Manhattan,40.730307,-73.979793
ENTERPRISE PARKING SYSTEMS 11 LLC,2125643199,145 E 16TH ST,NEW YORK,NY,10003,Manhattan,40.734835,-73.98647
245 EAST 19 STREET PARKING LLC,2126869800,245 E 19TH ST,NEW YORK,NY,10003,Manhattan,40.735713,-73.983032
"SHELTER PARKING BREVARD, LLC",5168813535,245 E 54TH ST,NEW YORK,NY,10022,Manhattan,40.757639,-73.966939
82-11 LLC,9172160426,8213 37TH AVE,JACKSON HEIGHTS,NY,11372,Queens,40.749921,-73.883781
69 ENTERPRISE PARKING LLC,2126270012,219 E 69TH ST,NEW YORK,NY,10021,Manhattan,40.76729,-73.960499
"SMITH CAR PARK, LLC",2129966363,75 SMITH ST,BROOKLYN,NY,11201,Brooklyn,40.68907,-73.988652
PURE ROYALTY ENTERPRISE LLC,7182942419,1843 CROTONA AVE,BRONX,NY,10457,Bronx,40.843782,-73.892772
EAGLE PARKING GARAGE INC,3472207660,759 EAGLE AVE,BRONX,NY,10456,Bronx,40.819816,-73.909559
"ALLIANCE 185TH PARKING, LLC",2125810535,4320 BROADWAY,NEW YORK,NY,10033,Manhattan,40.852231,-73.934471
METRO PARKING CORP.,2122493344,301 E 63RD ST,NEW YORK,NY,10065,Manhattan,40.763059,-73.962127
BREVOORT PARKING LLC,2126869800,20 E 9TH ST,NEW YORK,NY,10003,Manhattan,40.732238,-73.994785
IMPARK 1199 PA LLC,212-937-8660,1199 PARK AVE,NEW YORK,NY,10128,Manhattan,40.785344,-73.953098
24 LEONARD PARKING LLC,2126202621,24 LEONARD ST,NEW YORK,NY,10013,Manhattan,40.718402,-74.007565
"SURF AVENUE LOGISTICS, LLC",9175840383,173 E 156TH ST,BRONX,NY,10451,Bronx,40.823266,-73.923595
3480 THIRD AVENUE PARKING INC.,3472844141,3480 3RD AVE,BRONX,NY,10456,Bronx,40.830211,-73.905997
"CENTRAL PARKING SYSTEM OF NEW YORK,INC.",2125025490,214 W 80TH ST,NEW YORK,NY,10024,Manhattan,40.784182,-73.978908
PRINCESS CAR PARK INC.,2127367171,800 GRAND CONCOURSE,BRONX,NY,10451,Bronx,40.82516,-73.923328
"CENTRAL PARKING SYSTEM OF NEW YORK,INC.",2125025490,340 E 80TH ST,NEW YORK,NY,10075,Manhattan,40.773046,-73.952592
STANDARD PARKING CORPORATION,212163480,9230 165TH ST,JAMAICA,NY,11433,Queens,40.704401,-73.79424
MANHATTAN PARKING E. 35 ST. CORP.,2127536116,246 E 35TH ST,NEW YORK,NY,10016,Manhattan,40.745718,-73.976529
30-40-60 GARAGE LLC,6469644323,40 E 9TH ST,NEW YORK,NY,10003,Manhattan,40.731498,-73.993482
"CMJ PARKING, CORP",3478987780,6336 99TH ST,REGO PARK,NY,11374,Queens,40.731776,-73.856856
ISABEL PARKING LLC,6465840409,30 E 161ST ST,BRONX,NY,10451,Bronx,40.828028,-73.927092
111 EIGHTH AVENUE PARKING LLC,2126869800,111 8TH AVE,NEW YORK,NY,10011,Manhattan,40.740836,-74.001966
BASIC PARKING CORP.,2129802006,225 E 46TH ST,NEW YORK,NY,10017,Manhattan,40.752852,-73.971177
BUZZ PARKING II LLC,2122268567,14 KENMARE ST,NEW YORK,NY,10012,Manhattan,40.720419,-73.994758
CHAMPION PARKING 82 LLC,212-308-5959,60 E END AVE,NEW YORK,NY,10028,Manhattan,40.772661,-73.946806
F. A. J. PARKING CORP.,2122817491,3795 10TH AVE,NEW YORK,NY,10034,Manhattan,40.862047,-73.920469
NAGLE PARKING INC,9292478827,3050 CORLEAR AVE,BRONX,NY,10463,Bronx,40.879794,-73.908008
9851 CORP.,7184596110,6536 99TH ST,REGO PARK,NY,11374,Queens,40.728757,-73.85532
WEST 89TH STREET PARKING LLC,2123749867,205-209 W 89TH ST,NEW YORK,NY,10024,,40.790075,-73.974499
"CENTRAL PARKING SYSTEM OF NEW YORK,INC.",7185025490,7710 41ST AVE,ELMHURST,NY,11373,Queens,40.746465,-73.870487
QUIK PARK MIA GARAGE LLC,2123492299,38 BOWERY,NEW YORK,NY,10013,Manhattan,40.715427,-73.996797
LTG PARKING CORP.,2126869800,205 W END AVE,NEW YORK,NY,10023,Manhattan,40.778571,-73.986376
PREMIER PARKING LLC,2126869800,203 E 61ST ST,NEW YORK,NY,10065,Manhattan,40.762709,-73.96518
"IMPERIAL PARKING (U.S.), INC",2129378660,750 AVENUE OF THE AMERICAS,NEW YORK,NY,10010,Manhattan,40.743935,-73.991883
QUIK PARK PCVST GARAGE LLC,2126145862,420 E 20TH ST,NEW YORK,NY,10009,Manhattan,40.734147,-73.978732
QUIK PARK PCVST GARAGE LLC,2126145862,251 AVENUE C,NEW YORK,NY,10009,Manhattan,40.729187,-73.975481
222 WEST 14TH STREET PARKING CORP.,2122485900,222 W 14TH ST,NEW YORK,NY,10011,Manhattan,40.739027,-74.001197
CHAMPION PARKING 9 LLC,2123035959,220 E 9TH ST,NEW YORK,NY,10003,Manhattan,40.729513,-73.988254
THEATER 50 PARKING LLC,2126869800,305 W 50TH ST,NEW YORK,NY,10019,Manhattan,40.762539,-73.986437
PLYMOUTH PARKING LLC,2128798388,1781 1ST AVE,NEW YORK,NY,10128,Manhattan,40.781087,-73.946568
"CENTRAL PARKING SYSTEM OF NEW YORK,INC.",2126296602,910 9TH AVE,NEW YORK,NY,10019,Manhattan,40.768847,-73.984786
"CENTRAL PARKING SYSTEM OF NEW YORK,INC.",2125025490,100 W 57TH ST,NEW YORK,NY,10019,Manhattan,40.764316,-73.977601
MANHATTAN PARKING GRAMERCY CORP.,2124903460,32 GRAMERCY PARK S,NEW YORK,NY,10003,Manhattan,40.737017,-73.984918
CENTURY PARKING LLC,2126869800,330 E 75TH ST,NEW YORK,NY,10021,Manhattan,40.769815,-73.955086
IMPERIAL PARKING US LLC,2129378660,210 CENTRAL PARK S,NEW YORK,NY,10019,Manhattan,40.767036,-73.979961
CHAMPION PARKING 245 LLC,2123085959,1441 2ND AVE,NEW YORK,NY,10021,Manhattan,40.770947,-73.957024
"ALLAN GARAGE, LLC",2125025490,152 E 87TH ST,NEW YORK,NY,10128,Manhattan,40.779959,-73.954836
ENTERPRISE WORLD PARKING LLC,212-564-3199,845 UNITED NATIONS PLZ,NEW YORK,NY,10017,Manhattan,40.7525,-73.967579
"DAG PARKING MGMT, LLC",2127957275,240 E 47TH ST,NEW YORK,NY,10017,Manhattan,40.753037,-73.970352
"CENTRAL PARKING SYSTEM OF NEW YORK,INC.",2126296602,180 W 20TH ST,NEW YORK,NY,10011,Manhattan,40.741988,-73.996866
SP PLUS CORPORATION,2125025490,9844 57TH AVE,CORONA,NY,11368,Queens,40.738838,-73.859296
STANDARD PARKING CORPORATION,9999999999,PIER 40 WEST ST,NEW YORK,NY,10014,,40.738088,-74.005095
BRILLIANT PARKING CORP.,2125696249,284 DYCKMAN ST,NEW YORK,NY,10034,Manhattan,40.866995,-73.929293
401 EAST 86TH STREET PARKING LLC,2128767669,401 E 86TH ST,NEW YORK,NY,10028,Manhattan,40.776784,-73.948711
QUIK PARK HUDSON RIVER 5 LLC,2128322066,60 RIVERSIDE BLVD,NEW YORK,NY,10069,Manhattan,40.774735,-73.990913
ATRIUM PARK LLC,212-686-9800,155 W 36TH ST,NEW YORK,NY,10018,Manhattan,40.752176,-73.989205
RIVER PARKING SYSTEMS CORP.,7189939026,85 E 158TH ST,BRONX,NY,10451,Bronx,40.826571,-73.926247
PARK FDB LLC,2122228487,2280 FREDERICK DOUGLASS BLVD,NEW YORK,NY,10027,Manhattan,40.80845,-73.952171
OASIS AUTO REPAIR & GARAGE CORP.,212-544-2833,431 W 202ND ST,NEW YORK,NY,10034,Manhattan,40.861055,-73.920363
CARNEGIE BROADWAY PARKING LLC,2126869800,211-221 W 56TH ST,NEW YORK,NY,10019,Manhattan,40.765394,-73.981583
LM BONNEVILLE PARKING LLC,2127143571,329-333 E 22ND ST,NEW YORK,NY,10010,Manhattan,40.73701,-73.980718
PACE PARKING LLC,2126869800,990 AVENUE OF THE AMERICAS,NEW YORK,NY,10018,Manhattan,40.751428,-73.986338
"CENTRAL PARKING SYSTEM OF NEW YORK, INC",2125025490,350 E 30TH ST,NEW YORK,NY,10016,Manhattan,40.741318,-73.975741
LINC GARAGE LLC,646-584-0409,20 N 5TH ST,BROOKLYN,NY,11249,Brooklyn,40.719374,-73.963372
"KINNEY PARKING SYSTEM, INC.",2126296602,33 W 28TH ST,NEW YORK,NY,10001,Manhattan,40.745549,-73.988893
WALL STREET GARAGE PARKING CORP.,2127373279,1420 YORK AVE,NEW YORK,NY,10021,Manhattan,40.769074,-73.951885
"KINNEY PARKING SYSTEM, INC.",2125025490,73-79 W 92ND ST,NEW YORK,NY,10025,,40.790111,-73.968058
53RD PARKING CORP.,2127367171,301 W 53RD ST,NEW YORK,NY,10019,Manhattan,40.764409,-73.985047
"250 PARKING SERVICES, LLC",2122652239,250 E 39TH ST,NEW YORK,NY,10016,Manhattan,40.747944,-73.973909
520 WEST PARKING CORP.,2127367171,520 W 43RD ST,NEW YORK,NY,10036,Manhattan,40.760707,-73.996201
MANHATTAN PARKING E 35 ST CORP,2124903460,246 E 35TH ST,NEW YORK,NY,10016,Manhattan,40.745718,-73.976529
"KINNEY PARKING SYSTEM, INC.",212-502-5490,699 W END AVE,NEW YORK,NY,10025,Manhattan,40.79391,-73.974466
82ND PARKING GARAGE LLC,7187794774,3555 82ND ST,JACKSON HEIGHTS,NY,11372,Queens,40.75358,-73.885037
QUIK PARK HUDSON LLC,212-686-9800,140 RIVERSIDE BLVD,NEW YORK,NY,10069,Manhattan,40.77708,-73.988846
"KINNEY PARKING SYSTEM, INC.",2125025490,213 E 43RD ST,NEW YORK,NY,10017,Manhattan,40.751456,-73.973678
GMS AUTO STATION INC,9176559590,2173 GRAND CONCOURSE,BRONX,NY,10453,Bronx,40.855301,-73.901701
"CENTRAL PARKING SYSTEM OF NEW YORK,INC.",2126296602,1745 BROADWAY,NEW YORK,NY,10019,Manhattan,40.765235,-73.982263
416 EAST 61ST STREET GARAGE LLC,6465840409,416 E 61ST ST,NEW YORK,NY,10065,Manhattan,40.760567,-73.960853
"CENTRAL PARKING SYSTEM OF NEW YORK,INC.",2125025490,150 W 83RD ST,NEW YORK,NY,10024,Manhattan,40.785266,-73.975576
365 MANAGEMENT CORP.,7188882367,4125 KISSENA BLVD,FLUSHING,NY,11355,Queens,40.758145,-73.828434
PENN PARKING LLC,2126869800,1 PENN PLAZA,NEW YORK,NY,10001,,40.750938,-73.991594
"DIAMOND 1 PARKING GARAGE, INC.",3478435023,284 DYCKMAN ST,NEW YORK,NY,10034,Manhattan,40.866995,-73.929293
"IMPERIAL PARKING (U.S.), INC",2129378660,60 E 12TH ST,NEW YORK,NY,10003,Manhattan,40.732976,-73.990805
PARK 'N GO USA LLC,3476975154,340 PENNSYLVANIA AVE,BROOKLYN,NY,11207,Brooklyn,40.669202,-73.895387
"IMPARK WEST 56, LLC.",212-937-8660,33 W 56TH ST,NEW YORK,NY,10019,Manhattan,40.763138,-73.976205
8936 PARKING LLC,917-592-4762,8936 SUTPHIN BLVD,JAMAICA,NY,11435,Queens,40.701265,-73.809605
"ABC PARKING, CORP.",7188025611,2070 WHITE PLAINS RD,BRONX,NY,10462,Bronx,40.852581,-73.867569
ONE PARKING 34TH STREET LLC,2123706530,509 W 34TH ST,NEW YORK,NY,10001,Manhattan,40.754552,-73.999392
"CENTRAL PARKING SYSTEM OF NEW YORK,INC.",2125025490,284 AUDUBON AVE,NEW YORK,NY,10033,Manhattan,40.847727,-73.933264
118 PARKING CORP.,2127367171,1682 PARK AVE,NEW YORK,NY,10035,Manhattan,40.800825,-73.942339
ANN PARK LLC,2127143521,57 ANN ST,NEW YORK,NY,10038,Manhattan,40.710249,-74.006591
PARK AMERICA CORP,2124866888,50 N 5TH ST,BROOKLYN,NY,11249,Brooklyn,40.718559,-73.962056
QUIK PARK NORTHROSE GARAGE LLC,2128322066,505 E 161ST ST,BRONX,NY,10451,Bronx,40.823149,-73.909948
"KINNEY PARKING SYSTEM, LLC",2125025490,109 W 56TH ST,NEW YORK,NY,10019,Manhattan,40.763874,-73.977788
245 EAST 40TH ST. PARKING LLC,2126869800,747 2ND AVE,NEW YORK,NY,10017,Manhattan,40.748688,-73.97314
GMH PARK INC,9172140583,4701 QUEENS BLVD,SUNNYSIDE,NY,11104,Queens,40.743327,-73.917577
CAPITAL CAR PARK LLC,2122216111,1420 YORK AVE,NEW YORK,NY,10021,Manhattan,40.769074,-73.951885
MANHATTAN PARKING W 45TH STREET CORP.,2127536116,120 W 45TH ST,NEW YORK,NY,10036,Manhattan,40.757131,-73.983934
F & A PARKING CORP,7183992640,4123 CRESCENT ST,LONG ISLAND CITY,NY,11101,Queens,40.749736,-73.941
PAAL PARKING CORP.,7188929379,2010 WESTCHESTER AVE,BRONX,NY,10462,Bronx,40.833481,-73.857031
70TH PARK OPS LLC,2129299404,400 E 70TH ST,NEW YORK,NY,10021,Manhattan,40.766162,-73.956742
"FIESTA CAR PARK, LLC",2122216111,466 11TH AVE,NEW YORK,NY,10018,Manhattan,40.758003,-74.000241
"CENTRAL PARKING SYSTEM OF NEW YORK, INC",2125025490,196-200 CADMAN PLAZA W,BROOKLYN,NY,11201,Brooklyn,40.698383,-73.99184
LONG ISLAND JEWISH MEDICAL CENTER,718-470-7202,27117 76TH AVE,NEW HYDE PARK,NY,11040,Queens,40.751297,-73.700985
POO PARKING CORP.,2124903460,1752 MORRIS AVE,BRONX,NY,10457,Bronx,40.845841,-73.909117
MERIT PARKING LLC,2126869800,12 E 107TH ST,NEW YORK,NY,10029,Manhattan,40.794326,-73.949374
CP PARKING CORP.,9175785635,3907 PRINCE ST,FLUSHING,NY,11354,Queens,40.759364,-73.832034
LOVE PARKING LLC,2126869800,9 COLLEGE PL,BROOKLYN,NY,11201,Brooklyn,40.696308,-73.994579
215 E 95TH PARKING LLC,2126869800,201 E 95TH ST,NEW YORK,NY,10128,Manhattan,40.784498,-73.949424
QUIK PARK EAST 66 LLC,2128322066,250 E 67TH ST,NEW YORK,NY,10065,Manhattan,40.76603,-73.962287
PARK RIGHT CORPORATION,2122624771,39 E 29TH ST,NEW YORK,NY,10016,Manhattan,40.744312,-73.984225
53RD STERLING PARKING LLC,2126869800,304 E 53RD ST,NEW YORK,NY,10022,Manhattan,40.756594,-73.967152
STANDARD PARKING CORPORATION,2126667246,455 CENTRAL PARK W,NEW YORK,NY,10025,Manhattan,40.797752,-73.960761
BPG 149TH M LLC,7185856850,225 E 149TH ST,BRONX,NY,10451,Bronx,40.818159,-73.92474
"SOVEREIGN CAR PARK, INC.",2129966363,425 E 58TH ST,NEW YORK,NY,10022,Manhattan,40.758429,-73.960634
GREENLUX PARKING LLC,2126869800,300 N END AVE,NEW YORK,NY,10282,Manhattan,40.716758,-74.014348
"CHELSEA MTP OPERATING, LLC",2125755335,511 W 18TH ST,NEW YORK,NY,10011,Manhattan,40.744856,-74.006456
"IMPERIAL PARKING (U.S.), LLC",212-937-8660,6135 JUNCTION BOULEVARD,QUEENS,NY,11374,,40.732977,-73.863692
"KINNEY PARKING SYSTEM, INC.",2125025490,416 W 36TH ST,NEW YORK,NY,10018,Manhattan,40.754836,-73.995955
CENTURY CAR PARK LLC,2122216111,3310 AVENUE H,BROOKLYN,NY,11210,Brooklyn,40.631492,-73.944239
"WOC 80 DEKALB GARAGE, LLC",516-565-5600,80 DEKALB AVE,BROOKLYN,NY,11201,Brooklyn,40.689742,-73.979941
"CENTRAL PARKING SYSTEM OF NEW YORK,INC.",2125025490,371 7TH AVE,NEW YORK,NY,10001,Manhattan,40.748839,-73.99197
231ST STREET PARKING LLC,718-708-5077,3050 CORLEAR AVE,BRONX,NY,10463,Bronx,40.879794,-73.908008
"CENTRAL PARKING SYSTEM OF NEW YORK, INC",2125025490,27-49 W 52ND ST,NEW YORK,NY,10019,Manhattan,40.760584,-73.977412
ELMHURST PARKING CORPORATION,9173251969,8015 41ST AVE,ELMHURST,NY,11373,Queens,40.745926,-73.885292
"GARDEN GARAGE, LLC",212-686-9800,253 W 29TH ST,NEW YORK,NY,10001,Manhattan,40.748866,-73.995125
LTG PARKING CORP.,212-686-9800,165 W END AVE,NEW YORK,NY,10023,Manhattan,40.777116,-73.986869
IMPERIAL PARKING (US) LLC,2129378660,97 CHARLES ST,NEW YORK,NY,10014,Manhattan,40.734661,-74.005283
HARL PARKING CORP.,2129299404,1481 5TH AVE,NEW YORK,NY,10035,Manhattan,40.802609,-73.944681
375 HUD PARKING LLC,2126869800,375 HUDSON ST,NEW YORK,NY,10014,Manhattan,40.728418,-74.007368
PARK 15 WEST LLC,2125643199,422 W 15TH ST,NEW YORK,NY,10011,Manhattan,40.741778,-74.005416
PARK KWIK LLC,2129745840,20 JAY ST,BROOKLYN,NY,11201,Brooklyn,40.704091,-73.986694
"COLUMBUS CIRCLE PARKING, LLC",2126869800,330 W 58TH ST,NEW YORK,NY,10019,Manhattan,40.767776,-73.983582
EVER-READY PARKING INC.,2127367171,330 E 46TH ST,NEW YORK,NY,10017,Manhattan,40.751664,-73.968981
RAPID PARK HOLDING CORP,212-866-1000,1305 YORK AVE,NEW YORK,NY,10021,Manhattan,40.765378,-73.955054
FIVE STAR PARKING INC.,9737928420,450 E 29TH ST,NEW YORK,NY,10016,Manhattan,40.739681,-73.973768
ACCESS PARKING CORP.,2126757985,159 W 21ST ST,NEW YORK,NY,10011,Manhattan,40.742454,-73.994939
RELIABLE PARKING CORP.,2124903460,1193 FRANKLIN AVE,BRONX,NY,10456,Bronx,40.829915,-73.904541
ONE EASY PARK INC,9174008562,1802 PETRACCA PL,WHITESTONE,NY,11357,Queens,40.781719,-73.827951
EMPIRE PARKING CORP.,212-262-4771,853 LONGWOOD AVE,BRONX,NY,10459,Bronx,40.81938,-73.901038
QUIK PARK 866 GARAGE LLC,212-832-2066,866 UN PLZ,NEW YORK,NY,10017,Manhattan,40.752955,-73.973196
"ABM PARKING SERVICES, INC",2122131282,866 UNITED NATIONS PLZ,NEW YORK,NY,10017,Manhattan,40.752316,-73.966039
ENMANUEL PARKING GARAGE CORP.,7183291320,2346 RYER AVE,BRONX,NY,10458,Bronx,40.858366,-73.898413
BLEECKER PARKING CORP.,2127373279,380 LENOX AVE,NEW YORK,NY,10027,Manhattan,40.810438,-73.943203
QUIK PARK LIC LLC,2128322066,4545 CENTER BLVD,LONG ISLAND CITY,NY,11109,Queens,40.74794,-73.95634
2721 NEIGHBORHOOD PARKING LOT CORP.,347-427-7606,2721 BRONXWOOD AVE,BRONX,NY,10469,Bronx,40.86655,-73.861797
210 CENTRAL PARK SOUTH PARKING CORP.,2127367171,210 CENTRAL PARK S,NEW YORK,NY,10019,Manhattan,40.767036,-73.979961
DIAMOND PARKING CORP.,9736228888,67 LAIGHT ST,NEW YORK,NY,10013,Manhattan,40.721986,-74.009891
QUIK PARK 311 WB LLC,2128322066,311 W BROADWAY,NEW YORK,NY,10013,Manhattan,40.72176,-74.004109
BRIDGE PARKING LLC,2123085959,338 E 59TH ST,NEW YORK,NY,10022,Manhattan,40.75996,-73.963284
"CENTRAL PARKING SYSTEM OF NEW YORK, INC.",2129676800,525 W 28TH ST,NEW YORK,NY,10001,Manhattan,40.751564,-74.003372
SMITH & LIVINGSTON PARKING LLC,212-686-9800,141 LIVINGSTON ST,BROOKLYN,NY,11201,Brooklyn,40.690693,-73.988107
PANTOJA USED CAR INC.,7186178548,1962 CROTONA PKWY,BRONX,NY,10460,Bronx,40.842803,-73.885079
DANAE MARRERO,9175674884,424 E 147TH ST,BRONX,NY,10455,Bronx,40.814295,-73.918094
PATRIOT PARKING LLC,2126869800,308 GREENWICH ST,NEW YORK,NY,10013,Manhattan,40.717568,-74.011042
QUIK PARK CHARLES STREET LLC,2126869800,97 CHARLES ST,NEW YORK,NY,10014,Manhattan,40.734661,-74.005283
QUIK PARK STANDARD LLC,2128322066,101 PARK AVE,NEW YORK,NY,10178,Manhattan,40.751091,-73.978109
8930 parking llc,,8936 SUTPHIN BLVD,JAMAICA,NY,11435,Queens,40.701265,-73.809605
ASTRO PARKING LLC,2126869800,155 W 70TH ST,NEW YORK,NY,10023,Manhattan,40.777022,-73.981665
FOR THE COMMUNITY PARKING GARAGE INC.,3473645413,1900 JEROME AVE,BRONX,NY,10453,Bronx,40.850355,-73.910229
100 PARK TERRACE WEST OWNERS CORP.,2123320777,100 PARK TER W,NEW YORK,NY,10034,Manhattan,40.871982,-73.916286
"211 WEST 56TH ST CAR PARK, LLC",2129966363,211 W 56TH ST,NEW YORK,NY,10019,Manhattan,40.765394,-73.981583
QUIK PARK SWIFT LLC,2128322066,140 E 56TH ST,NEW YORK,NY,10022,Manhattan,40.760088,-73.969492
259-267 PARKING CORP.,7188585055,259 PACIFIC ST,BROOKLYN,NY,11201,Brooklyn,40.688342,-73.990322
"CENTRAL PARKING SYSTEM OF NEW YORK, INC",2125025490,800 UNION ST,BROOKLYN,NY,11215,Brooklyn,40.67451,-73.97593
PV PARKING III CORP,7186091200,124 E 124TH ST,NEW YORK,NY,10035,Manhattan,40.803817,-73.938457
QUIK PARK REAL LLC,2128322066,35 PARK AVE,NEW YORK,NY,10016,Manhattan,40.748021,-73.980321
EFFICIENT PARKING LLC,212-686-9800,170 W 23RD ST,NEW YORK,NY,10011,Manhattan,40.743786,-73.995309
"KINNEY PARKING SYSTEM, LLC",2125025490,10736 QUEENS BLVD,FOREST HILLS,NY,11375,Queens,40.727097,-73.853704
420 EAST 53RD PARKING LLC,2127595290,420 E 53RD ST,NEW YORK,NY,10022,Manhattan,40.755215,-73.963851
STANDARD PARKING CORPORATION,7185384611,951 RIVER AVE,BRONX,NY,10452,Bronx,40.830531,-73.924642
"GM PARKING GROUP, INC.",7189332044,2990 JEROME AVE,BRONX,NY,10468,Bronx,40.873675,-73.889032
TOWNHOUSE PARKING LLC,2122881798,177 E 73RD ST,NEW YORK,NY,10021,Manhattan,40.770752,-73.960635
DISTINCTIVE PARKING LLC,212-686-9800,35 E 61ST ST,NEW YORK,NY,10065,Manhattan,40.764521,-73.96943
"EDISON NY PARKING, LLC",2129979096,1120 AVENUE OF THE AMERICAS,NEW YORK,NY,10036,Manhattan,40.755754,-73.983216
"ST. ANN'S PARKING GARAGE, LLC",7184010141,601 E 156TH ST,BRONX,NY,10455,Bronx,40.819252,-73.91036
E&Y PARKING CORP.,7186844084,615 JACKSON AVE,BRONX,NY,10455,Bronx,40.815168,-73.908538
SKY PARKING CORP.,2126083060,121 READE ST,NEW YORK,NY,10013,Manhattan,40.716208,-74.009488
C & C PARKING LOT CORP,,3560 WEBSTER AVE,BRONX,NY,10467,Bronx,40.881116,-73.87036
MP BETH PARKING LLC,2124903476,225 RECTOR PL,NEW YORK,NY,10280,Manhattan,40.709296,-74.016123
"CENTRAL PARKING SYSTEM OF NEW YORK,INC.",2126296602,101 WORTH ST,NEW YORK,NY,10013,Manhattan,40.716219,-74.004144
QUIK PARK WEST 56 ST. LLC,212-832-2066,328 W 56TH ST,NEW YORK,NY,10019,Manhattan,40.766526,-73.98488
"CENTRAL PARKING SYSTEM OF NEW YORK,INC.",2124527815,1621-23 YORK AVE,NEW YORK,NY,10028,,40.775801,-73.947756
WILLBE PARKING LLC,2122604305,318 E 15TH ST,NEW YORK,NY,10003,Manhattan,40.732563,-73.983672
OXFORD PARKING CORP.,212-308-5959,333 E 49TH ST,NEW YORK,NY,10017,Manhattan,40.753855,-73.967715
"MIDWAY CAR PARK, LLC",2129966363,10802 QUEENS BLVD,FOREST HILLS,NY,11375,Queens,40.727097,-73.853704
"FIRST AVENUE PARKING, LLC",2127367171,630 1ST AVE,NEW YORK,NY,10016,Manhattan,40.745434,-73.972039
HOPE PARKING INC.,2124903460,400 E 84TH ST,NEW YORK,NY,10028,Manhattan,40.775247,-73.950151
58W58 PARKING LLC,2126869800,58 W 58TH ST,NEW YORK,NY,10019,Manhattan,40.764572,-73.976207
SP PLUS CORPORATION,2125025490,200 PARK AVE,NEW YORK,NY,10166,Manhattan,40.753965,-73.976401
"GRAND ARMY CAR PARK, LLC",7183982518,1 EASTERN PKWY,BROOKLYN,NY,11238,Brooklyn,40.673087,-73.968924
MP BETH PARKING LLC,2124903476,400 E 84TH ST,NEW YORK,NY,10028,Manhattan,40.775247,-73.950151
724 MANAGEMENT CORP.,7188882367,4125 KISSENA BLVD,FLUSHING,NY,11355,Queens,40.758145,-73.828434
1056 5TH AVE. PARKING LLC,2126869800,1056 5TH AVE,NEW YORK,NY,10028,Manhattan,40.781959,-73.95989
35 PARK AVENUE GARAGE LLC,6465840409,35 PARK AVE,NEW YORK,NY,10016,Manhattan,40.748021,-73.980321
DELTA PARK INC,929-340-4785,240 E 82ND ST,NEW YORK,NY,10028,Manhattan,40.775341,-73.954004
SHARP 22 PARKING LLC,2126869800,329 E 22ND ST,NEW YORK,NY,10010,Manhattan,40.736655,-73.979791
CHAMPION PARK 85 LLC,2123085959,234 E 85TH ST,NEW YORK,NY,10028,Manhattan,40.777383,-73.952946
ALLIANCE ETON PARKING LLC,2125810535,345 E 81ST ST,NEW YORK,NY,10028,Manhattan,40.773874,-73.951978
SP PLUS CORPORATION,2125025490,200 CENTRAL PARK W,NEW YORK,NY,10024,Manhattan,40.781348,-73.972781
JORDAN I PARKING LLC,2127511080,7031 108TH ST,FOREST HILLS,NY,11375,Queens,40.721852,-73.843594
PROUD PARKING LLC,2126869800,5 E 22ND ST,NEW YORK,NY,10010,Manhattan,40.74066,-73.989022
DIVINE PARKING GARAGE CORP,2125442833,3775 10TH AVE,NEW YORK,NY,10034,Manhattan,40.861547,-73.920836
METROPOLITAN PARKING GROUP LLC,2126275805,69 5TH AVE,NEW YORK,NY,10003,Manhattan,40.73622,-73.993243
"BRONX PARKING CO., LLC",7187331820,2355 WEBSTER AVE,BRONX,NY,10458,Bronx,40.857515,-73.894992
702 CONCOURSE CORP.,7187880066,780 CONCOURSE VLG W,BRONX,NY,10451,Bronx,40.823795,-73.922709
"CENTRAL PARKING SYSTEM OF NEW YORK,INC.",2126296602,115 E 57TH ST,NEW YORK,NY,10022,Manhattan,40.761435,-73.969923
18TH AND THIRD PARKING LLC,2126869800,201 E 17TH ST,NEW YORK,NY,10003,Manhattan,40.735227,-73.985364
"CENTRAL PARKING SYSTEM OF NEW YORK,INC.",2126296602,200 E 80TH ST,NEW YORK,NY,10075,Manhattan,40.774737,-73.956549
"337 GARAGE, L.L.C.",2128887400,337 E 64TH ST,NEW YORK,NY,10065,Manhattan,40.76309,-73.960262
165 STREET PARKING INC,646 599-4839,8835 165TH ST,JAMAICA,NY,11432,Queens,40.705526,-73.795104
RAMCELL PARKING CORPORATION,646-764-0185,1484 JEROME AVE,BRONX,NY,10452,Bronx,40.842065,-73.916145
BRONX CAR PARK SYSTEMS INC.,212-221-6111,2425 SEDGWICK AVE,BRONX,NY,10468,Bronx,40.865036,-73.908939
MANSION 88 PARKING LLC,2126869800,170 E END AVE,NEW YORK,NY,10128,Manhattan,40.776021,-73.944264
"COVE CLUB CAR PARK, LLC",2129966363,2 S END AVE,NEW YORK,NY,10280,Manhattan,40.708177,-74.017344
"IN LOT PARKING, INC.",3477713329,1963 GRAND CONCOURSE,BRONX,NY,10453,Bronx,40.850946,-73.905209
STANDARD PARKING CORPORATION,2129163480,3611 HENRY HUDSON PKWY,BRONX,NY,10463,Bronx,40.88728,-73.912371
T.P.E.C LLC,7187070335,4110 CRESCENT ST,ASTORIA,NY,11101,Queens,40.751628,-73.939337
M AND B PARKING LLC,2123482174,315 E 102ND ST,NEW YORK,NY,10029,Manhattan,40.7878,-73.94341
"KINNEY PARKING SYSTEM, LLC",2125025490,252 W 40TH ST,NEW YORK,NY,10018,Manhattan,40.75541,-73.989854
ADONIS PARKING LLC,2124903460,201 E 56TH ST,NEW YORK,NY,10022,Manhattan,40.759529,-73.96764
AUDUBON PARKING OPS LLC,212-568-6400,284 AUDUBON AVE,NEW YORK,NY,10033,Manhattan,40.847727,-73.933264
MP 425 EAST LLC,2124903460,425 E 79TH ST,NEW YORK,NY,10075,Manhattan,40.771968,-73.951396
CLINTON GRAND PARKING LLC,212-686-9800,413 GRAND ST,NEW YORK,NY,10002,Manhattan,40.715374,-73.986474
SHERMAN PARKING INC.,2125447275,210 SHERMAN AVE,NEW YORK,NY,10034,Manhattan,40.865772,-73.920847
"ONE PARKING STRATHMORE, LLC",480-272-2100,400 E 84TH ST,NEW YORK,NY,10028,Manhattan,40.775247,-73.950151
TRIBECA PARKING CORP.,2122749225,454 GREENWICH ST,NEW YORK,NY,10013,Manhattan,40.723583,-74.009535
OMNI PARKING LLC,2126869800,143 W 68TH ST,NEW YORK,NY,10023,Manhattan,40.77534,-73.98217
A&M PARKING LOT INC.,7189935575,600 EAST  156 STREET,BRONX,NY,10455,,40.818844,-73.909571
"KINNEY PARKING SYSTEM, LLC",2125025490,213 E 43RD ST,NEW YORK,NY,10017,Manhattan,40.751456,-73.973678
SUPER ELITE PARKING INC,9174705093,331 E 132ND ST,BRONX,NY,10454,Bronx,40.805538,-73.926226
"KINNEY PARKING SYSTEM, INC.",2126296602,38 W 46TH ST,NEW YORK,NY,10036,Manhattan,40.756706,-73.980883
PORT PARKING LLC,2126869800,235 W 48TH ST,NEW YORK,NY,10036,Manhattan,40.760795,-73.986059
181 PARK CORP.,2129299404,506 W 181ST ST,NEW YORK,NY,10033,Manhattan,40.848291,-73.931624
38TH & THIRD PARKING LLC,2126869800,205 E 38TH ST,NEW YORK,NY,10016,Manhattan,40.748125,-73.97574
A & P PARKING CORP.,9174996255,525 CLINTON AVE,BROOKLYN,NY,11238,Brooklyn,40.682477,-73.966529
REX PARKING CORP.,5166984240,10 E 153RD ST,BRONX,NY,10451,Bronx,40.82092,-73.923838
WORTHY PARKING LLC,2124903460,841 10TH AVE,NEW YORK,NY,10019,Manhattan,40.768235,-73.989445
WEST 46 ST GARAGE LLC,2128322066,305 W 46TH ST,NEW YORK,NY,10036,Manhattan,40.760089,-73.988366
ULTIMATE 54 PARKING LLC,2126869800,390 PARK AVE,NEW YORK,NY,10022,Manhattan,40.759358,-73.972703
STANDARD PARKING CORPORATION,2125990184,200 PARK AVE,NEW YORK,NY,10166,Manhattan,40.753965,-73.976401
"CENTRAL PARKING SYSTEM OF NEW YORK,INC.",2125025490,250 BRADHURST AVE,NEW YORK,NY,10039,Manhattan,40.82942,-73.938621
"ALMAR GARAGE, INC.",2127444750,700 PARK AVE,NEW YORK,NY,10021,Manhattan,40.769472,-73.965349
30-40-60 GARAGE LLC,6469644323,60 E 9TH ST,NEW YORK,NY,10003,Manhattan,40.73129,-73.99249
ICE HOUSE PARKING CORP.,2129299404,27 N MOORE ST,NEW YORK,NY,10013,Manhattan,40.719941,-74.007446
PEAK TIME PARKING INC.,2129424295,1730 JEROME AVE,BRONX,NY,10453,Bronx,40.847287,-73.912575
WEST 161ST PARKING CORP,6469283465,519 W 161ST ST,NEW YORK,NY,10032,Manhattan,40.835941,-73.941334
"IMPERIAL PARKING (U.S.), INC",2129378660,528 E 20TH ST,NEW YORK,NY,10009,Manhattan,40.733192,-73.976225
"CENTRAL PARKING SYSTEM OF NEW YORK,INC.",2125025490,9 W 31ST ST,NEW YORK,NY,10001,Manhattan,40.747038,-73.986768
"PRUDENTI, THERESA",7183877000,552 50 AVENUE,LONG ISLND CITY,NY,11101,,40.744622,-73.934502
"CENTRAL PARKING SYSTEM OF NEW YORK, INC",2125025490,201-205 E 79TH ST,NEW YORK,NY,10075,Manhattan,40.77431,-73.956956
FLATBRIDGE PARKING CORP.,2122216111,36 FLATBUSH AVENUE EXT,BROOKLYN,NY,11201,Brooklyn,40.697481,-73.985283
WESTSIDE 42 PARKING LLC,212-686-9800,350 W 42ND ST,NEW YORK,NY,10036,Manhattan,40.758044,-73.992134
QUIK PARK WEST 22ND ST. MANAGEMENT LLC,2128322066,133 W 22ND ST,NEW YORK,NY,10011,Manhattan,40.742878,-73.994546
D'ALMONTE ENTERPRISES PARKING GARAGE INC.,3478620100,2080 JEROME AVE,BRONX,NY,10453,Bronx,40.854694,-73.906326
CORINTHIAN PARKING MANAGEMENT LLC,2127957275,330 E 38TH ST,NEW YORK,NY,10016,Manhattan,40.746488,-73.972452
"KINNEY PARKING SYSTEM, INC.",2125025490,870 8TH AVE,NEW YORK,NY,10019,Manhattan,40.763799,-73.984776
MERCER PARKING GARAGE CORP.,2122265578,165 MERCER ST,NEW YORK,NY,10012,Manhattan,40.725459,-73.998007
QUIK PARK 61ST STREET LLC,212-832-2066,510 E 62ND ST,NEW YORK,NY,10065,Manhattan,40.76023,-73.957891
QUIK PARK 61ST STREET LLC,212-832-2066,425 E 61ST ST,NEW YORK,NY,10065,Manhattan,40.760442,-73.959328
QUIK PARK REGENT LLC,2128322066,38 BOWERY,NEW YORK,NY,10013,Manhattan,40.715427,-73.996797
157-57TH  INC,9178435910,157 E 57TH ST,NEW YORK,NY,10022,Manhattan,40.760531,-73.96778
"125 VERTICAL PARKING GROUP, LLC",2129562280,123 BAXTER ST,NEW YORK,NY,10013,Manhattan,40.718181,-73.998779
CLASSIC PARKING LLC,2126869800,866 UNITED NATIONS PLZ,NEW YORK,NY,10017,Manhattan,40.752316,-73.966039
"EASTGATE PARKING LEASEHOLD, LLC",2127957275,224 E 39TH ST,NEW YORK,NY,10016,Manhattan,40.748421,-73.975346
"CENTRAL PARKING SYSTEM OF NEW YORK,INC.",7182221032,350 JAY ST,BROOKLYN,NY,11201,Brooklyn,40.693448,-73.987759
ADD PARK INC,9174705093,3000 PARK AVE,BRONX,NY,10451,Bronx,40.82075,-73.922157
475 PARKING LLC,2126869800,475 PARK AVE S,NEW YORK,NY,10016,Manhattan,40.745374,-73.982245
MR PARKING CORP,9172730268,1872 E TREMONT AVE,BRONX,NY,10460,Bronx,40.840876,-73.864744
"IMPERIAL PARKING (U.S.), LLC",212-934-8660,33 W 56TH ST,NEW YORK,NY,10019,Manhattan,40.763138,-73.976205
"CENTRAL PARKING SYSTEM OF NEW YORK,INC.",2125025490,1000 5TH AVE,NEW YORK,NY,10028,Manhattan,40.778873,-73.962284
QUEENS LIC PARKING LLC,212-686-9800,3002 39TH AVE,LONG ISLAND CITY,NY,11101,Queens,40.752121,-73.934058
"CENTRAL PARKING SYSTEM OF NEW YORK,INC.",2125025490,7 HANOVER SQ,NEW YORK,NY,10004,Manhattan,40.704265,-74.009335
LTG PARKING CORP.,212-686-9800,150 W END AVE,NEW YORK,NY,10023,Manhattan,40.776639,-73.985931
165 WEST 66TH STREET PARKING LLC,212-686-9800,165 W 66TH ST,NEW YORK,NY,10023,Manhattan,40.774762,-73.984074
CLICK PARKING CORP.,212-308-5959,225 CENTRAL PARK W,NEW YORK,NY,10024,Manhattan,40.783035,-73.971203
"IMPERIAL PARKING (U.S.), LLC",2129378660,31 NAGLE AVE,NEW YORK,NY,10040,Manhattan,40.85948,-73.929828
QUIK PARK BLOOM LLC,212-686-9800,169 E 60TH ST,NEW YORK,NY,10022,Manhattan,40.762658,-73.96707
"CENTRAL PARKING SYSTEM OF NEW YORK,INC.",2126048538,553 AVENUE OF THE AMERICAS,NEW YORK,NY,10011,Manhattan,40.738193,-73.996337
1330 SIXTH PARKING LLC,2126869800,57 W 53RD ST,NEW YORK,NY,10019,Manhattan,40.76109,-73.976736
EXCELLENT PARKING LLC,2126869800,153 E 29TH ST,NEW YORK,NY,10016,Manhattan,40.743163,-73.981519
"CENTRAL PARKING SYSTEM OF NEW YORK, INC",2125025490,135 W 50TH ST,NEW YORK,NY,10019,Manhattan,40.760841,-73.982409
136 W. 40TH PARKING LLC,2126869800,1411 BROADWAY,NEW YORK,NY,10018,Manhattan,40.754093,-73.987278
QUIK PARK HUDSON LLC,2128322066,160 RIVERSIDE BLVD,NEW YORK,NY,10069,Manhattan,40.777769,-73.988529
JENUWEN CAR PARK INC.,2122216111,590 FLATBUSH AVE,BROOKLYN,NY,11225,Brooklyn,40.659038,-73.960775
"CONEY CAR PARK, LLC",2122216111,346 CONEY ISLAND AVE,BROOKLYN,NY,11218,Brooklyn,40.649359,-73.971949
2010 PARKING INC.,7188929379,2010 WESTCHESTER AVE,BRONX,NY,10462,Bronx,40.833481,-73.857031
PARK RIGHT CORPORATION,2122624771,125 PERRY ST,NEW YORK,NY,10014,Manhattan,40.735133,-74.007093
"MUTUAL PARKING, INC.",2128887400,61 E END AVE,NEW YORK,NY,10028,Manhattan,40.772201,-73.946655
"IMPERIAL PARKING (U.S.), LLC",2129378660,9230 165TH ST,JAMAICA,NY,11433,Queens,40.704401,-73.79424
NEPTUNE PARKING LLC,2126869800,626 SHEEPSHEAD BAY RD,BROOKLYN,NY,11224,Brooklyn,40.578886,-73.975566
LEXINGTON 58 PARKING LLC,2126869800,150 E 58TH ST,NEW YORK,NY,10155,Manhattan,40.761116,-73.967868
MALLI PARKING INC.,7189935575,600 E 156TH ST,BRONX,NY,10455,Bronx,40.818844,-73.909571
TUNNEL 34 PARKING LLC,2126869800,222 E 34TH ST,NEW YORK,NY,10016,Manhattan,40.745046,-73.976924
"SPECIALTY PARKING, LLC",321-228-6908,13530 140TH ST,JAMAICA,NY,11436,Queens,40.667515,-73.798413
KAPPA PARKING INC,6468385122,144 E 17TH ST,NEW YORK,NY,10003,Manhattan,40.735294,-73.986261
"CENTRAL PARKING SYSTEM OF NEW YORK,INC.",2125025490,375 PARK AVE,NEW YORK,NY,10152,Manhattan,40.758519,-73.972299
WELCOME PARKING LIMITED LIABILITY COMPANY,2016807129,511 W 18TH ST,NEW YORK,NY,10011,Manhattan,40.744856,-74.006456
B. E. W. PARKING CORP.,2128661000,254 W 79TH ST,NEW YORK,NY,10024,Manhattan,40.783934,-73.980616
REGAL PARKING LLC,2126869800,250 MADISON AVE,NEW YORK,NY,10016,Manhattan,40.750432,-73.981212
"WATERVIEW PARKING, INC.",2126509320,180 E END AVE,NEW YORK,NY,10128,Manhattan,40.776661,-73.943838
INSTANT PARKING LLC,2126869800,434 E 80TH ST,NEW YORK,NY,10075,Manhattan,40.772131,-73.950337
EZ EXPRESS PARKING CORP.,9177437661,1560 JEROME AVE,BRONX,NY,10452,Bronx,40.84367,-73.914951
QUIK PARK 1633 GARAGE LLC,2128322066,1633 BROADWAY,NEW YORK,NY,10019,Manhattan,40.761997,-73.984228
HAPPY MEN PARKING INC.,7185796823,1556 JEROME AVE,BRONX,NY,10452,Bronx,40.843005,-73.915652
MANHATTAN PARKING WEST 45 STREET CORP,212-490-3460,120 W 45TH ST,NEW YORK,NY,10036,Manhattan,40.757131,-73.983934
F & A PARKING CORP,718-399-2640,333 GREENE AVE,BROOKLYN,NY,11238,Brooklyn,40.687794,-73.957767
ALERT PARKING LLC,2122495290,30 E 85TH ST,NEW YORK,NY,10028,Manhattan,40.780168,-73.95955
PEAK TIME PARKING INC.,9174705093,4469 BROADWAY,NEW YORK,NY,10040,Manhattan,40.857499,-73.932456
UPTOWN PARKING CORP.,2124903460,6 W 137TH ST,NEW YORK,NY,10037,Manhattan,40.813969,-73.936863
ENTERPRISE 37 EAST PARKING LLC,212-679-8414,415 E 37TH ST,NEW YORK,NY,10016,Manhattan,40.745487,-73.971393
BELUGA PARKING CORP,2125416050,1820 E TREMONT AVE,BRONX,NY,10460,Bronx,40.840277,-73.866872
"IMPERIAL PARKING (U.S.), LLC",212-934-8660,187 PACIFIC STREET,BROOKLYN,NY,11201,,40.689258,-73.993182
170 PARK ROW PARKING CORP,2127367171,170 PARK ROW,NEW YORK,NY,10038,Manhattan,40.713738,-74.00001
SEWARD PARK GARAGE LLC,6465840409,240 E BROADWAY,NEW YORK,NY,10002,Manhattan,40.714542,-73.986424
R A D VALET PARKING INC,6462518052,5423 8TH AVE,BROOKLYN,NY,11220,Brooklyn,40.638214,-74.006202
STANDARD PARKING CORPORATION,2127864245,250 VESEY ST,NEW YORK,NY,10282,Manhattan,40.714443,-74.015849
BRYK CORP.,7184596110,6536 99TH ST,REGO PARK,NY,11374,Queens,40.728757,-73.85532
"50 EAST 79TH STREET CAR PARK, LLC",2128790670,50 E 79TH ST,NEW YORK,NY,10075,Manhattan,40.776045,-73.961879
KCF PARKING CORP.,718-933-3200,2481 CROTONA AVE,BRONX,NY,10458,Bronx,40.856285,-73.882593
MP 97 LLC,212-490-3460,217 E 96TH ST,NEW YORK,NY,10128,Manhattan,40.784914,-73.948198
CONSOLIDATED PARKING LLC,2126869800,146 3RD AVE,NEW YORK,NY,10003,Manhattan,40.734115,-73.986775
"CENTRAL PARKING SYSTEM OF NEW YORK,INC.",2126296602,10 COLUMBUS CIR,NEW YORK,NY,10019,Manhattan,40.768356,-73.98264
JO-DASH PARKING CORP.,2126869800,488 3RD AVE,NEW YORK,NY,10016,Manhattan,40.745371,-73.978647
HOYT & SCHERMERHORN PARKING LLC.,2126869800,45 HOYT ST,BROOKLYN,NY,11201,Brooklyn,40.689289,-73.985834
HEIGHTS 183 PARKING LLC,2126869800,2479 AMSTERDAM AVE,NEW YORK,NY,10033,Manhattan,40.849239,-73.929839
"ONE PARKING GOTHAM, INC.",2123706530,4201 28TH ST,LONG ISLAND CIT,NY,11101,Queens,40.743512,-73.939292
"IMPERIAL PARKING (U.S.), LLC",212-937-8660,9525 QUEENS BLVD,REGO PARK,NY,11374,Queens,40.730904,-73.863609
"CENTRAL PARKING SYSTEM OF NEW YORK,INC.",2126296602,441 9TH AVE,NEW YORK,NY,10001,Manhattan,40.753818,-73.996217
NINTH AVENUE PARKING LLC,2125643199,404 W 37TH ST,NEW YORK,NY,10018,Manhattan,40.755357,-73.99534
"DMP PARKING GARAGE, INC.",9176455203,1231 WEBSTER AVE,BRONX,NY,10456,Bronx,40.832773,-73.909566
LUCKY CAR PARK LLC,2122216111,380 MALCOLM X BLVD,NEW YORK,NY,10027,Manhattan,40.810167,-73.943624
SCARLET 53 PARKING LLC,2126869800,211 E 53RD ST,NEW YORK,NY,10022,Manhattan,40.757486,-73.968588
"PRECISE PARK ASSOCIATES, LLC",2124903460,702 GRAND CONCOURSE,BRONX,NY,10451,Bronx,40.822218,-73.925055
"J & B PARKING GARAGE, INC.",2125433328,2123 AMSTERDAM AVE,NEW YORK,NY,10032,Manhattan,40.837965,-73.93814
CREST CAR PARK LLC,718-499-1235,306 2ND ST,BROOKLYN,NY,11215,Brooklyn,40.674226,-73.984781
EAST 71ST STREET GARAGE CORP.,2128799451,135 E 71ST ST,NEW YORK,NY,10021,Manhattan,40.769954,-73.962884
"BROOK PARKING GARAGE, INC.",7185888328,420 E 167TH ST,BRONX,NY,10456,Bronx,40.830315,-73.909733
880 FIFTH PARKING LLC,,880 5TH AVE,NEW YORK,NY,10021,Manhattan,40.770622,-73.968161
EXPRESS PARK LLC,2122216111,425 E 79TH ST,NEW YORK,NY,10075,Manhattan,40.771968,-73.951396
MAY PARKING CORP.,2127373279,330 E 70TH ST,NEW YORK,NY,10021,Manhattan,40.766636,-73.957585
CHAMPION PARKING 36 LLC,2123085959,30 PARK AVE,NEW YORK,NY,10016,Manhattan,40.748235,-73.980812
ACE'S PARKING GARAGE INC.,3472207660,950 WESTCHESTER AVE,BRONX,NY,10459,Bronx,40.822358,-73.896027
INTEGRITY PARKING LLC,2126869800,315 E 72ND ST,NEW YORK,NY,10021,Manhattan,40.768534,-73.957318
"CENTRAL PARKING SYSTEM OF NEW YORK,INC.",2125022490,200 E 65TH ST,NEW YORK,NY,10065,Manhattan,40.765121,-73.963671
357 EAST 57TH STREET PARKING CORP,212-736-7171,357 E 57TH ST,NEW YORK,NY,10022,Manhattan,40.758569,-73.963097
PARKING SYSTEMS PLUS INC,8009441424,280 BAYCHESTER AVE,BRONX,NY,10475,Bronx,40.86672,-73.830385
"ALFRED CAR PARK, LLC",2129966363,161 W 61ST ST,NEW YORK,NY,10023,Manhattan,40.77156,-73.986095
"KINNEY PARKING SYSTEM, INC.",2125025490,6575 SAUNDERS ST,REGO PARK,NY,11374,Queens,40.727103,-73.856915
CHAMPION 126 LLC,2123085959,162 E 126TH ST,NEW YORK,NY,10035,Manhattan,40.804674,-73.936568
"CENTRAL PARKING SYSTEM OF NEW YORK, INC",2125025490,154-156 E 53RD ST,NEW YORK,NY,10022,Manhattan,40.757912,-73.970147
BK PARKING GROUP INC,9173277488,1414 CROMWELL AVE,BRONX,NY,10452,Bronx,40.841115,-73.919458
"CENTRAL PARKING SYSTEM OF NEW YORK,INC.",2125025490,199 WATER ST,NEW YORK,NY,10038,Manhattan,40.707051,-74.004399
MANHATTAN PARKING EAST 34TH STREET CORP.,2126862508,333 E 34TH ST,NEW YORK,NY,10016,Manhattan,40.74422,-73.974137
304060 PARKING LLC,2126869800,40 E 9TH ST,NEW YORK,NY,10003,Manhattan,40.731498,-73.993482
"PARK 139TH, LLC",2122340855,34 W 139TH ST,NEW YORK,NY,10037,Manhattan,40.815644,-73.936651
CAPITAL PARKING LLC,2126869800,166 E 63RD ST,NEW YORK,NY,10065,Manhattan,40.764228,-73.965439
LM SUTPHIN PARKING LLC,2127143571,8822 SUTPHIN BLVD,JAMAICA,NY,11435,Queens,40.701265,-73.809605
"KINNEY PARKING SYSTEM, INC.",7125025490,10736 QUEENS BLVD,FOREST HILLS,NY,11375,Queens,40.727097,-73.853704
"PLAZA CAR PARK, LLC",212-221-6111,2 PLAZA ST,BROOKLYN,NY,11238,Brooklyn,40.675386,-73.971049
QUIK PARK EAST 72 LLC,2128322066,530 E 73RD ST,NEW YORK,NY,10021,Manhattan,40.767093,-73.952777
"KINNEY PARKING SYSTEM, LLC",2125025490,301 E 66TH ST,NEW YORK,NY,10065,Manhattan,40.764953,-73.9608
QP GRAND ARMY PLAZA LLC,2126869800,1 EASTERN PKWY,BROOKLYN,NY,11238,Brooklyn,40.673087,-73.968924
"IMPERIAL PARKING (U.S.), INC",2129378660,187 PACIFIC ST,BROOKLYN,NY,11201,Brooklyn,40.689258,-73.993182
247 NORTH 7TH STREET PARKING CORP,2127367171,249 N 7TH ST,BROOKLYN,NY,11211,Brooklyn,40.716141,-73.954813
"CENTRAL PARKING SYSTEM OF NEW YORK,INC.",7185384611,20 E 161ST ST,BRONX,NY,10451,Bronx,40.829209,-73.929383
MKN PARKING CORP,6466516335,1355 CROMWELL AVE,BRONX,NY,10452,Bronx,40.839875,-73.920464
RAMP PARKING CORP.,2128661000,44 ELIZABETH ST,NEW YORK,NY,10013,Manhattan,40.716972,-73.996602
1908 PARK AVENUE STORAGE LLC,212-427-4004,1908 PARK AVE,NEW YORK,NY,10035,Manhattan,40.808135,-73.937113
"CENTRAL PARKING SYSTEM OF NEW YORK,INC.",2125025490,688 MAIN ST,NEW YORK,NY,10044,Manhattan,40.765065,-73.946706
ARMORY PARKING INC.,7184729595,171 CLERMONT AVE,BROOKLYN,NY,11205,Brooklyn,40.692447,-73.970543
RAINBOW PARKING CORP.,212-308-5959,300 E 71ST ST,NEW YORK,NY,10021,Manhattan,40.767871,-73.958534
23RD STREET PARKING LLC,2126869800,318 E 23RD ST,NEW YORK,NY,10010,Manhattan,40.737331,-73.980009
"ABM PARKING SERVICES, INC",2122131282,450 E 29TH ST,NEW YORK,NY,10016,Manhattan,40.739681,-73.973768
J & A PARKING INC,7186180992,376 E 184TH ST,BRONX,NY,10458,Bronx,40.857488,-73.895858
ARTHUR MANAGEMENT CORPORATION,7189603867,4400 3RD AVE,BRONX,NY,10457,Bronx,40.85181,-73.892802
CHAMPION PARKING 33 LLC,2123085959,4 PARK AVE,NEW YORK,NY,10016,Manhattan,40.746835,-73.981829
34 BERRY STREET LLC,7183870344,34 BERRY ST,BROOKLYN,NY,11211,Brooklyn,40.721181,-73.956434
"CENTRAL PARKING SYSTEM OF NEW YORK,INC.",2125025490,103 WARREN ST,NEW YORK,NY,10007,Manhattan,40.71614,-74.012682
IMPERIAL PARKING LLC,2129378660,306 2ND ST,BROOKLYN,NY,11215,Brooklyn,40.674226,-73.984781
QUEEN PARKING LLC,7188862422,3907 PRINCE ST,FLUSHING,NY,11354,Queens,40.759364,-73.832034
PARK NORTH 9 LLC,2123606300,56 N 9TH ST,BROOKLYN,NY,11249,Brooklyn,40.721259,-73.960454
304060 PARKING LLC,2126869800,30 E 9TH ST,NEW YORK,NY,10003,Manhattan,40.731997,-73.994149
207TH STREET PARKING LLC,2126869800,408 W 207TH ST,NEW YORK,NY,10034,Manhattan,40.863621,-73.917251
ZAFIRO PARKING INC.,2127490125,1600 SEDGWICK AVE,BRONX,NY,10453,Bronx,40.848294,-73.923776
"EDISON NY PARKING, LLC",973-643-7700,161 10TH AVE,NEW YORK,NY,10011,Manhattan,40.745808,-74.006133
INDEPENDENT PARKING LLC,2126869800,422 E 72ND ST,NEW YORK,NY,10021,Manhattan,40.766971,-73.95496
"CLEAN AIR CAR SERVICE & PARKING BRANCH 3, LLC",,3720 PRINCE ST,FLUSHING,NY,11354,Queens,40.760294,-73.832874
"GARDEN GARAGE, LLC",212-686-9800,384 8TH AVE,NEW YORK,NY,10001,Manhattan,40.749103,-73.995549
QUALITY CAR PARK LLC,2122216111,85 ADAMS ST,BROOKLYN,NY,11201,Brooklyn,40.701755,-73.988483
JRD PARKING CORP,7186187215,1000 WESTCHESTER AVE,BRONX,NY,10459,Bronx,40.823493,-73.893901
RIVER 73 PARKING LLC,2126869800,524 E 73RD ST,NEW YORK,NY,10021,Manhattan,40.766841,-73.951856
IRVING 18TH PARKING LLC,2126869800,196 3RD AVE,NEW YORK,NY,10003,Manhattan,40.735694,-73.98566
SOY PARKING LLC,2124521324,524 E 73RD ST,NEW YORK,NY,10021,Manhattan,40.766841,-73.951856
UPTOWN PARKING CORP.,2124903460,1721-1735 AMSTERDAM AVE,NEW YORK,NY,0,,40.825083,-73.947604
80TH ST. PARKING CORP.,2124903460,525 E 80TH ST,NEW YORK,NY,10075,Manhattan,40.77153,-73.948386
EASTSIDE 65 PARKING LLC,212-686-9800,200 E 66TH ST,NEW YORK,NY,10065,Manhattan,40.765083,-73.961993
"CENTRAL PARKING SYSTEM OF NEW YORK,INC.",2125024390,541 W 38TH ST,NEW YORK,NY,10018,Manhattan,40.757941,-73.998788
"CENTRAL PARKING SYSTEM OF NEW YORK,INC.",7186240316,300 CADMAN PLZ W,BROOKLYN,NY,11201,Brooklyn,40.695024,-73.991027
PARK MULBERRY CORP,6463558826,62 MULBERRY ST,NEW YORK,NY,10013,Manhattan,40.715623,-73.999173
A & Z BUSINESS CORP.,9148743268,700 GRAND CONCOURSE,BRONX,NY,10451,Bronx,40.821867,-73.924885
MINT PARKING CORPORATION,2124903460,270 DYCKMAN ST,NEW YORK,NY,10034,Manhattan,40.866791,-73.929052
SP PLUS CORPORATION,2125025490,1292 PARK AVE,NEW YORK,NY,10029,Manhattan,40.788321,-73.951512
"CENTRAL PARKING SYSTEM OF NEW YORK,INC.",2125025490,200 RECTOR PL,NEW YORK,NY,10280,Manhattan,40.708778,-74.016412
SUPPORT PARKING LLC,2126869800,350 E 52ND ST,NEW YORK,NY,10022,Manhattan,40.755195,-73.965661
"CENTRAL PARKING SYSTEM OF NEW YORK,INC.",2125025490,214 W 80TH ST,NEW YORK,NY,10024,Manhattan,40.784182,-73.978908
CFS 2907 JFK LLC,7183222221,14916 131ST ST,JAMAICA,NY,11430,Queens,40.664646,-73.808852
PARK RIGHT CORPORATION,2122262798,277 GOLD ST,BROOKLYN,NY,11201,Brooklyn,40.696265,-73.983047
PARKLEX GARAGE INC.,2124072516,345 PARK AVE,NEW YORK,NY,10154,Manhattan,40.75812,-73.972851
"CENTRAL PARKING SYSTEM OF NEW YORK,INC.",9179747625,9525 QUEENS BLVD,REGO PARK,NY,11374,Queens,40.730904,-73.863609
"STABLE CAR PARKING, INC.",212-979-9815,614 W 153RD ST,NEW YORK,NY,10031,Manhattan,40.83175,-73.947691
MYRTLE GARAGE CORP.,2127367171,225 FLATBUSH AVENUE EXT,BROOKLYN,NY,11201,Brooklyn,40.693194,-73.982987
"CENTRAL PARKING SYSTEM OF NEW YORK,INC.",2125025490,312 W 34TH ST,NEW YORK,NY,10001,Manhattan,40.752419,-73.994417
"150TH PARKING LEASEHOLD, LLC",212-795-7275,457 W 150TH ST,NEW YORK,NY,10031,Manhattan,40.828017,-73.94413
CENTRAL GARAGE CORP.,2127367171,860 5TH AVE,NEW YORK,NY,10065,Manhattan,40.769408,-73.969117
CHAMPION PARKING MIDTOWN LLC,2128673999,224 E 39TH ST,NEW YORK,NY,10016,Manhattan,40.748421,-73.975346
DSev Enterprise LLC,,1843 CROTONA AVE,BRONX,NY,10457,Bronx,40.843782,-73.892772
RICANT PARKING LLC,2126887666,443 E 49TH ST,NEW YORK,NY,10017,Manhattan,40.752594,-73.964792
"KINNEY PARKING SYSTEM, INC.",2125025490,1133 AVENUE OF THE AMERICAS,NEW YORK,NY,10036,Manhattan,40.755955,-73.983633
650 PARKING CORP.,2124722596,650 PARK AVE,NEW YORK,NY,10065,Manhattan,40.767808,-73.96654
NOBLE CAR PARK LLC,2122216111,500 4TH AVE,BROOKLYN,NY,11215,Brooklyn,40.668467,-73.990623
KIDS PARKING CORP.,2129644968,105 DUANE ST,NEW YORK,NY,10007,Manhattan,40.715584,-74.005923
ENTERPRISE YORK PARKING LLC,2125643199,1175 YORK AVE,NEW YORK,NY,10065,Manhattan,40.761549,-73.957849
LM MUSTANG PARKING LLC,,510 E 80TH ST,NEW YORK,NY,10075,Manhattan,40.771599,-73.949197
IMPERIAL HOUSE PARKING MANAGEMENT COMPANY,212-327-2626,155 E 68TH ST,NEW YORK,NY,10065,Manhattan,40.767718,-73.963511
C & C Parking LLC,,899 WESTCHESTER AVE,BRONX,NY,10459,Bronx,40.820743,-73.899888
STANDARD PARKING CORPORATION,2127869564,200 LIBERTY ST,NEW YORK,NY,10281,Manhattan,40.711226,-74.01539
STANDARD PARKING CORPORATION,7187844966,4818 5TH ST,LONG ISLND CITY,NY,11101,Queens,40.743142,-73.956238
"ESP GROUP OF NEW YORK, INC.",7184697672,324 CLARKSON AVE,BROOKLYN,NY,11226,Brooklyn,40.655334,-73.949257
BEAVER STREET PARKING LLC,2126869800,15 S WILLIAM ST,NEW YORK,NY,10004,Manhattan,40.70457,-74.010479
JARABACOA PARKING 2 LLC,347-539-1015,430 E 173RD ST,BRONX,NY,10457,Bronx,40.842567,-73.902392
UPPER WEST PARKING INC,3474487079,303 W 96TH ST,NEW YORK,NY,10025,Manhattan,40.795673,-73.973798
ALLIANCE E. 69TH PARKING LLC,2125810535,301 E 69TH ST,NEW YORK,NY,10021,Manhattan,40.766816,-73.959399
STANDARD PARKING CORPORATION,2129163480,60 E END AVE,NEW YORK,NY,10028,Manhattan,40.772661,-73.946806
"RELIABLE PARKING, CORP.",2124903460,585 E 169TH ST,BRONX,NY,10456,Bronx,40.832085,-73.90274
764 4TH AVE ASSOCIATES LLC,7187683100,764 4TH AVE,BROOKLYN,NY,11232,Brooklyn,40.660247,-73.998542
CIRCLE PARKING LLC,2126869800,200 W 52ND ST,NEW YORK,NY,10019,Manhattan,40.762446,-73.982863
310 LEX PARKING MGMT LLC,2126812044,310 LEXINGTON AVE,NEW YORK,NY,10016,Manhattan,40.748639,-73.978273
"IMPERIAL PARKING (U.S.), LLC",2129378660,422 E 79TH ST,NEW YORK,NY,10075,Manhattan,40.771996,-73.952376
"IMPERIAL PARKING (U.S.), LLC",2129378660,750 AVENUE OF THE AMERICAS,NEW YORK,NY,10010,Manhattan,40.743935,-73.991883
"STEWART HOUSE CAR PARK, INC",2129966363,70 E 10TH ST,NEW YORK,NY,10003,Manhattan,40.731287,-73.991086
PARK KWIK LLC,2129745840,110 LIVINGSTON ST,BROOKLYN,NY,11201,Brooklyn,40.691021,-73.989875
EAST 61ST STREET PARKING GARAGE CORP.,212-736-7171,150 E 61ST ST,NEW YORK,NY,10065,Manhattan,40.763277,-73.967041
"G&M PARKING GARAGE, CORP.",9546098489,920 WESTCHESTER AVE,BRONX,NY,10459,Bronx,40.821624,-73.897449
"PARK ON BROADWAY, INC.",7186109192,250 W 43RD ST,NEW YORK,NY,10036,Manhattan,40.757358,-73.988231
"WESTMINSTER CAR PARK, LLC",2129966363,165 E 66TH ST,NEW YORK,NY,10065,Manhattan,40.766118,-73.963564
"ABM PARKING SERVICES, INC",2122131282,475 PARK AVE S,NEW YORK,NY,10016,Manhattan,40.745374,-73.982245
AMABLE PARKING CORP.,2125691722,3795 10TH AVE,NEW YORK,NY,10034,Manhattan,40.862047,-73.920469
"CENTRAL PARKING SYSTEM OF NEW YORK,INC.",2126296602,154 E 53RD ST,NEW YORK,NY,10022,Manhattan,40.757912,-73.970147
STAN PARK LLC,7188408400,3538 JUNCTION BLVD,CORONA,NY,11368,Queens,40.742169,-73.867326
305 EAST 86TH PARKING LLC,2126886800,305 E 86TH ST,NEW YORK,NY,10028,Manhattan,40.777915,-73.950922
515 NINTH AVENUE PARKING INC,212-736-7171,511 9TH AVE,NEW YORK,NY,10018,Manhattan,40.756302,-73.994412
"PARKING COMPANY OF AMERICA AIRPORTS, LLC",7183222221,14921 130TH AVE,JAMAICA,NY,11436,Queens,40.670976,-73.796099
QUIK PARK 65TH ST. LLC,2126869800,403 E 65TH ST,NEW YORK,NY,10065,Manhattan,40.763171,-73.958512
MANHATTAN PARKING SYSTEM-SERVICE CORP.,2127536116,220 MADISON AVE,NEW YORK,NY,10016,Manhattan,40.749466,-73.981919
"CENTRAL PARKING SYSTEM OF NEW YORK,INC.",2126296602,1 PENN PLZ,NEW YORK,NY,10119,Manhattan,40.750938,-73.991594
334 PARKING CORP.,2128661000,302 E 96TH ST,NEW YORK,NY,10128,Manhattan,40.783883,-73.946637
PROTO PARKING INC,6462092694,250 E 39TH ST,NEW YORK,NY,10016,Manhattan,40.747944,-73.973909
"MY NEW PARKING, INC.",3475388602,1484 JEROME AVE,BRONX,NY,10452,Bronx,40.842065,-73.916145
61 JANE PARKING CORP.,2122436303,61 JANE ST,NEW YORK,NY,10014,Manhattan,40.738222,-74.005908
"IMPERIAL PARKING (U.S.), INC",2129378660,279 AVENUE C,NEW YORK,NY,10009,Manhattan,40.730124,-73.974806
"KINNEY PARKING SYSTEM, INC.",2126296602,56 N MOORE ST,NEW YORK,NY,10013,Manhattan,40.719921,-74.009307
200 EAST END AVENUE PARKING CORP,2127367171,200 E END AVE,NEW YORK,NY,10128,Manhattan,40.777364,-73.943355
RAPID EAST 38TH STREET CORP.,2128661000,80 PARK AVE,NEW YORK,NY,10016,Manhattan,40.750171,-73.979399
GOLD/PEARL PARKING CORP.,2127367171,2 GOLD ST,NEW YORK,NY,10038,Manhattan,40.707397,-74.007052
PARK LANE HOTEL GARAGE LLC,6465840409,36-38 CENTRAL PARK S,NEW YORK,NY,10019,Manhattan,40.764854,-73.974447
QUIK PARK EAST 46TH STREET LLC,2128322066,300 E 46TH ST,NEW YORK,NY,10017,Manhattan,40.752195,-73.970176
"ALLIANCE ELEMENT PARKING, LLC",2125810535,555 W 59TH ST,NEW YORK,NY,10019,Manhattan,40.77171,-73.989732
"KINNEY PARKING SYSTEM, INC.",2125025490,211 E 57TH ST,NEW YORK,NY,10022,Manhattan,40.760289,-73.967287
PARK KWIK LLC,2129745840,55 WASHINGTON ST,BROOKLYN,NY,11201,Brooklyn,40.702787,-73.989469
330 THIRD PARKING CORP.,2122435900,514 W 168TH ST,NEW YORK,NY,10032,Manhattan,40.840093,-73.937864
LA FAMILIA PARKING GARAGE CORP.,7188293655,2346 RYER AVE,BRONX,NY,10458,Bronx,40.858366,-73.898413
"CENTRAL PARKING SYSTEM OF NEW YORK,INC.",2122521673,776 AVENUE OF THE AMERICAS,NEW YORK,NY,10001,Manhattan,40.745021,-73.991029
CASTLE PARKING CORP.,7189334751,2846 WEBSTER AVE,BRONX,NY,10458,Bronx,40.86645,-73.884691
CHAMPION PARKING 75 LLC,2123085959,370 E 76TH ST,NEW YORK,NY,10021,Manhattan,40.770664,-73.955019
QUIK PARK LINC MANAGMENT LLC,2128322066,20 N 5TH ST,BROOKLYN,NY,11249,Brooklyn,40.719374,-73.963372
VALOR PARKING LLC,212-686-9800,235 E 45TH ST,NEW YORK,NY,10017,Manhattan,40.75204,-73.971236
AMBER PARK LLC,2126869800,101 E 13TH ST,NEW YORK,NY,10003,Manhattan,40.733534,-73.989629
BROADWAY & 64TH PARKING LLC,212-686-9800,1900 BROADWAY,NEW YORK,NY,10023,Manhattan,40.771709,-73.981885
REDBALL PARKING LLC,2126832056,142 E 31ST ST,NEW YORK,NY,10016,Manhattan,40.744039,-73.980276
SYLVAN WINDSOR PARKING LLC,718-575-9768,10724 71ST RD,FOREST HILLS,NY,11375,Queens,40.72032,-73.843149
PARK RIGHT CORPORATION,2122624771,415 GREENWICH ST,NEW YORK,NY,10013,Manhattan,40.721917,-74.009688
205 EAST 38TH STREET PARKING LLC,2126869800,205 E 38TH ST,NEW YORK,NY,10016,Manhattan,40.748125,-73.97574
BELMONT PARKING LLC,2122889170,113 E 84TH ST,NEW YORK,NY,10028,Manhattan,40.778661,-73.957429
PARK BRIAR GARAGE,2127367171,11045 QUEENS BLVD,FOREST HILLS,NY,11375,Queens,40.719514,-73.838831
DEPENDABLE PARKING LLC,2126869800,230 W 55TH ST,NEW YORK,NY,10019,Manhattan,40.764798,-73.982667
"LAZ PARKING NEW YORK, NEW JERSEY LLC",2122652239,426 E 71ST ST,NEW YORK,NY,10021,Manhattan,40.766735,-73.956118
EAST 97TH PARKING CORP.,2123488364,175 E 96TH ST,NEW YORK,NY,10128,Manhattan,40.785571,-73.949754
NEW YORK PARKING 54TH ST. CORP.,2122493344,527 MADISON AVE,NEW YORK,NY,10022,Manhattan,40.760036,-73.973414
"ST. NICHOLAS PARKING MGMT, LLC",2127957275,673 SAINT NICHOLAS AVE,NEW YORK,NY,10030,Manhattan,40.823133,-73.945562
160 PARKING CORP.,2127367171,160 E 65TH ST,NEW YORK,NY,10065,Manhattan,40.765293,-73.96417
"CENTRAL PARKING SYSTEM OF NEW YORK,INC.",2126296602,267 W 47TH ST,NEW YORK,NY,10036,Manhattan,40.76033,-73.987016
HILLTOP PARKING CORP.,7183649580,305 E 182ND ST,BRONX,NY,10457,Bronx,40.855137,-73.897486
"CENTRAL PARKING SYSTEM OF NEW YORK,INC.",2125025490,100 W 93RD ST,NEW YORK,NY,10025,Manhattan,40.790986,-73.96963
RECTOR WEST PARKING LLC,2127864796,200 RECTOR PL,NEW YORK,NY,10280,Manhattan,40.708778,-74.016412
BUZZ PARKING & MGMT CORP.,7182850102,14 KENMARE ST,NEW YORK,NY,10012,Manhattan,40.720419,-73.994758
"SYD PARKING, LLC",2127504274,405 E 56TH ST,NEW YORK,NY,10022,Manhattan,40.757337,-73.962451
BRADY PARKING INC.,7185973232,800 BRADY AVE,BRONX,NY,10462,Bronx,40.852243,-73.863749
REALITY PARKING LLC,2126869800,900 8TH AVE,NEW YORK,NY,10019,Manhattan,40.764294,-73.984386
"CENTRAL PARKING SYSTEM OF NEW YORK,INC.",2126296602,45 E END AVE,NEW YORK,NY,10028,Manhattan,40.771779,-73.94685
"UNION ST. PARKING, INC.",5165893058,3819 UNION ST,FLUSHING,NY,11354,Queens,40.761253,-73.826515
"CENTRAL PARKING SYSTEM OF NEW YORK,INC.",2125025490,390 GREENWICH ST,NEW YORK,NY,10013,Manhattan,40.721097,-74.010266
BROOKE PARKING GARAGE INC,9175775924,1120 BROOK AVE,BRONX,NY,10456,Bronx,40.82967,-73.91046
"ALLIED AUSTIN CO., L.P.",7182633800,7020 AUSTIN ST,FOREST HILLS,NY,11375,Queens,40.720616,-73.846323
QUIK PARK TRIBECA II LLC,2128322066,450 WASHINGTON ST,NEW YORK,NY,10013,Manhattan,40.723639,-74.010446
CENTRAL PARKING SYSTEM OF NEW YORK INC.,2125025490,213-217 E 80TH ST,NEW YORK,NY,10075,Manhattan,40.774696,-73.955843
QUIK PARK EAST 102ND STREET GARAGE LLC,2128322066,315 E 102ND ST,NEW YORK,NY,10029,Manhattan,40.7878,-73.94341
"FIFTH AVENUE CAR PARK, LLC",2129966363,1325 5TH AVE,NEW YORK,NY,10029,Manhattan,40.797739,-73.948366
STANDARD PARKING CORPORATION,7182537897,5100 KINGS PLZ,BROOKLYN,NY,11234,Brooklyn,40.609937,-73.921947
THOMPSON ST. PARKING CORP.,2129299404,221 THOMPSON ST,NEW YORK,NY,10012,Manhattan,40.729396,-73.998982
CLAVER PLACE PARKING CORP.,7188570822,12 CLAVER PL,BROOKLYN,NY,11238,Brooklyn,40.682712,-73.957736
QUIK PARK HUDSON RIVER 5 LLC,2128322066,400 W 63RD ST,NEW YORK,NY,10069,Manhattan,40.774693,-73.990234
FN PARKING CORP.,9173999429,1829 JEROME AVE,BRONX,NY,10453,Bronx,40.849806,-73.911083
ROGAR LLC,2129299404,280 BROADWAY,NEW YORK,NY,10007,Manhattan,40.714367,-74.005962
BROOKLYN BRIDGE GARAGE LLC,6465840409,360 FURMAN ST,BROOKLYN,NY,11201,Brooklyn,40.693422,-73.999548
"CENTRAL PARKING SYSTEM OF NEW YORK,INC.",2126296602,132-146 W 51ST ST,NEW YORK,NY,10019,,40.76196,-73.982931
SECURE GARAGE DOOR LLC,7188489477,10126 98TH ST,OZONE PARK,NY,11416,Queens,40.684189,-73.843107
BROOKLYN PARKING LLC,2123085959,741 61ST ST,BROOKLYN,NY,11220,Brooklyn,40.635842,-74.011406
ISABEL PARKING LLC,6465840409,951 RIVER AVE,BRONX,NY,10452,Bronx,40.830531,-73.924642
"LIBERTY VIEW PARKING, LLC",2128422305,2 RIVER TER,NEW YORK,NY,10282,Manhattan,40.715401,-74.016269
BOBBY CAR PARK LLC,2122216111,105 UNDERHILL AVE,BROOKLYN,NY,11238,Brooklyn,40.677428,-73.965698
"LAZ PARKING NEW YORK, NEW JERSEY LLC",2122652239,525 E 68TH ST,NEW YORK,NY,10065,Manhattan,40.764347,-73.954508
SHERMAN PARKING SYSTEMS INC.,9149601795,361 E 161ST ST,BRONX,NY,10451,Bronx,40.824556,-73.91451
MANHATTAN PARKING 110 LLC,2122227813,543 W 110TH ST,NEW YORK,NY,10025,Manhattan,40.803742,-73.965065
"KINNEY PARKING SYSTEM, INC.",7184307021,1975 EASTCHESTER RD,BRONX,NY,10461,Bronx,40.852802,-73.843706
"KINNEY PARKING SYSTEM, INC.",2125025490,146 W 57TH ST,NEW YORK,NY,10019,Manhattan,40.764996,-73.979205
WESTMONT PARKING INC.,2127367171,730 COLUMBUS AVE,NEW YORK,NY,10025,Manhattan,40.792563,-73.968014
"ALLIANCE RIVERBANK PARKING, LLC",2125810535,555 W 42ND ST,NEW YORK,NY,10036,Manhattan,40.760654,-73.997416
"101 CAR PARK, LLC",2122216111,101 W 23RD ST,NEW YORK,NY,10011,Manhattan,40.743256,-73.993243
ML PARKING CORP.,3478823966,615 JACKSON AVE,BRONX,NY,10455,Bronx,40.815168,-73.908538
44 ELIZABETH STREET PARKING CORP,,44 ELIZABETH ST,NEW YORK,NY,10013,Manhattan,40.716972,-73.996602
"PENNY LANE CAR PARK, LLC",2129966363,215 E 24TH ST,NEW YORK,NY,10010,Manhattan,40.739364,-73.982084
QUIK PARK WEST 22 ST. LLC,2128322066,235 W 22ND ST,NEW YORK,NY,10011,Manhattan,40.744069,-73.997345
"WINDSOR FH CAR PARK, LLC",2129966363,10724 71ST RD,FOREST HILLS,NY,11375,Queens,40.72032,-73.843149
231 EAST 94TH STREET PARKING LLC,2128887400,231 E 94TH ST,NEW YORK,NY,10128,Manhattan,40.783405,-73.948873
MEAT MARKET GARAGE INC,2129893100,259 MULBERRY ST,NEW YORK,NY,10012,Manhattan,40.72352,-73.995807
QUIK PARK W. 23RD ST. LLC,2128322066,423 W 23RD ST,NEW YORK,NY,10011,Manhattan,40.746892,-74.001736
CHAMPION PARKING 77TH ST. CORP.,2122493344,49 E 77TH ST,NEW YORK,NY,10075,Manhattan,40.77519,-73.963503
CATON PARKING LLC,7329058338,33 CATON PL,BROOKLYN,NY,11218,Brooklyn,40.649425,-73.973834
PRINCE TNP REALTY LLC,7189393338,3720 PRINCE ST,FLUSHING,NY,11354,Queens,40.760294,-73.832874
"SUPREME CAR PARK, LLC",2122216111,1065 PARK AVE,NEW YORK,NY,10128,Manhattan,40.780908,-73.95632
MERCURY PARKING LLC,2126869800,350 W 50TH ST,NEW YORK,NY,10019,Manhattan,40.762948,-73.987924
SUPREME 85 PARKING LLC,718-694-2060,85 LIVINGSTON ST,BROOKLYN,NY,11201,Brooklyn,40.691515,-73.990604
ALERT GARAGE CORP.,7187860643,3017 40TH AVE,LONG IS CITY,NY,11101,Queens,40.751881,-73.934278
AD PARKING INC.,7189939003,1140 TIFFANY ST,BRONX,NY,10459,Bronx,40.827181,-73.894847
"GREENE HOUSE CAR PARK, LLC",2129966363,381 CARLTON AVE,BROOKLYN,NY,11238,Brooklyn,40.686352,-73.971277
"ZOOM CAR PARK, INC.",2122216111,3130 GRAND CONCOURSE,BRONX,NY,10458,Bronx,40.874985,-73.885911
SP PLUS CORPORATION,2125025490,1420 YORK AVE,NEW YORK,NY,10021,Manhattan,40.769074,-73.951885
MANHATTAN PARKING 110 LLC,2124903480,543 W 110TH ST,NEW YORK,NY,10025,Manhattan,40.803742,-73.965065
SP PLUS CORPORATION,2125025490,455 MADISON AVE,NEW YORK,NY,10022,Manhattan,40.757945,-73.975352
MARKET 15 PARKING LLC,2126869800,552 AVENUE OF THE AMERICAS,NEW YORK,NY,10011,Manhattan,40.738236,-73.995937
F&S PARKING LLC,2123272626,331 E 75TH ST,NEW YORK,NY,10021,Manhattan,40.770579,-73.956319
BOWERY FIRST PARKING LLC,2126869800,11 E 1ST ST,NEW YORK,NY,10003,Manhattan,40.724383,-73.99176
CHAMPION PARKING 81 LLC,2125358005,1533 YORK AVE,NEW YORK,NY,10028,Manhattan,40.772858,-73.949475
MODERN PARKING LLC,2126869800,666 5TH AVE,NEW YORK,NY,10103,Manhattan,40.760549,-73.97642
2 LINCOLN PARKING LLC,2126869800,2 LINCOLN PLZ,NEW YORK,NY,10023,Manhattan,40.770678,-73.980111
"EMERALD CAR PARK, LLC",2127729802,510 E 80TH ST,NEW YORK,NY,10075,Manhattan,40.771599,-73.949197
PARK RIGHT CORPORATION,7187973093,635 W 42ND ST,NEW YORK,NY,10036,Manhattan,40.76145,-73.999394
126TH STREET PARKING CORP.,7187880066,418 W 127TH ST,NEW YORK,NY,10027,Manhattan,40.812765,-73.954355
CFS 2907 JFK LLC,7183222221,14921 130TH AVE,JAMAICA,NY,11436,Queens,40.670976,-73.796099
50-51 PARKING CORP.,2124268400,260 E 143RD ST,BRONX,NY,10451,Bronx,40.815225,-73.924551
AFFILIATED PARKING LLC,2126869800,247 MADISON AVE,NEW YORK,NY,10016,Manhattan,40.750209,-73.981101
"ABDULLAH, MUHAMMAD A",7186366959,1360 FULTON ST,BROOKLYN,NY,11216,Brooklyn,40.680057,-73.946485
"ATELIER CAR PARK, LLC",2129966363,627 W 42ND ST,NEW YORK,NY,10036,Manhattan,40.761271,-73.998813
OASIS AUTO REPAIR & GARAGE CORP,2125442833,431 W 202ND ST,NEW YORK,NY,10034,Manhattan,40.861055,-73.920363
"PRO PARK AMERICA NEW YORK, LLC",2125313418,256 UTICA AVE,BROOKLYN,NY,11213,Brooklyn,40.669931,-73.931162
PARK LANE GARAGE LLC,6465840409,11624 GROSVENOR LN,RICHMOND HILL,NY,11418,Queens,40.706948,-73.835626
331 50TH ST. PARKING CORP.,2127577247,336 W 51ST ST,NEW YORK,NY,10019,Manhattan,40.763459,-73.986937
"W K PARKING, CORP",2127373279,525 E 11TH ST,NEW YORK,NY,10009,Manhattan,40.728024,-73.980532
"RIVER HOUSE CAR PARK, LLC",2129966363,1175 YORK AVE,NEW YORK,NY,10065,Manhattan,40.761549,-73.957849
189 PKG LLC,917-731-2034,4745 PARK AVE,BRONX,NY,10458,Bronx,40.860339,-73.891827
PINE PARKING CORP.,8007985701,111 VARICK ST,NEW YORK,NY,10013,Manhattan,40.724552,-74.00604
"KNICKERBOCKER PLAZA CAR PARK, LLC",2129966363  X-14,1751 2ND AVE,NEW YORK,NY,10128,Manhattan,40.781353,-73.949438
"CENTRAL PARKING SYSTEM OF NEW YORK, INC",2125025490,45 E END AVE,NEW YORK,NY,10028,Manhattan,40.771779,-73.94685
"SANFORD TOWER GARAGE, INC.",7183598058,13347 SANFORD AVE,FLUSHING,NY,11355,Queens,40.756574,-73.829369
STANDARD PARKING CORPORATION,2129163480,8935 162ND ST,JAMAICA,NY,11432,Queens,40.705574,-73.798312
ZETA PARKING CORP.,2126501988,213 E 80TH ST,NEW YORK,NY,10075,Manhattan,40.774711,-73.955878
444 MANHATTAN PARKING CORP.,,444 MANHATTAN AVE,NEW YORK,NY,10026,Manhattan,40.806588,-73.955502
KEY PARKING LLC,2125810535,115 E 9TH ST,NEW YORK,NY,10003,Manhattan,40.730408,-73.98979
PARADISE GARAGE CORP.,2127367171,6260 99TH ST,REGO PARK,NY,11374,Queens,40.732871,-73.857424
"KINNEY PARKING SYSTEM, LLC",2125025490,146 W 57TH ST,NEW YORK,NY,10019,Manhattan,40.764996,-73.979205
PARK AMERICA CORP,2124866888,351 E 51ST ST,NEW YORK,NY,10022,Manhattan,40.75479,-73.966131
2000 PARKING INC.,7185978232,2000 WHITE PLAINS RD,BRONX,NY,10462,Bronx,40.850228,-73.86764
"QUIK PARK 82ND STREET, LLC",2128322066,350 E 82ND ST,NEW YORK,NY,10028,Manhattan,40.774444,-73.951879
QUIK PARK COLUMBIA LLC,2128322066,2561 BROADWAY,NEW YORK,NY,10025,Manhattan,40.793181,-73.973114
"PARK IN AUTO SERVICES, INC.",2129661186,75 KENMARE ST,NEW YORK,NY,10012,Manhattan,40.721206,-73.996278
GALLANT PARKING LLC,2126869800,182-184 E 95TH ST,NEW YORK,NY,10128,Manhattan,40.784474,-73.950306
"IMPERIAL PARKING (U.S.), LLC",2129378660,168-36 90 AVENUE,JAMAICA,NY,11432,,40.708379,-73.791674
EASTSIDE 65 PARKING LLC,212-686-9800,200 E 66TH ST,NEW YORK,NY,10065,Manhattan,40.765083,-73.961993
21ST GARAGE LLC,2126270012,447 W 35TH ST,NEW YORK,NY,10001,Manhattan,40.754641,-73.997567
"POST OFFICE GARAGE, LLC",2125025490,340 W 31ST ST,NEW YORK,NY,10001,Manhattan,40.75087,-73.996492
SUPER ELITE PARKING INC,9174705093,1872 E TREMONT AVE,BRONX,NY,10460,Bronx,40.840876,-73.864744
QUIK PARK FG LLC,212-686-9800,500 E 62ND ST,NEW YORK,NY,10065,Manhattan,40.760276,-73.958144
CREATIVE PARKING LLC,2122429635,16 W 16TH ST,NEW YORK,NY,10011,Manhattan,40.737662,-73.99375
CHAMPION PARKING 90 LLC,2123085959,60 E 90TH ST,NEW YORK,NY,10128,Manhattan,40.783061,-73.956522
"WH PARKING MGMT, LLC",2127957275,4320 BROADWAY,NEW YORK,NY,10033,Manhattan,40.852231,-73.934471
PARK SAFE LLC,2123404248,2500 FDR DR,NEW YORK,NY,10016,Manhattan,40.783282,-73.943715
MONTAGUE PARKING LLC,2126869800,180 MONTAGUE ST,BROOKLYN,NY,11201,Brooklyn,40.693984,-73.99189
8 EAST 83RD PARKING LLC,2125352890,8 E 83RD ST,NEW YORK,NY,10028,Manhattan,40.779011,-73.960788
PATRIOT PARKING LLC,2126869800,351 GREENWICH ST,NEW YORK,NY,10013,Manhattan,40.718683,-74.010297
LM PARKING CORP,914-874-3268,250 E 144TH ST,BRONX,NY,10451,Bronx,40.815573,-73.924923
RGL PARKING & TRANSPORTATION LLC,9178419280,4129 24TH ST,LONG ISLAND CITY,NY,11101,Queens,40.751838,-73.940431
"KINNEY PARKING SYSTEM, INC.",2126296602,1153 YORK AVE,NEW YORK,NY,10065,Manhattan,40.760726,-73.958445
"KINNEY PARKING SYSTEM, INC.",2125025490,135 E 33R ST,NEW YORK,NY,10016,,40.745937,-73.980659
ORMOND PLACE PARKING CORP.,7188570822,12 CLAVER PL,BROOKLYN,NY,11238,Brooklyn,40.682712,-73.957736
340 EAST 74TH STREET PARKING CORP,2127367171,340 E 74TH ST,NEW YORK,NY,10021,Manhattan,40.769321,-73.955818
SP PLUS CORPORATION,2126954568,50 OCEANA DR W,BROOKLYN,NY,11235,Brooklyn,40.577289,-73.959131
EZ PARKING GARAGE INC,3472207660,1334 LOUIS NINE BLVD,BRONX,NY,10459,Bronx,40.831826,-73.89224
"MEGA PARKING SYSTEMS, INC.",7183924460,343 E 74TH ST,NEW YORK,NY,10021,Manhattan,40.769538,-73.955767
F & A PARKING CORP,718-399-2640,525 CLINTON AVE,BROOKLYN,NY,11238,Brooklyn,40.682477,-73.966529
CHAMPION PARKING 57 LLC,2123085959,316 W 57TH ST,NEW YORK,NY,10019,Manhattan,40.766817,-73.983367
"BRICIN PARKING, CORP.",2126500141,65 W 55TH ST,NEW YORK,NY,10019,Manhattan,40.762754,-73.977254
JAY PARKING CORP.,9179695850,3720 PRINCE ST,FLUSHING,NY,11354,Queens,40.760294,-73.832874
WELCOME PARKING CORP.,2126616702,240 E 82ND ST,NEW YORK,NY,10028,Manhattan,40.775341,-73.954004
"222 PARKING SERVICES, LLC",2122652239,222 E 39TH ST,NEW YORK,NY,10016,Manhattan,40.74819,-73.974667
QUIK PARK EAST 87 LLC,2128322066,501 E 87TH ST,NEW YORK,NY,10128,Manhattan,40.776582,-73.94627
STANDARD PARKING CORPORATION,7188974833,9605 QUEENS BLVD,REGO PARK,NY,11374,Queens,40.730445,-73.862358
"LAZ PARKING NEW YORK, NEW JERSEY LLC",2122652239,528 E 20TH ST,NEW YORK,NY,10009,Manhattan,40.733192,-73.976225
"IMPERIAL PARKING (U.S.), INC",2129378660,400 E 90TH ST,NEW YORK,NY,10128,Manhattan,40.779208,-73.947233
"UTOPIA PARKING MANAGEMENT, LLC",2127957275,17660 UNION TPKE,FRESH MEADOWS,NY,11366,Queens,40.727277,-73.790772
"C&S E-SUPERETTE, INC.",718-745-2888,9053 FORT HAMILTON PKWY,BROOKLYN,NY,11209,Brooklyn,40.617109,-74.027102
PV PARKING VI CORP,646-302-4330,371 HUMBOLDT ST,BROOKLYN,NY,11211,Brooklyn,40.71493,-73.942882
LM BONNEVILLE PARKING LLC,2127143571,329 E 22ND ST,NEW YORK,NY,10010,Manhattan,40.736655,-73.979791
BROOK PARK PARKING CORP.,9174705093,1830 E TREMONT AVE,BRONX,NY,10460,Bronx,40.840348,-73.866646
PARK NORTH PARKING CORP,2123606300,220 E 117TH ST,NEW YORK,NY,10035,Manhattan,40.79813,-73.938596
ZENITH PARKING LLC,212-686-9800,790 8TH AVE,NEW YORK,NY,10019,Manhattan,40.761244,-73.986636
"IMPERIAL PARKING (U.S.), LLC",212-937-8660,457 W 150TH ST,NEW YORK,NY,10031,Manhattan,40.828017,-73.94413
SUPER ELITE PARKING INC,9174705093,257 E 187TH ST,BRONX,NY,10458,Bronx,40.860217,-73.897375
CHAMPION PARKING 113 LLC,212-308-5959,400 W 113TH ST,NEW YORK,NY,10025,Manhattan,40.804256,-73.961353
STAR PARKING GARAGE INC.,718-991-8100,840 WESTCHESTER AVE,BRONX,NY,10459,Bronx,40.819615,-73.901373
MANHATTAN PARKING - GOLD CORP.,2124903460,220 E 54TH ST,NEW YORK,NY,10022,Manhattan,40.757828,-73.968123
"ALLIANCE DAG PARKING, LLC",2125810535,240 E 47TH ST,NEW YORK,NY,10017,Manhattan,40.753037,-73.970352
QUIK PARK WILSON LLC,212-832-2066,200 W 79TH ST,NEW YORK,NY,10024,Manhattan,40.783115,-73.978772
SP PLUS CORPORATION,2125025490,6575 SAUNDERS ST,REGO PARK,NY,11374,Queens,40.727103,-73.856915
ZEPHYR PARKING LLC,2126869800,132 E 35TH ST,NEW YORK,NY,10016,Manhattan,40.747045,-73.979602
PV PARKING IV CORP,718-609-1200,554 W 174TH ST,NEW YORK,NY,10033,Manhattan,40.844353,-73.936274
STANDARD PARKING CORPORATION,212163480,9015 PARSONS BLVD,JAMAICA,NY,11432,Queens,40.704571,-73.800744
ASTOR PARKING LLC,2126869800,1511 BROADWAY,NEW YORK,NY,10036,Manhattan,40.757463,-73.985918
CHELNICK PARKING CORP,2127511080,880 5TH AVE,NEW YORK,NY,10021,Manhattan,40.770622,-73.968161
PEACH PARKING (40TH) CORP.,9736228888,346 W 40TH ST,NEW YORK,NY,10018,Manhattan,40.756756,-73.992903
"IMPERIAL PARKING (U.S)., LLC",7188765302,155 RICHMOND TER,STATEN ISLAND,NY,10301,Staten Island,40.647539,-74.080012
"PILOT PARKING, LLC",2129299404,2 SHERMAN AVE,NEW YORK,NY,10040,Manhattan,40.86245,-73.929506
VANGUARD CAR RENTAL USA INC.,7184016837,219 W 77TH ST,NEW YORK,NY,10024,Manhattan,40.78235,-73.979906
PLATT PARKING LLC,2126869800,90 JOHN ST,NEW YORK,NY,10038,Manhattan,40.707992,-74.00632
"IMPERIAL PARKING (U.S.), LLC",2129378660,80 PARK AVE,NEW YORK,NY,10016,Manhattan,40.750171,-73.979399
NICE PARK 22 LLC,2129299404,200 E 15TH ST,NEW YORK,NY,10003,Manhattan,40.733804,-73.986522
"CENTRAL PARKING SYSTEM OF NEW YORK,INC.",2126296602,605 PARK AVE,NEW YORK,NY,10065,Manhattan,40.766382,-73.966959
"IMPERIAL PARKING (U.S.), LLC",212-937-8660,330 E 75TH ST,NEW YORK,NY,10021,Manhattan,40.769815,-73.955086
40 FLATBUSH REALTY LLC,2122398580,25 CHAPEL ST,BROOKLYN,NY,11201,Brooklyn,40.697307,-73.985859
"509 WEST 34TH STREET CAR PARK, LLC",2129966363,509 W 34TH ST,NEW YORK,NY,10001,Manhattan,40.754552,-73.999392
"KINNEY PARKING SYSTEM, INC.",2125025490,252 W 40TH ST,NEW YORK,NY,10018,Manhattan,40.75541,-73.989854
"CENTRAL PARKING SYSTEM OF NEW YORK,INC.",2122629778,257 W 47TH ST,NEW YORK,NY,10036,Manhattan,40.760163,-73.986626
FLATIRON 20 PARKING LLC,2122439384,19 W 20TH ST,NEW YORK,NY,10011,Manhattan,40.740052,-73.991319
3000 JEROME PARKING CORP.,7183290617,3000 JEROME AVE,BRONX,NY,10468,Bronx,40.874052,-73.888864
F&T MANAGEMENT & PARKING CORP,7188882828,3907 PRINCE ST,FLUSHING,NY,11354,Queens,40.759364,-73.832034
615 GARAGE CORPORATION,2129355252,800 5TH AVE,NEW YORK,NY,10065,Manhattan,40.765496,-73.971783
"CENTRAL PARKING SYSTEM OF NEW YORK,INC.",7189316541,1601 SEDDON ST,BRONX,NY,10461,Bronx,40.840399,-73.848854
304060 PARKING LLC,2126869800,60 E 9TH ST,NEW YORK,NY,10003,Manhattan,40.73129,-73.99249
QUEENS PLAZA PARKING CORP.,7184829180,2702 QUEENS PLZ S,LONG IS CITY,NY,11101,Queens,40.750031,-73.939732
STANDARD PARKING CORPORATION,7185887802,20 E 161ST ST,BRONX,NY,10451,Bronx,40.829209,-73.929383
ISABEL PARKING LLC,6465840409,71 E 153RD ST,BRONX,NY,10451,Bronx,40.825823,-73.92913
"EAST 65TH GARAGE, LLC",6469644323,1189 1ST AVE,NEW YORK,NY,10065,Manhattan,40.763021,-73.959712
REYER PARKING CORP.,2125416050,1872 E TREMONT AVE,BRONX,NY,10460,Bronx,40.840876,-73.864744
99 JANE STREET PARKING LLC,2126869800,802 WASHINGTON ST,NEW YORK,NY,10014,Manhattan,40.738908,-74.008102
THE BERGER'S PARKING CORPORATION,2125358291,196 E 75TH ST,NEW YORK,NY,10021,Manhattan,40.771741,-73.959545
EQUITY PARKING LLC,2126869800,1441 2ND AVE,NEW YORK,NY,10021,Manhattan,40.770947,-73.957024
INNOVATIVE PARKING LLC,212-686-9800,301 E 40TH ST,NEW YORK,NY,10016,Manhattan,40.748521,-73.972844
IMPERIAL PARKING US LLC,2129378660 X225,200 W 79TH ST,NEW YORK,NY,10024,Manhattan,40.783115,-73.978772
SHOWTIME VALET PARKING CORP.,6464002531,2804 E 19TH ST,BROOKLYN,NY,11235,Brooklyn,40.584124,-73.949867
MP 98-41 LLC,7189970630,6536 99TH ST,REGO PARK,NY,11374,Queens,40.728757,-73.85532
"SUNNY CAR PARK, LLC",2122216111,4701 QUEENS BLVD,SUNNYSIDE,NY,11104,Queens,40.743327,-73.917577
PARK 18 WEST LLC,718-349-6200,140 W 18TH ST,NEW YORK,NY,10011,Manhattan,40.740217,-73.99597
"CENTRAL PARKING SYSTEM OF NEW YORK,INC.",2125025490,216 E 67TH ST,NEW YORK,NY,10065,Manhattan,40.7663,-73.962773
318 EAST 48TH STREET PARKING LLC,2127558255,318 E 48TH ST,NEW YORK,NY,10017,Manhattan,40.753147,-73.968607
70 PARK LLC,2122490445,400 E 70TH ST,NEW YORK,NY,10021,Manhattan,40.766162,-73.956742
PRIME CAR PARK LLC,2122216111,951 HOE AVE,BRONX,NY,10459,Bronx,40.822668,-73.890535
"ARH PARKING, INC.",7186845803,3463 3RD AVE,BRONX,NY,10456,Bronx,40.82983,-73.906584
"IMPERIAL PARKING (U.S.), LLC",2129378666,220 E 67TH ST,NEW YORK,NY,10065,Manhattan,40.766118,-73.962175
PRECISE PARKING CORP.,7187215243,150 E 18TH ST,NEW YORK,NY,10003,Manhattan,40.735838,-73.985737
A PLUS PARKING LLC,3477329349,13620 BOOTH MEMORIAL AVE,FLUSHING,NY,11355,Queens,40.7425,-73.810617
"STOP-PARK GARAGE, LLC",2125025490,1820 MORTON ST,NEW YORK,NY,10014,,40.730798,-74.006408
"IMPERIAL PARKING (U.S.), LLC",2129378660,101 BEDFORD AVE,BROOKLYN,NY,11211,Brooklyn,40.720165,-73.955051
QP HOSP LLC,2126869800,1250 WATERS PL,BRONX,NY,10461,Bronx,40.852875,-73.839459
SAFEWAY PARKING CORP.,2124109603,345 E 86TH ST,NEW YORK,NY,10028,Manhattan,40.777273,-73.949807
CAAL PARKING CORP.,2129424823,1150 WEBSTER AVE,BRONX,NY,10456,Bronx,40.830276,-73.910534
F & A PARKING CORP,718-399-2640,525 CLINTON AVE,BROOKLYN,NY,11238,Brooklyn,40.682477,-73.966529
CHAMPION PARKING 83RD ST CORP,212-308-5959,303 E 83RD ST,NEW YORK,NY,10028,Manhattan,40.775941,-73.952774
CAROUSEL PARKING CORP,2123085959,201 W 75TH ST,NEW YORK,NY,10023,Manhattan,40.780769,-73.980466
QUEENS OFFICE TOWER LIMITED PARTNERSHIP,7188309344,9525 QUEENS BLVD,REGO PARK,NY,11374,Queens,40.730904,-73.863609
HUDSON RIVER PARKING CORP.,2127367171,3720 HENRY HUDSON PKWY,BRONX,NY,10463,Bronx,40.887945,-73.910605
ST GEORGE FERRY PARKING CORP.,212-736-7171,55B RICHMOND TER,STATEN ISLAND,NY,10301,Staten Island,40.643674,-74.076032
"800 BRADY PARKING, INC.",3478435023,800 BRADY AVE,BRONX,NY,10462,Bronx,40.852243,-73.863749